<?xml version="1.0" encoding="UTF-8"?>
<gpx xmlns="http://www.topografix.com/GPX/1/1" xmlns:xsi="http://www.w3.org/2001/XMLSchema-instance" xsi:schemaLocation="http://www.topografix.com/GPX/1/1 http://www.topografix.com/GPX/1/1/gpx.xsd" version="1.1" creator="鹏">
  <metadata>
    <name>Bike Ride (Completed)</name>
    <desc>Distance: 5.473km, Estimated duration: 0.31h, Elevation up: 35.486689858297545m, Elevation down: 36.257171443014634m</desc>
    <author>
      <name>鹏</name>
      <link href="https://www.komoot.de/user/3342641231843">
        <text>View 鹏's Profile on Komoot</text>
      </link>
    </author>
    <link href="https://www.komoot.de/tour/1084018971">
      <text>View tour on Komoot</text>
    </link>
  </metadata>
  <trk>
    <name>Bike Ride (Completed)</name>
    <desc>Distance: 5.473km, Estimated duration: 0.31h, Elevation up: 35.486689858297545m, Elevation down: 36.257171443014634m</desc>
    <link href="https://www.komoot.de/tour/1084018971">
      <text>View tour on Komoot</text>
    </link>
    <trkseg>
      <trkpt lat="22.524116" lon="113.950645">
        <ele>4.7</ele>
        <time>2023-04-17T18:49:03.182000+0800</time>
      </trkpt>
      <trkpt lat="22.524396" lon="113.950638">
        <ele>4.7</ele>
        <time>2023-04-17T18:49:41.769000+0800</time>
      </trkpt>
      <trkpt lat="22.524531" lon="113.950651">
        <ele>4.7</ele>
        <time>2023-04-17T18:49:44.778000+0800</time>
      </trkpt>
      <trkpt lat="22.524654" lon="113.950655">
        <ele>4.7</ele>
        <time>2023-04-17T18:49:47.776000+0800</time>
      </trkpt>
      <trkpt lat="22.524744" lon="113.950655">
        <ele>4.7</ele>
        <time>2023-04-17T18:49:49.722000+0800</time>
      </trkpt>
      <trkpt lat="22.524838" lon="113.950661">
        <ele>4.7</ele>
        <time>2023-04-17T18:49:51.789000+0800</time>
      </trkpt>
      <trkpt lat="22.524932" lon="113.950668">
        <ele>4.7</ele>
        <time>2023-04-17T18:49:53.778000+0800</time>
      </trkpt>
      <trkpt lat="22.525028" lon="113.950669">
        <ele>4.7</ele>
        <time>2023-04-17T18:49:55.749000+0800</time>
      </trkpt>
      <trkpt lat="22.525127" lon="113.950674">
        <ele>4.6</ele>
        <time>2023-04-17T18:49:57.727000+0800</time>
      </trkpt>
      <trkpt lat="22.525233" lon="113.950691">
        <ele>4.4</ele>
        <time>2023-04-17T18:49:59.715000+0800</time>
      </trkpt>
      <trkpt lat="22.525335" lon="113.950705">
        <ele>4.2</ele>
        <time>2023-04-17T18:50:01.723000+0800</time>
      </trkpt>
      <trkpt lat="22.525426" lon="113.950717">
        <ele>4.1</ele>
        <time>2023-04-17T18:50:03.744000+0800</time>
      </trkpt>
      <trkpt lat="22.525518" lon="113.950725">
        <ele>4</ele>
        <time>2023-04-17T18:50:05.734000+0800</time>
      </trkpt>
      <trkpt lat="22.525609" lon="113.950735">
        <ele>3.8</ele>
        <time>2023-04-17T18:50:07.725000+0800</time>
      </trkpt>
      <trkpt lat="22.525707" lon="113.950741">
        <ele>3.7</ele>
        <time>2023-04-17T18:50:09.733000+0800</time>
      </trkpt>
      <trkpt lat="22.525813" lon="113.950756">
        <ele>3.5</ele>
        <time>2023-04-17T18:50:11.757000+0800</time>
      </trkpt>
      <trkpt lat="22.525913" lon="113.950769">
        <ele>3.3</ele>
        <time>2023-04-17T18:50:13.746000+0800</time>
      </trkpt>
      <trkpt lat="22.526008" lon="113.950773">
        <ele>3.2</ele>
        <time>2023-04-17T18:50:15.749000+0800</time>
      </trkpt>
      <trkpt lat="22.526118" lon="113.950774">
        <ele>3</ele>
        <time>2023-04-17T18:50:17.683000+0800</time>
      </trkpt>
      <trkpt lat="22.526224" lon="113.95077">
        <ele>2.9</ele>
        <time>2023-04-17T18:50:19.711000+0800</time>
      </trkpt>
      <trkpt lat="22.526322" lon="113.950786">
        <ele>2.7</ele>
        <time>2023-04-17T18:50:21.694000+0800</time>
      </trkpt>
      <trkpt lat="22.526427" lon="113.950798">
        <ele>2.5</ele>
        <time>2023-04-17T18:50:23.725000+0800</time>
      </trkpt>
      <trkpt lat="22.526525" lon="113.950804">
        <ele>2.4</ele>
        <time>2023-04-17T18:50:25.663000+0800</time>
      </trkpt>
      <trkpt lat="22.52663" lon="113.950807">
        <ele>2.2</ele>
        <time>2023-04-17T18:50:27.722000+0800</time>
      </trkpt>
      <trkpt lat="22.526732" lon="113.950812">
        <ele>2.1</ele>
        <time>2023-04-17T18:50:29.664000+0800</time>
      </trkpt>
      <trkpt lat="22.526842" lon="113.950818">
        <ele>2</ele>
        <time>2023-04-17T18:50:31.694000+0800</time>
      </trkpt>
      <trkpt lat="22.526948" lon="113.950822">
        <ele>2.1</ele>
        <time>2023-04-17T18:50:33.704000+0800</time>
      </trkpt>
      <trkpt lat="22.527059" lon="113.950824">
        <ele>2.3</ele>
        <time>2023-04-17T18:50:35.688000+0800</time>
      </trkpt>
      <trkpt lat="22.527155" lon="113.950829">
        <ele>2.4</ele>
        <time>2023-04-17T18:50:37.718000+0800</time>
      </trkpt>
      <trkpt lat="22.527246" lon="113.950847">
        <ele>2.5</ele>
        <time>2023-04-17T18:50:39.696000+0800</time>
      </trkpt>
      <trkpt lat="22.527341" lon="113.950882">
        <ele>2.6</ele>
        <time>2023-04-17T18:50:41.743000+0800</time>
      </trkpt>
      <trkpt lat="22.52745" lon="113.950894">
        <ele>2.8</ele>
        <time>2023-04-17T18:50:43.698000+0800</time>
      </trkpt>
      <trkpt lat="22.527567" lon="113.950896">
        <ele>2.9</ele>
        <time>2023-04-17T18:50:45.716000+0800</time>
      </trkpt>
      <trkpt lat="22.527685" lon="113.950898">
        <ele>3.1</ele>
        <time>2023-04-17T18:50:47.672000+0800</time>
      </trkpt>
      <trkpt lat="22.527803" lon="113.950908">
        <ele>3.2</ele>
        <time>2023-04-17T18:50:49.662000+0800</time>
      </trkpt>
      <trkpt lat="22.527922" lon="113.950921">
        <ele>3.4</ele>
        <time>2023-04-17T18:50:51.675000+0800</time>
      </trkpt>
      <trkpt lat="22.528037" lon="113.950933">
        <ele>3.5</ele>
        <time>2023-04-17T18:50:53.755000+0800</time>
      </trkpt>
      <trkpt lat="22.528153" lon="113.950939">
        <ele>3.7</ele>
        <time>2023-04-17T18:50:55.705000+0800</time>
      </trkpt>
      <trkpt lat="22.528272" lon="113.95094">
        <ele>3.8</ele>
        <time>2023-04-17T18:50:57.670000+0800</time>
      </trkpt>
      <trkpt lat="22.528389" lon="113.950943">
        <ele>4</ele>
        <time>2023-04-17T18:50:59.717000+0800</time>
      </trkpt>
      <trkpt lat="22.528514" lon="113.950951">
        <ele>4.1</ele>
        <time>2023-04-17T18:51:01.712000+0800</time>
      </trkpt>
      <trkpt lat="22.528634" lon="113.950956">
        <ele>4.3</ele>
        <time>2023-04-17T18:51:03.693000+0800</time>
      </trkpt>
      <trkpt lat="22.528755" lon="113.95096">
        <ele>4.3</ele>
        <time>2023-04-17T18:51:05.700000+0800</time>
      </trkpt>
      <trkpt lat="22.528869" lon="113.950969">
        <ele>4.3</ele>
        <time>2023-04-17T18:51:07.666000+0800</time>
      </trkpt>
      <trkpt lat="22.528986" lon="113.950976">
        <ele>4.4</ele>
        <time>2023-04-17T18:51:09.696000+0800</time>
      </trkpt>
      <trkpt lat="22.529111" lon="113.950979">
        <ele>4.4</ele>
        <time>2023-04-17T18:51:11.736000+0800</time>
      </trkpt>
      <trkpt lat="22.529231" lon="113.950983">
        <ele>4.5</ele>
        <time>2023-04-17T18:51:13.687000+0800</time>
      </trkpt>
      <trkpt lat="22.529339" lon="113.950992">
        <ele>4.5</ele>
        <time>2023-04-17T18:51:15.700000+0800</time>
      </trkpt>
      <trkpt lat="22.529452" lon="113.951007">
        <ele>4.5</ele>
        <time>2023-04-17T18:51:17.714000+0800</time>
      </trkpt>
      <trkpt lat="22.529573" lon="113.951009">
        <ele>4.6</ele>
        <time>2023-04-17T18:51:19.701000+0800</time>
      </trkpt>
      <trkpt lat="22.529686" lon="113.951016">
        <ele>4.6</ele>
        <time>2023-04-17T18:51:21.697000+0800</time>
      </trkpt>
      <trkpt lat="22.529798" lon="113.951017">
        <ele>4.7</ele>
        <time>2023-04-17T18:51:23.713000+0800</time>
      </trkpt>
      <trkpt lat="22.529916" lon="113.951009">
        <ele>4.7</ele>
        <time>2023-04-17T18:51:25.695000+0800</time>
      </trkpt>
      <trkpt lat="22.530033" lon="113.951033">
        <ele>4.7</ele>
        <time>2023-04-17T18:51:27.712000+0800</time>
      </trkpt>
      <trkpt lat="22.530148" lon="113.951046">
        <ele>4.8</ele>
        <time>2023-04-17T18:51:29.684000+0800</time>
      </trkpt>
      <trkpt lat="22.530274" lon="113.951059">
        <ele>4.8</ele>
        <time>2023-04-17T18:51:31.698000+0800</time>
      </trkpt>
      <trkpt lat="22.530396" lon="113.951065">
        <ele>4.9</ele>
        <time>2023-04-17T18:51:33.691000+0800</time>
      </trkpt>
      <trkpt lat="22.530516" lon="113.951078">
        <ele>4.9</ele>
        <time>2023-04-17T18:51:35.694000+0800</time>
      </trkpt>
      <trkpt lat="22.530636" lon="113.951092">
        <ele>4.8</ele>
        <time>2023-04-17T18:51:37.703000+0800</time>
      </trkpt>
      <trkpt lat="22.53075" lon="113.9511">
        <ele>4.8</ele>
        <time>2023-04-17T18:51:39.699000+0800</time>
      </trkpt>
      <trkpt lat="22.530869" lon="113.951106">
        <ele>4.8</ele>
        <time>2023-04-17T18:51:41.682000+0800</time>
      </trkpt>
      <trkpt lat="22.530998" lon="113.951113">
        <ele>4.8</ele>
        <time>2023-04-17T18:51:43.701000+0800</time>
      </trkpt>
      <trkpt lat="22.531111" lon="113.951118">
        <ele>4.8</ele>
        <time>2023-04-17T18:51:45.700000+0800</time>
      </trkpt>
      <trkpt lat="22.531221" lon="113.951127">
        <ele>4.8</ele>
        <time>2023-04-17T18:51:47.684000+0800</time>
      </trkpt>
      <trkpt lat="22.531334" lon="113.951128">
        <ele>4.8</ele>
        <time>2023-04-17T18:51:49.691000+0800</time>
      </trkpt>
      <trkpt lat="22.531447" lon="113.951133">
        <ele>4.8</ele>
        <time>2023-04-17T18:51:51.689000+0800</time>
      </trkpt>
      <trkpt lat="22.531563" lon="113.951142">
        <ele>4.8</ele>
        <time>2023-04-17T18:51:53.691000+0800</time>
      </trkpt>
      <trkpt lat="22.531686" lon="113.951149">
        <ele>4.8</ele>
        <time>2023-04-17T18:51:55.707000+0800</time>
      </trkpt>
      <trkpt lat="22.531805" lon="113.951157">
        <ele>4.8</ele>
        <time>2023-04-17T18:51:57.699000+0800</time>
      </trkpt>
      <trkpt lat="22.531929" lon="113.951164">
        <ele>4.8</ele>
        <time>2023-04-17T18:51:59.698000+0800</time>
      </trkpt>
      <trkpt lat="22.532052" lon="113.951171">
        <ele>4.8</ele>
        <time>2023-04-17T18:52:01.689000+0800</time>
      </trkpt>
      <trkpt lat="22.532171" lon="113.951179">
        <ele>4.8</ele>
        <time>2023-04-17T18:52:03.722000+0800</time>
      </trkpt>
      <trkpt lat="22.532293" lon="113.951187">
        <ele>4.7</ele>
        <time>2023-04-17T18:52:05.695000+0800</time>
      </trkpt>
      <trkpt lat="22.532411" lon="113.951189">
        <ele>4.5</ele>
        <time>2023-04-17T18:52:07.697000+0800</time>
      </trkpt>
      <trkpt lat="22.532528" lon="113.951195">
        <ele>4.4</ele>
        <time>2023-04-17T18:52:09.723000+0800</time>
      </trkpt>
      <trkpt lat="22.532657" lon="113.951203">
        <ele>4.3</ele>
        <time>2023-04-17T18:52:11.695000+0800</time>
      </trkpt>
      <trkpt lat="22.532775" lon="113.951205">
        <ele>4.2</ele>
        <time>2023-04-17T18:52:13.705000+0800</time>
      </trkpt>
      <trkpt lat="22.532895" lon="113.951203">
        <ele>4.1</ele>
        <time>2023-04-17T18:52:15.697000+0800</time>
      </trkpt>
      <trkpt lat="22.533023" lon="113.951202">
        <ele>3.9</ele>
        <time>2023-04-17T18:52:17.705000+0800</time>
      </trkpt>
      <trkpt lat="22.533145" lon="113.951207">
        <ele>3.8</ele>
        <time>2023-04-17T18:52:19.699000+0800</time>
      </trkpt>
      <trkpt lat="22.533265" lon="113.951213">
        <ele>3.7</ele>
        <time>2023-04-17T18:52:21.695000+0800</time>
      </trkpt>
      <trkpt lat="22.53338" lon="113.951226">
        <ele>3.6</ele>
        <time>2023-04-17T18:52:23.677000+0800</time>
      </trkpt>
      <trkpt lat="22.533493" lon="113.951238">
        <ele>3.5</ele>
        <time>2023-04-17T18:52:25.704000+0800</time>
      </trkpt>
      <trkpt lat="22.533604" lon="113.95124">
        <ele>3.4</ele>
        <time>2023-04-17T18:52:27.696000+0800</time>
      </trkpt>
      <trkpt lat="22.533705" lon="113.951246">
        <ele>3.3</ele>
        <time>2023-04-17T18:52:29.668000+0800</time>
      </trkpt>
      <trkpt lat="22.533801" lon="113.951241">
        <ele>3.2</ele>
        <time>2023-04-17T18:52:31.726000+0800</time>
      </trkpt>
      <trkpt lat="22.5339" lon="113.951234">
        <ele>3.1</ele>
        <time>2023-04-17T18:52:33.742000+0800</time>
      </trkpt>
      <trkpt lat="22.533997" lon="113.951219">
        <ele>3</ele>
        <time>2023-04-17T18:52:35.740000+0800</time>
      </trkpt>
      <trkpt lat="22.534089" lon="113.951221">
        <ele>2.8</ele>
        <time>2023-04-17T18:52:37.749000+0800</time>
      </trkpt>
      <trkpt lat="22.534213" lon="113.951229">
        <ele>2.6</ele>
        <time>2023-04-17T18:52:40.737000+0800</time>
      </trkpt>
      <trkpt lat="22.53432" lon="113.951233">
        <ele>2.5</ele>
        <time>2023-04-17T18:52:44.735000+0800</time>
      </trkpt>
      <trkpt lat="22.534439" lon="113.951247">
        <ele>2.3</ele>
        <time>2023-04-17T18:52:47.721000+0800</time>
      </trkpt>
      <trkpt lat="22.534538" lon="113.951269">
        <ele>2.1</ele>
        <time>2023-04-17T18:52:49.749000+0800</time>
      </trkpt>
      <trkpt lat="22.534633" lon="113.95131">
        <ele>2</ele>
        <time>2023-04-17T18:52:51.755000+0800</time>
      </trkpt>
      <trkpt lat="22.534732" lon="113.951335">
        <ele>1.8</ele>
        <time>2023-04-17T18:52:53.715000+0800</time>
      </trkpt>
      <trkpt lat="22.534828" lon="113.951348">
        <ele>1.7</ele>
        <time>2023-04-17T18:52:55.716000+0800</time>
      </trkpt>
      <trkpt lat="22.534958" lon="113.951338">
        <ele>1.4</ele>
        <time>2023-04-17T18:52:58.729000+0800</time>
      </trkpt>
      <trkpt lat="22.535051" lon="113.951347">
        <ele>1.3</ele>
        <time>2023-04-17T18:53:00.739000+0800</time>
      </trkpt>
      <trkpt lat="22.53515" lon="113.951347">
        <ele>1.1</ele>
        <time>2023-04-17T18:53:02.727000+0800</time>
      </trkpt>
      <trkpt lat="22.535251" lon="113.951368">
        <ele>1</ele>
        <time>2023-04-17T18:53:04.715000+0800</time>
      </trkpt>
      <trkpt lat="22.535333" lon="113.951407">
        <ele>0.8</ele>
        <time>2023-04-17T18:53:06.728000+0800</time>
      </trkpt>
      <trkpt lat="22.535456" lon="113.951466">
        <ele>0.6</ele>
        <time>2023-04-17T18:53:09.750000+0800</time>
      </trkpt>
      <trkpt lat="22.535546" lon="113.951514">
        <ele>0.5</ele>
        <time>2023-04-17T18:53:11.739000+0800</time>
      </trkpt>
      <trkpt lat="22.535629" lon="113.951556">
        <ele>0.3</ele>
        <time>2023-04-17T18:53:13.761000+0800</time>
      </trkpt>
      <trkpt lat="22.535721" lon="113.951604">
        <ele>0.2</ele>
        <time>2023-04-17T18:53:15.766000+0800</time>
      </trkpt>
      <trkpt lat="22.535819" lon="113.951682">
        <ele>0.6</ele>
        <time>2023-04-17T18:53:17.732000+0800</time>
      </trkpt>
      <trkpt lat="22.535921" lon="113.951733">
        <ele>0.9</ele>
        <time>2023-04-17T18:53:19.773000+0800</time>
      </trkpt>
      <trkpt lat="22.536023" lon="113.951785">
        <ele>1.2</ele>
        <time>2023-04-17T18:53:21.737000+0800</time>
      </trkpt>
      <trkpt lat="22.536124" lon="113.951862">
        <ele>1.6</ele>
        <time>2023-04-17T18:53:24.723000+0800</time>
      </trkpt>
      <trkpt lat="22.536261" lon="113.951936">
        <ele>2.1</ele>
        <time>2023-04-17T18:53:27.755000+0800</time>
      </trkpt>
      <trkpt lat="22.536352" lon="113.951984">
        <ele>2.4</ele>
        <time>2023-04-17T18:53:29.787000+0800</time>
      </trkpt>
      <trkpt lat="22.536429" lon="113.952046">
        <ele>2.7</ele>
        <time>2023-04-17T18:53:31.806000+0800</time>
      </trkpt>
      <trkpt lat="22.536496" lon="113.952122">
        <ele>3</ele>
        <time>2023-04-17T18:53:33.790000+0800</time>
      </trkpt>
      <trkpt lat="22.536583" lon="113.952175">
        <ele>3.3</ele>
        <time>2023-04-17T18:53:35.794000+0800</time>
      </trkpt>
      <trkpt lat="22.536672" lon="113.952232">
        <ele>3.6</ele>
        <time>2023-04-17T18:53:37.749000+0800</time>
      </trkpt>
      <trkpt lat="22.536763" lon="113.952291">
        <ele>3.9</ele>
        <time>2023-04-17T18:53:39.750000+0800</time>
      </trkpt>
      <trkpt lat="22.536861" lon="113.952342">
        <ele>4.2</ele>
        <time>2023-04-17T18:53:41.762000+0800</time>
      </trkpt>
      <trkpt lat="22.536956" lon="113.952392">
        <ele>4.5</ele>
        <time>2023-04-17T18:53:43.741000+0800</time>
      </trkpt>
      <trkpt lat="22.537046" lon="113.952438">
        <ele>4.8</ele>
        <time>2023-04-17T18:53:45.731000+0800</time>
      </trkpt>
      <trkpt lat="22.537139" lon="113.952496">
        <ele>5.2</ele>
        <time>2023-04-17T18:53:47.739000+0800</time>
      </trkpt>
      <trkpt lat="22.537228" lon="113.952555">
        <ele>5.5</ele>
        <time>2023-04-17T18:53:49.736000+0800</time>
      </trkpt>
      <trkpt lat="22.537318" lon="113.952624">
        <ele>5.6</ele>
        <time>2023-04-17T18:53:51.754000+0800</time>
      </trkpt>
      <trkpt lat="22.537416" lon="113.952692">
        <ele>5.5</ele>
        <time>2023-04-17T18:53:53.724000+0800</time>
      </trkpt>
      <trkpt lat="22.537512" lon="113.952759">
        <ele>5.5</ele>
        <time>2023-04-17T18:53:55.740000+0800</time>
      </trkpt>
      <trkpt lat="22.537606" lon="113.952818">
        <ele>5.5</ele>
        <time>2023-04-17T18:53:57.710000+0800</time>
      </trkpt>
      <trkpt lat="22.537704" lon="113.95287">
        <ele>5.4</ele>
        <time>2023-04-17T18:53:59.740000+0800</time>
      </trkpt>
      <trkpt lat="22.537793" lon="113.952913">
        <ele>5.4</ele>
        <time>2023-04-17T18:54:01.702000+0800</time>
      </trkpt>
      <trkpt lat="22.537877" lon="113.95295">
        <ele>5.4</ele>
        <time>2023-04-17T18:54:03.727000+0800</time>
      </trkpt>
      <trkpt lat="22.537958" lon="113.953001">
        <ele>5.4</ele>
        <time>2023-04-17T18:54:05.694000+0800</time>
      </trkpt>
      <trkpt lat="22.538054" lon="113.953056">
        <ele>5.4</ele>
        <time>2023-04-17T18:54:07.734000+0800</time>
      </trkpt>
      <trkpt lat="22.538151" lon="113.953112">
        <ele>5.3</ele>
        <time>2023-04-17T18:54:09.735000+0800</time>
      </trkpt>
      <trkpt lat="22.538266" lon="113.95319">
        <ele>5.3</ele>
        <time>2023-04-17T18:54:12.707000+0800</time>
      </trkpt>
      <trkpt lat="22.538361" lon="113.953251">
        <ele>5.3</ele>
        <time>2023-04-17T18:54:14.738000+0800</time>
      </trkpt>
      <trkpt lat="22.538452" lon="113.953307">
        <ele>5.2</ele>
        <time>2023-04-17T18:54:16.726000+0800</time>
      </trkpt>
      <trkpt lat="22.538539" lon="113.953348">
        <ele>5.2</ele>
        <time>2023-04-17T18:54:18.728000+0800</time>
      </trkpt>
      <trkpt lat="22.538627" lon="113.953406">
        <ele>5.2</ele>
        <time>2023-04-17T18:54:20.700000+0800</time>
      </trkpt>
      <trkpt lat="22.538732" lon="113.95346">
        <ele>5.2</ele>
        <time>2023-04-17T18:54:22.685000+0800</time>
      </trkpt>
      <trkpt lat="22.538829" lon="113.953506">
        <ele>5.1</ele>
        <time>2023-04-17T18:54:24.689000+0800</time>
      </trkpt>
      <trkpt lat="22.538921" lon="113.953552">
        <ele>5.2</ele>
        <time>2023-04-17T18:54:26.727000+0800</time>
      </trkpt>
      <trkpt lat="22.539006" lon="113.953598">
        <ele>5.3</ele>
        <time>2023-04-17T18:54:28.741000+0800</time>
      </trkpt>
      <trkpt lat="22.539096" lon="113.953655">
        <ele>5.4</ele>
        <time>2023-04-17T18:54:30.731000+0800</time>
      </trkpt>
      <trkpt lat="22.539198" lon="113.953718">
        <ele>5.6</ele>
        <time>2023-04-17T18:54:32.723000+0800</time>
      </trkpt>
      <trkpt lat="22.539292" lon="113.95378">
        <ele>5.7</ele>
        <time>2023-04-17T18:54:34.706000+0800</time>
      </trkpt>
      <trkpt lat="22.539383" lon="113.953832">
        <ele>5.8</ele>
        <time>2023-04-17T18:54:36.731000+0800</time>
      </trkpt>
      <trkpt lat="22.539479" lon="113.953884">
        <ele>5.9</ele>
        <time>2023-04-17T18:54:38.764000+0800</time>
      </trkpt>
      <trkpt lat="22.539573" lon="113.953939">
        <ele>6</ele>
        <time>2023-04-17T18:54:40.712000+0800</time>
      </trkpt>
      <trkpt lat="22.539677" lon="113.953992">
        <ele>6.2</ele>
        <time>2023-04-17T18:54:42.701000+0800</time>
      </trkpt>
      <trkpt lat="22.539786" lon="113.954049">
        <ele>6.3</ele>
        <time>2023-04-17T18:54:44.720000+0800</time>
      </trkpt>
      <trkpt lat="22.539882" lon="113.954111">
        <ele>6.4</ele>
        <time>2023-04-17T18:54:46.722000+0800</time>
      </trkpt>
      <trkpt lat="22.539962" lon="113.954174">
        <ele>6.5</ele>
        <time>2023-04-17T18:54:48.722000+0800</time>
      </trkpt>
      <trkpt lat="22.540053" lon="113.954229">
        <ele>6.6</ele>
        <time>2023-04-17T18:54:50.749000+0800</time>
      </trkpt>
      <trkpt lat="22.540139" lon="113.954279">
        <ele>6.7</ele>
        <time>2023-04-17T18:54:52.727000+0800</time>
      </trkpt>
      <trkpt lat="22.540242" lon="113.954331">
        <ele>6.8</ele>
        <time>2023-04-17T18:54:54.757000+0800</time>
      </trkpt>
      <trkpt lat="22.540334" lon="113.954381">
        <ele>7</ele>
        <time>2023-04-17T18:54:56.719000+0800</time>
      </trkpt>
      <trkpt lat="22.540437" lon="113.954431">
        <ele>7</ele>
        <time>2023-04-17T18:54:58.733000+0800</time>
      </trkpt>
      <trkpt lat="22.540533" lon="113.954477">
        <ele>6.8</ele>
        <time>2023-04-17T18:55:00.743000+0800</time>
      </trkpt>
      <trkpt lat="22.540626" lon="113.954502">
        <ele>6.6</ele>
        <time>2023-04-17T18:55:02.739000+0800</time>
      </trkpt>
      <trkpt lat="22.54072" lon="113.954549">
        <ele>6.4</ele>
        <time>2023-04-17T18:55:05.706000+0800</time>
      </trkpt>
      <trkpt lat="22.540804" lon="113.954601">
        <ele>6.3</ele>
        <time>2023-04-17T18:55:08.731000+0800</time>
      </trkpt>
      <trkpt lat="22.540904" lon="113.95468">
        <ele>6</ele>
        <time>2023-04-17T18:55:11.737000+0800</time>
      </trkpt>
      <trkpt lat="22.540988" lon="113.954722">
        <ele>5.8</ele>
        <time>2023-04-17T18:55:13.726000+0800</time>
      </trkpt>
      <trkpt lat="22.541073" lon="113.954761">
        <ele>5.7</ele>
        <time>2023-04-17T18:55:15.740000+0800</time>
      </trkpt>
      <trkpt lat="22.541199" lon="113.954802">
        <ele>5.4</ele>
        <time>2023-04-17T18:55:18.715000+0800</time>
      </trkpt>
      <trkpt lat="22.541327" lon="113.954848">
        <ele>5.2</ele>
        <time>2023-04-17T18:55:21.743000+0800</time>
      </trkpt>
      <trkpt lat="22.54141" lon="113.954899">
        <ele>5</ele>
        <time>2023-04-17T18:55:23.740000+0800</time>
      </trkpt>
      <trkpt lat="22.5415" lon="113.954941">
        <ele>4.8</ele>
        <time>2023-04-17T18:55:25.734000+0800</time>
      </trkpt>
      <trkpt lat="22.541594" lon="113.954975">
        <ele>4.6</ele>
        <time>2023-04-17T18:55:27.736000+0800</time>
      </trkpt>
      <trkpt lat="22.541683" lon="113.954991">
        <ele>4.4</ele>
        <time>2023-04-17T18:55:29.726000+0800</time>
      </trkpt>
      <trkpt lat="22.541774" lon="113.955006">
        <ele>4.3</ele>
        <time>2023-04-17T18:55:31.729000+0800</time>
      </trkpt>
      <trkpt lat="22.541904" lon="113.955026">
        <ele>4</ele>
        <time>2023-04-17T18:55:34.759000+0800</time>
      </trkpt>
      <trkpt lat="22.542025" lon="113.955069">
        <ele>3.8</ele>
        <time>2023-04-17T18:55:37.704000+0800</time>
      </trkpt>
      <trkpt lat="22.542116" lon="113.955084">
        <ele>3.6</ele>
        <time>2023-04-17T18:55:39.694000+0800</time>
      </trkpt>
      <trkpt lat="22.542238" lon="113.95511">
        <ele>3.7</ele>
        <time>2023-04-17T18:55:42.720000+0800</time>
      </trkpt>
      <trkpt lat="22.542372" lon="113.955141">
        <ele>3.7</ele>
        <time>2023-04-17T18:55:45.744000+0800</time>
      </trkpt>
      <trkpt lat="22.542476" lon="113.955152">
        <ele>3.7</ele>
        <time>2023-04-17T18:55:47.720000+0800</time>
      </trkpt>
      <trkpt lat="22.542578" lon="113.955154">
        <ele>3.8</ele>
        <time>2023-04-17T18:55:49.751000+0800</time>
      </trkpt>
      <trkpt lat="22.542668" lon="113.955161">
        <ele>3.8</ele>
        <time>2023-04-17T18:55:51.675000+0800</time>
      </trkpt>
      <trkpt lat="22.542797" lon="113.955181">
        <ele>3.8</ele>
        <time>2023-04-17T18:55:54.734000+0800</time>
      </trkpt>
      <trkpt lat="22.542891" lon="113.955217">
        <ele>3.9</ele>
        <time>2023-04-17T18:55:57.710000+0800</time>
      </trkpt>
      <trkpt lat="22.542983" lon="113.95523">
        <ele>3.9</ele>
        <time>2023-04-17T18:56:00.721000+0800</time>
      </trkpt>
      <trkpt lat="22.543073" lon="113.955244">
        <ele>3.9</ele>
        <time>2023-04-17T18:56:03.749000+0800</time>
      </trkpt>
      <trkpt lat="22.543185" lon="113.955208">
        <ele>4</ele>
        <time>2023-04-17T18:56:06.744000+0800</time>
      </trkpt>
      <trkpt lat="22.543301" lon="113.955183">
        <ele>4</ele>
        <time>2023-04-17T18:56:09.712000+0800</time>
      </trkpt>
      <trkpt lat="22.543393" lon="113.955172">
        <ele>4</ele>
        <time>2023-04-17T18:56:11.718000+0800</time>
      </trkpt>
      <trkpt lat="22.543488" lon="113.955155">
        <ele>4</ele>
        <time>2023-04-17T18:56:14.734000+0800</time>
      </trkpt>
      <trkpt lat="22.54358" lon="113.955142">
        <ele>4.1</ele>
        <time>2023-04-17T18:56:17.722000+0800</time>
      </trkpt>
      <trkpt lat="22.54367" lon="113.955161">
        <ele>4.1</ele>
        <time>2023-04-17T18:56:21.741000+0800</time>
      </trkpt>
      <trkpt lat="22.543776" lon="113.955143">
        <ele>4.1</ele>
        <time>2023-04-17T18:56:24.786000+0800</time>
      </trkpt>
      <trkpt lat="22.54387" lon="113.955175">
        <ele>4.1</ele>
        <time>2023-04-17T18:56:28.772000+0800</time>
      </trkpt>
      <trkpt lat="22.54395" lon="113.955236">
        <ele>4</ele>
        <time>2023-04-17T18:56:33.783000+0800</time>
      </trkpt>
      <trkpt lat="22.544064" lon="113.95527">
        <ele>3.8</ele>
        <time>2023-04-17T18:56:38.794000+0800</time>
      </trkpt>
      <trkpt lat="22.54415" lon="113.9553">
        <ele>3.7</ele>
        <time>2023-04-17T18:56:41.787000+0800</time>
      </trkpt>
      <trkpt lat="22.544266" lon="113.955325">
        <ele>3.6</ele>
        <time>2023-04-17T18:56:45.802000+0800</time>
      </trkpt>
      <trkpt lat="22.544384" lon="113.955326">
        <ele>3.4</ele>
        <time>2023-04-17T18:56:48.777000+0800</time>
      </trkpt>
      <trkpt lat="22.544514" lon="113.955329">
        <ele>3.2</ele>
        <time>2023-04-17T18:56:51.816000+0800</time>
      </trkpt>
      <trkpt lat="22.544607" lon="113.955329">
        <ele>3.1</ele>
        <time>2023-04-17T18:56:53.803000+0800</time>
      </trkpt>
      <trkpt lat="22.544698" lon="113.955336">
        <ele>3</ele>
        <time>2023-04-17T18:56:55.788000+0800</time>
      </trkpt>
      <trkpt lat="22.544791" lon="113.95534">
        <ele>2.9</ele>
        <time>2023-04-17T18:56:57.752000+0800</time>
      </trkpt>
      <trkpt lat="22.544887" lon="113.955343">
        <ele>2.7</ele>
        <time>2023-04-17T18:56:59.773000+0800</time>
      </trkpt>
      <trkpt lat="22.544989" lon="113.955351">
        <ele>2.6</ele>
        <time>2023-04-17T18:57:01.798000+0800</time>
      </trkpt>
      <trkpt lat="22.545097" lon="113.955367">
        <ele>2.4</ele>
        <time>2023-04-17T18:57:03.789000+0800</time>
      </trkpt>
      <trkpt lat="22.545197" lon="113.955387">
        <ele>2.3</ele>
        <time>2023-04-17T18:57:05.769000+0800</time>
      </trkpt>
      <trkpt lat="22.545296" lon="113.95541">
        <ele>2.2</ele>
        <time>2023-04-17T18:57:07.788000+0800</time>
      </trkpt>
      <trkpt lat="22.545405" lon="113.955433">
        <ele>2</ele>
        <time>2023-04-17T18:57:09.798000+0800</time>
      </trkpt>
      <trkpt lat="22.545509" lon="113.955461">
        <ele>1.9</ele>
        <time>2023-04-17T18:57:11.772000+0800</time>
      </trkpt>
      <trkpt lat="22.545609" lon="113.955493">
        <ele>1.7</ele>
        <time>2023-04-17T18:57:13.789000+0800</time>
      </trkpt>
      <trkpt lat="22.545712" lon="113.955527">
        <ele>1.3</ele>
        <time>2023-04-17T18:57:15.808000+0800</time>
      </trkpt>
      <trkpt lat="22.545819" lon="113.955549">
        <ele>0.9</ele>
        <time>2023-04-17T18:57:17.785000+0800</time>
      </trkpt>
      <trkpt lat="22.545923" lon="113.955571">
        <ele>0.5</ele>
        <time>2023-04-17T18:57:19.796000+0800</time>
      </trkpt>
      <trkpt lat="22.546024" lon="113.95561">
        <ele>0.1</ele>
        <time>2023-04-17T18:57:21.772000+0800</time>
      </trkpt>
      <trkpt lat="22.546126" lon="113.955639">
        <ele>-0.3</ele>
        <time>2023-04-17T18:57:23.783000+0800</time>
      </trkpt>
      <trkpt lat="22.546239" lon="113.95567">
        <ele>-0.8</ele>
        <time>2023-04-17T18:57:25.832000+0800</time>
      </trkpt>
      <trkpt lat="22.546347" lon="113.955703">
        <ele>-1.2</ele>
        <time>2023-04-17T18:57:27.757000+0800</time>
      </trkpt>
      <trkpt lat="22.546438" lon="113.955735">
        <ele>-1.6</ele>
        <time>2023-04-17T18:57:29.750000+0800</time>
      </trkpt>
      <trkpt lat="22.546529" lon="113.955765">
        <ele>-2</ele>
        <time>2023-04-17T18:57:31.731000+0800</time>
      </trkpt>
      <trkpt lat="22.546615" lon="113.955796">
        <ele>-2.3</ele>
        <time>2023-04-17T18:57:33.750000+0800</time>
      </trkpt>
      <trkpt lat="22.546702" lon="113.955823">
        <ele>-2.7</ele>
        <time>2023-04-17T18:57:35.752000+0800</time>
      </trkpt>
      <trkpt lat="22.546798" lon="113.955852">
        <ele>-3.1</ele>
        <time>2023-04-17T18:57:37.741000+0800</time>
      </trkpt>
      <trkpt lat="22.546888" lon="113.955886">
        <ele>-3.5</ele>
        <time>2023-04-17T18:57:40.752000+0800</time>
      </trkpt>
      <trkpt lat="22.546999" lon="113.9559">
        <ele>-3.9</ele>
        <time>2023-04-17T18:57:43.763000+0800</time>
      </trkpt>
      <trkpt lat="22.547121" lon="113.955918">
        <ele>-4.4</ele>
        <time>2023-04-17T18:57:46.760000+0800</time>
      </trkpt>
      <trkpt lat="22.547213" lon="113.955951">
        <ele>-4.7</ele>
        <time>2023-04-17T18:57:48.750000+0800</time>
      </trkpt>
      <trkpt lat="22.54732" lon="113.955979">
        <ele>-5.2</ele>
        <time>2023-04-17T18:57:50.742000+0800</time>
      </trkpt>
      <trkpt lat="22.547436" lon="113.956012">
        <ele>-5.4</ele>
        <time>2023-04-17T18:57:52.721000+0800</time>
      </trkpt>
      <trkpt lat="22.547546" lon="113.95605">
        <ele>-5.5</ele>
        <time>2023-04-17T18:57:54.745000+0800</time>
      </trkpt>
      <trkpt lat="22.547648" lon="113.956081">
        <ele>-5.6</ele>
        <time>2023-04-17T18:57:56.728000+0800</time>
      </trkpt>
      <trkpt lat="22.547744" lon="113.956126">
        <ele>-5.8</ele>
        <time>2023-04-17T18:57:58.725000+0800</time>
      </trkpt>
      <trkpt lat="22.547856" lon="113.956168">
        <ele>-5.9</ele>
        <time>2023-04-17T18:58:00.742000+0800</time>
      </trkpt>
      <trkpt lat="22.54797" lon="113.956205">
        <ele>-6</ele>
        <time>2023-04-17T18:58:02.746000+0800</time>
      </trkpt>
      <trkpt lat="22.548077" lon="113.956237">
        <ele>-6.1</ele>
        <time>2023-04-17T18:58:04.750000+0800</time>
      </trkpt>
      <trkpt lat="22.548181" lon="113.956269">
        <ele>-6.3</ele>
        <time>2023-04-17T18:58:06.732000+0800</time>
      </trkpt>
      <trkpt lat="22.548293" lon="113.956295">
        <ele>-6.4</ele>
        <time>2023-04-17T18:58:08.757000+0800</time>
      </trkpt>
      <trkpt lat="22.548392" lon="113.956306">
        <ele>-6.5</ele>
        <time>2023-04-17T18:58:10.735000+0800</time>
      </trkpt>
      <trkpt lat="22.548488" lon="113.956326">
        <ele>-6.6</ele>
        <time>2023-04-17T18:58:12.718000+0800</time>
      </trkpt>
      <trkpt lat="22.54858" lon="113.956357">
        <ele>-6.7</ele>
        <time>2023-04-17T18:58:14.723000+0800</time>
      </trkpt>
      <trkpt lat="22.548686" lon="113.956387">
        <ele>-6.8</ele>
        <time>2023-04-17T18:58:16.761000+0800</time>
      </trkpt>
      <trkpt lat="22.548796" lon="113.95642">
        <ele>-6.9</ele>
        <time>2023-04-17T18:58:18.718000+0800</time>
      </trkpt>
      <trkpt lat="22.548904" lon="113.956465">
        <ele>-7.1</ele>
        <time>2023-04-17T18:58:20.755000+0800</time>
      </trkpt>
      <trkpt lat="22.54902" lon="113.956507">
        <ele>-7.2</ele>
        <time>2023-04-17T18:58:22.738000+0800</time>
      </trkpt>
      <trkpt lat="22.549145" lon="113.956539">
        <ele>-7.3</ele>
        <time>2023-04-17T18:58:24.738000+0800</time>
      </trkpt>
      <trkpt lat="22.549278" lon="113.956571">
        <ele>-7.4</ele>
        <time>2023-04-17T18:58:26.742000+0800</time>
      </trkpt>
      <trkpt lat="22.549381" lon="113.956601">
        <ele>-7.5</ele>
        <time>2023-04-17T18:58:28.754000+0800</time>
      </trkpt>
      <trkpt lat="22.549509" lon="113.956616">
        <ele>-7.7</ele>
        <time>2023-04-17T18:58:30.743000+0800</time>
      </trkpt>
      <trkpt lat="22.549636" lon="113.956621">
        <ele>-7.8</ele>
        <time>2023-04-17T18:58:32.744000+0800</time>
      </trkpt>
      <trkpt lat="22.549762" lon="113.956627">
        <ele>-7.9</ele>
        <time>2023-04-17T18:58:34.734000+0800</time>
      </trkpt>
      <trkpt lat="22.549872" lon="113.956642">
        <ele>-8</ele>
        <time>2023-04-17T18:58:36.730000+0800</time>
      </trkpt>
      <trkpt lat="22.549995" lon="113.956631">
        <ele>-8.1</ele>
        <time>2023-04-17T18:58:38.739000+0800</time>
      </trkpt>
      <trkpt lat="22.550106" lon="113.956614">
        <ele>-8.2</ele>
        <time>2023-04-17T18:58:40.729000+0800</time>
      </trkpt>
      <trkpt lat="22.550227" lon="113.956618">
        <ele>-8.3</ele>
        <time>2023-04-17T18:58:42.725000+0800</time>
      </trkpt>
      <trkpt lat="22.550347" lon="113.956623">
        <ele>-8.4</ele>
        <time>2023-04-17T18:58:44.741000+0800</time>
      </trkpt>
      <trkpt lat="22.550461" lon="113.95662">
        <ele>-8.5</ele>
        <time>2023-04-17T18:58:46.751000+0800</time>
      </trkpt>
      <trkpt lat="22.550579" lon="113.956606">
        <ele>-8.6</ele>
        <time>2023-04-17T18:58:48.739000+0800</time>
      </trkpt>
      <trkpt lat="22.550686" lon="113.956597">
        <ele>-8.7</ele>
        <time>2023-04-17T18:58:50.729000+0800</time>
      </trkpt>
      <trkpt lat="22.550781" lon="113.956587">
        <ele>-8.8</ele>
        <time>2023-04-17T18:58:52.721000+0800</time>
      </trkpt>
      <trkpt lat="22.550891" lon="113.956562">
        <ele>-8.9</ele>
        <time>2023-04-17T18:58:55.736000+0800</time>
      </trkpt>
      <trkpt lat="22.551028" lon="113.95655">
        <ele>-9.2</ele>
        <time>2023-04-17T18:58:58.743000+0800</time>
      </trkpt>
      <trkpt lat="22.551126" lon="113.956525">
        <ele>-9.3</ele>
        <time>2023-04-17T18:59:00.731000+0800</time>
      </trkpt>
      <trkpt lat="22.551218" lon="113.9565">
        <ele>-9.5</ele>
        <time>2023-04-17T18:59:02.738000+0800</time>
      </trkpt>
      <trkpt lat="22.551311" lon="113.956483">
        <ele>-9.6</ele>
        <time>2023-04-17T18:59:04.697000+0800</time>
      </trkpt>
      <trkpt lat="22.551414" lon="113.956469">
        <ele>-9.7</ele>
        <time>2023-04-17T18:59:06.739000+0800</time>
      </trkpt>
      <trkpt lat="22.55152" lon="113.956437">
        <ele>-9.9</ele>
        <time>2023-04-17T18:59:08.739000+0800</time>
      </trkpt>
      <trkpt lat="22.551626" lon="113.956398">
        <ele>-10.1</ele>
        <time>2023-04-17T18:59:10.733000+0800</time>
      </trkpt>
      <trkpt lat="22.551731" lon="113.956371">
        <ele>-10.2</ele>
        <time>2023-04-17T18:59:12.707000+0800</time>
      </trkpt>
      <trkpt lat="22.551834" lon="113.956353">
        <ele>-10.4</ele>
        <time>2023-04-17T18:59:14.725000+0800</time>
      </trkpt>
      <trkpt lat="22.551953" lon="113.956316">
        <ele>-10.6</ele>
        <time>2023-04-17T18:59:16.745000+0800</time>
      </trkpt>
      <trkpt lat="22.552062" lon="113.956262">
        <ele>-10.8</ele>
        <time>2023-04-17T18:59:18.712000+0800</time>
      </trkpt>
      <trkpt lat="22.552173" lon="113.95622">
        <ele>-10.9</ele>
        <time>2023-04-17T18:59:20.688000+0800</time>
      </trkpt>
      <trkpt lat="22.552277" lon="113.956178">
        <ele>-11.1</ele>
        <time>2023-04-17T18:59:22.694000+0800</time>
      </trkpt>
      <trkpt lat="22.552383" lon="113.95612">
        <ele>-11.3</ele>
        <time>2023-04-17T18:59:24.709000+0800</time>
      </trkpt>
      <trkpt lat="22.552488" lon="113.956058">
        <ele>-11.5</ele>
        <time>2023-04-17T18:59:26.710000+0800</time>
      </trkpt>
      <trkpt lat="22.552596" lon="113.956004">
        <ele>-11.6</ele>
        <time>2023-04-17T18:59:28.738000+0800</time>
      </trkpt>
      <trkpt lat="22.552688" lon="113.95595">
        <ele>-11.4</ele>
        <time>2023-04-17T18:59:30.739000+0800</time>
      </trkpt>
      <trkpt lat="22.552793" lon="113.955879">
        <ele>-11.3</ele>
        <time>2023-04-17T18:59:32.712000+0800</time>
      </trkpt>
      <trkpt lat="22.552896" lon="113.955806">
        <ele>-11.1</ele>
        <time>2023-04-17T18:59:34.731000+0800</time>
      </trkpt>
      <trkpt lat="22.553003" lon="113.955732">
        <ele>-11</ele>
        <time>2023-04-17T18:59:36.751000+0800</time>
      </trkpt>
      <trkpt lat="22.553094" lon="113.955669">
        <ele>-10.8</ele>
        <time>2023-04-17T18:59:38.766000+0800</time>
      </trkpt>
      <trkpt lat="22.55318" lon="113.9556">
        <ele>-10.7</ele>
        <time>2023-04-17T18:59:40.731000+0800</time>
      </trkpt>
      <trkpt lat="22.553268" lon="113.955536">
        <ele>-10.5</ele>
        <time>2023-04-17T18:59:42.721000+0800</time>
      </trkpt>
      <trkpt lat="22.553354" lon="113.955475">
        <ele>-10.4</ele>
        <time>2023-04-17T18:59:44.770000+0800</time>
      </trkpt>
      <trkpt lat="22.553468" lon="113.95545">
        <ele>-10.3</ele>
        <time>2023-04-17T18:59:46.754000+0800</time>
      </trkpt>
      <trkpt lat="22.553566" lon="113.955408">
        <ele>-10.1</ele>
        <time>2023-04-17T18:59:48.737000+0800</time>
      </trkpt>
      <trkpt lat="22.553647" lon="113.955363">
        <ele>-10</ele>
        <time>2023-04-17T18:59:50.742000+0800</time>
      </trkpt>
      <trkpt lat="22.553732" lon="113.955322">
        <ele>-9.9</ele>
        <time>2023-04-17T18:59:52.709000+0800</time>
      </trkpt>
      <trkpt lat="22.553824" lon="113.955268">
        <ele>-9.7</ele>
        <time>2023-04-17T18:59:54.730000+0800</time>
      </trkpt>
      <trkpt lat="22.553907" lon="113.955195">
        <ele>-9.6</ele>
        <time>2023-04-17T18:59:56.773000+0800</time>
      </trkpt>
      <trkpt lat="22.553978" lon="113.955128">
        <ele>-9.5</ele>
        <time>2023-04-17T18:59:58.737000+0800</time>
      </trkpt>
      <trkpt lat="22.554083" lon="113.955054">
        <ele>-9.3</ele>
        <time>2023-04-17T19:00:01.688000+0800</time>
      </trkpt>
      <trkpt lat="22.554164" lon="113.955006">
        <ele>-9.2</ele>
        <time>2023-04-17T19:00:03.705000+0800</time>
      </trkpt>
      <trkpt lat="22.554246" lon="113.954947">
        <ele>-9</ele>
        <time>2023-04-17T19:00:05.718000+0800</time>
      </trkpt>
      <trkpt lat="22.554342" lon="113.954872">
        <ele>-8.8</ele>
        <time>2023-04-17T19:00:07.770000+0800</time>
      </trkpt>
      <trkpt lat="22.554428" lon="113.954806">
        <ele>-8.7</ele>
        <time>2023-04-17T19:00:09.727000+0800</time>
      </trkpt>
      <trkpt lat="22.554508" lon="113.954733">
        <ele>-8.5</ele>
        <time>2023-04-17T19:00:11.724000+0800</time>
      </trkpt>
      <trkpt lat="22.554588" lon="113.954659">
        <ele>-8.4</ele>
        <time>2023-04-17T19:00:13.723000+0800</time>
      </trkpt>
      <trkpt lat="22.554667" lon="113.954597">
        <ele>-8.2</ele>
        <time>2023-04-17T19:00:15.761000+0800</time>
      </trkpt>
      <trkpt lat="22.554749" lon="113.954534">
        <ele>-8.1</ele>
        <time>2023-04-17T19:00:17.763000+0800</time>
      </trkpt>
      <trkpt lat="22.55483" lon="113.95447">
        <ele>-7.9</ele>
        <time>2023-04-17T19:00:19.749000+0800</time>
      </trkpt>
      <trkpt lat="22.554924" lon="113.954445">
        <ele>-7.8</ele>
        <time>2023-04-17T19:00:21.754000+0800</time>
      </trkpt>
      <trkpt lat="22.555015" lon="113.954466">
        <ele>-7.6</ele>
        <time>2023-04-17T19:00:23.753000+0800</time>
      </trkpt>
      <trkpt lat="22.555116" lon="113.954468">
        <ele>-7.5</ele>
        <time>2023-04-17T19:00:25.754000+0800</time>
      </trkpt>
      <trkpt lat="22.555238" lon="113.954462">
        <ele>-7.3</ele>
        <time>2023-04-17T19:00:27.744000+0800</time>
      </trkpt>
      <trkpt lat="22.555337" lon="113.954442">
        <ele>-7.1</ele>
        <time>2023-04-17T19:00:30.767000+0800</time>
      </trkpt>
      <trkpt lat="22.555438" lon="113.954402">
        <ele>-7</ele>
        <time>2023-04-17T19:00:32.805000+0800</time>
      </trkpt>
      <trkpt lat="22.555536" lon="113.954316">
        <ele>-6.8</ele>
        <time>2023-04-17T19:00:34.784000+0800</time>
      </trkpt>
      <trkpt lat="22.555576" lon="113.954219">
        <ele>-6.6</ele>
        <time>2023-04-17T19:00:36.814000+0800</time>
      </trkpt>
      <trkpt lat="22.555622" lon="113.954119">
        <ele>-6.3</ele>
        <time>2023-04-17T19:00:38.766000+0800</time>
      </trkpt>
      <trkpt lat="22.555672" lon="113.95403">
        <ele>-5.8</ele>
        <time>2023-04-17T19:00:40.751000+0800</time>
      </trkpt>
      <trkpt lat="22.55572" lon="113.953943">
        <ele>-5.3</ele>
        <time>2023-04-17T19:00:42.723000+0800</time>
      </trkpt>
      <trkpt lat="22.555798" lon="113.953874">
        <ele>-4.8</ele>
        <time>2023-04-17T19:00:44.738000+0800</time>
      </trkpt>
      <trkpt lat="22.55591" lon="113.953867">
        <ele>-4.2</ele>
        <time>2023-04-17T19:00:46.765000+0800</time>
      </trkpt>
      <trkpt lat="22.556017" lon="113.953865">
        <ele>-3.7</ele>
        <time>2023-04-17T19:00:48.742000+0800</time>
      </trkpt>
      <trkpt lat="22.55613" lon="113.953874">
        <ele>-3.1</ele>
        <time>2023-04-17T19:00:51.737000+0800</time>
      </trkpt>
      <trkpt lat="22.556226" lon="113.953875">
        <ele>-2.6</ele>
        <time>2023-04-17T19:00:53.723000+0800</time>
      </trkpt>
      <trkpt lat="22.556326" lon="113.953876">
        <ele>-2.1</ele>
        <time>2023-04-17T19:00:55.759000+0800</time>
      </trkpt>
      <trkpt lat="22.556444" lon="113.953875">
        <ele>-1.5</ele>
        <time>2023-04-17T19:00:57.776000+0800</time>
      </trkpt>
      <trkpt lat="22.55656" lon="113.953845">
        <ele>-0.9</ele>
        <time>2023-04-17T19:00:59.778000+0800</time>
      </trkpt>
      <trkpt lat="22.556745" lon="113.953812">
        <ele>0</ele>
        <time>2023-04-17T19:01:01.810000+0800</time>
      </trkpt>
      <trkpt lat="22.55684" lon="113.953797">
        <ele>0.5</ele>
        <time>2023-04-17T19:01:06.747000+0800</time>
      </trkpt>
      <trkpt lat="22.556957" lon="113.953813">
        <ele>1.1</ele>
        <time>2023-04-17T19:01:10.758000+0800</time>
      </trkpt>
      <trkpt lat="22.557052" lon="113.953843">
        <ele>1.6</ele>
        <time>2023-04-17T19:01:12.725000+0800</time>
      </trkpt>
      <trkpt lat="22.557151" lon="113.953883">
        <ele>2.2</ele>
        <time>2023-04-17T19:01:14.736000+0800</time>
      </trkpt>
      <trkpt lat="22.557259" lon="113.953863">
        <ele>2.6</ele>
        <time>2023-04-17T19:01:17.737000+0800</time>
      </trkpt>
      <trkpt lat="22.55736" lon="113.953871">
        <ele>2.4</ele>
        <time>2023-04-17T19:01:19.719000+0800</time>
      </trkpt>
      <trkpt lat="22.557493" lon="113.953873">
        <ele>2.1</ele>
        <time>2023-04-17T19:01:21.736000+0800</time>
      </trkpt>
      <trkpt lat="22.557596" lon="113.953857">
        <ele>1.8</ele>
        <time>2023-04-17T19:01:23.743000+0800</time>
      </trkpt>
      <trkpt lat="22.557718" lon="113.953844">
        <ele>1.5</ele>
        <time>2023-04-17T19:01:26.741000+0800</time>
      </trkpt>
      <trkpt lat="22.557808" lon="113.95385">
        <ele>1.3</ele>
        <time>2023-04-17T19:01:28.736000+0800</time>
      </trkpt>
      <trkpt lat="22.557918" lon="113.953861">
        <ele>1.1</ele>
        <time>2023-04-17T19:01:30.738000+0800</time>
      </trkpt>
      <trkpt lat="22.558029" lon="113.953887">
        <ele>0.8</ele>
        <time>2023-04-17T19:01:32.749000+0800</time>
      </trkpt>
      <trkpt lat="22.558125" lon="113.953922">
        <ele>0.5</ele>
        <time>2023-04-17T19:01:34.748000+0800</time>
      </trkpt>
      <trkpt lat="22.55823" lon="113.95394">
        <ele>0.3</ele>
        <time>2023-04-17T19:01:36.762000+0800</time>
      </trkpt>
      <trkpt lat="22.558338" lon="113.95396">
        <ele>0</ele>
        <time>2023-04-17T19:01:38.757000+0800</time>
      </trkpt>
      <trkpt lat="22.558444" lon="113.953972">
        <ele>-0.2</ele>
        <time>2023-04-17T19:01:40.730000+0800</time>
      </trkpt>
      <trkpt lat="22.558549" lon="113.953965">
        <ele>-0.5</ele>
        <time>2023-04-17T19:01:42.687000+0800</time>
      </trkpt>
      <trkpt lat="22.558652" lon="113.953965">
        <ele>-0.7</ele>
        <time>2023-04-17T19:01:44.745000+0800</time>
      </trkpt>
      <trkpt lat="22.558754" lon="113.953982">
        <ele>-1</ele>
        <time>2023-04-17T19:01:46.715000+0800</time>
      </trkpt>
      <trkpt lat="22.55886" lon="113.953995">
        <ele>-1.2</ele>
        <time>2023-04-17T19:01:48.688000+0800</time>
      </trkpt>
      <trkpt lat="22.558972" lon="113.953995">
        <ele>-1.5</ele>
        <time>2023-04-17T19:01:50.732000+0800</time>
      </trkpt>
      <trkpt lat="22.559074" lon="113.954001">
        <ele>-1.7</ele>
        <time>2023-04-17T19:01:52.700000+0800</time>
      </trkpt>
      <trkpt lat="22.559199" lon="113.954001">
        <ele>-1.9</ele>
        <time>2023-04-17T19:01:54.739000+0800</time>
      </trkpt>
      <trkpt lat="22.55932" lon="113.954001">
        <ele>-2.1</ele>
        <time>2023-04-17T19:01:56.725000+0800</time>
      </trkpt>
      <trkpt lat="22.559437" lon="113.954008">
        <ele>-2.2</ele>
        <time>2023-04-17T19:01:58.687000+0800</time>
      </trkpt>
      <trkpt lat="22.559545" lon="113.954013">
        <ele>-2.4</ele>
        <time>2023-04-17T19:02:00.746000+0800</time>
      </trkpt>
      <trkpt lat="22.559665" lon="113.954017">
        <ele>-2.6</ele>
        <time>2023-04-17T19:02:02.731000+0800</time>
      </trkpt>
      <trkpt lat="22.559781" lon="113.954019">
        <ele>-2.8</ele>
        <time>2023-04-17T19:02:04.731000+0800</time>
      </trkpt>
      <trkpt lat="22.559886" lon="113.954024">
        <ele>-2.9</ele>
        <time>2023-04-17T19:02:06.744000+0800</time>
      </trkpt>
      <trkpt lat="22.559999" lon="113.95403">
        <ele>-3.1</ele>
        <time>2023-04-17T19:02:08.717000+0800</time>
      </trkpt>
      <trkpt lat="22.560108" lon="113.954041">
        <ele>-3.3</ele>
        <time>2023-04-17T19:02:10.745000+0800</time>
      </trkpt>
      <trkpt lat="22.560216" lon="113.954049">
        <ele>-3.4</ele>
        <time>2023-04-17T19:02:12.709000+0800</time>
      </trkpt>
      <trkpt lat="22.560328" lon="113.954048">
        <ele>-3.6</ele>
        <time>2023-04-17T19:02:14.751000+0800</time>
      </trkpt>
      <trkpt lat="22.560445" lon="113.954057">
        <ele>-3.8</ele>
        <time>2023-04-17T19:02:16.730000+0800</time>
      </trkpt>
      <trkpt lat="22.560561" lon="113.954064">
        <ele>-3.9</ele>
        <time>2023-04-17T19:02:18.759000+0800</time>
      </trkpt>
      <trkpt lat="22.560681" lon="113.954067">
        <ele>-4.1</ele>
        <time>2023-04-17T19:02:20.660000+0800</time>
      </trkpt>
      <trkpt lat="22.560807" lon="113.954062">
        <ele>-4.3</ele>
        <time>2023-04-17T19:02:22.713000+0800</time>
      </trkpt>
      <trkpt lat="22.560914" lon="113.954064">
        <ele>-4.2</ele>
        <time>2023-04-17T19:02:24.756000+0800</time>
      </trkpt>
      <trkpt lat="22.56103" lon="113.954063">
        <ele>-4</ele>
        <time>2023-04-17T19:02:26.707000+0800</time>
      </trkpt>
      <trkpt lat="22.561147" lon="113.954064">
        <ele>-3.8</ele>
        <time>2023-04-17T19:02:28.763000+0800</time>
      </trkpt>
      <trkpt lat="22.561256" lon="113.954068">
        <ele>-3.6</ele>
        <time>2023-04-17T19:02:30.747000+0800</time>
      </trkpt>
      <trkpt lat="22.561383" lon="113.954081">
        <ele>-3.3</ele>
        <time>2023-04-17T19:02:32.735000+0800</time>
      </trkpt>
      <trkpt lat="22.561491" lon="113.954091">
        <ele>-3.1</ele>
        <time>2023-04-17T19:02:34.734000+0800</time>
      </trkpt>
      <trkpt lat="22.561609" lon="113.954088">
        <ele>-2.9</ele>
        <time>2023-04-17T19:02:36.748000+0800</time>
      </trkpt>
      <trkpt lat="22.561723" lon="113.954093">
        <ele>-2.7</ele>
        <time>2023-04-17T19:02:38.760000+0800</time>
      </trkpt>
      <trkpt lat="22.561839" lon="113.954089">
        <ele>-2.5</ele>
        <time>2023-04-17T19:02:40.735000+0800</time>
      </trkpt>
      <trkpt lat="22.561963" lon="113.954092">
        <ele>-2.3</ele>
        <time>2023-04-17T19:02:42.752000+0800</time>
      </trkpt>
      <trkpt lat="22.562073" lon="113.954101">
        <ele>-2.1</ele>
        <time>2023-04-17T19:02:44.734000+0800</time>
      </trkpt>
      <trkpt lat="22.562184" lon="113.954095">
        <ele>-1.9</ele>
        <time>2023-04-17T19:02:46.752000+0800</time>
      </trkpt>
      <trkpt lat="22.562299" lon="113.954097">
        <ele>-1.7</ele>
        <time>2023-04-17T19:02:48.736000+0800</time>
      </trkpt>
      <trkpt lat="22.562424" lon="113.954096">
        <ele>-1.4</ele>
        <time>2023-04-17T19:02:50.751000+0800</time>
      </trkpt>
      <trkpt lat="22.562538" lon="113.954101">
        <ele>-1.2</ele>
        <time>2023-04-17T19:02:52.748000+0800</time>
      </trkpt>
      <trkpt lat="22.562639" lon="113.954113">
        <ele>-1.1</ele>
        <time>2023-04-17T19:02:54.745000+0800</time>
      </trkpt>
      <trkpt lat="22.562745" lon="113.954116">
        <ele>-1.2</ele>
        <time>2023-04-17T19:02:56.728000+0800</time>
      </trkpt>
      <trkpt lat="22.562844" lon="113.954101">
        <ele>-1.2</ele>
        <time>2023-04-17T19:02:58.753000+0800</time>
      </trkpt>
      <trkpt lat="22.562937" lon="113.954077">
        <ele>-1.3</ele>
        <time>2023-04-17T19:03:00.765000+0800</time>
      </trkpt>
      <trkpt lat="22.563068" lon="113.954061">
        <ele>-1.4</ele>
        <time>2023-04-17T19:03:03.746000+0800</time>
      </trkpt>
      <trkpt lat="22.563177" lon="113.954039">
        <ele>-1.4</ele>
        <time>2023-04-17T19:03:05.777000+0800</time>
      </trkpt>
      <trkpt lat="22.563281" lon="113.954028">
        <ele>-1.5</ele>
        <time>2023-04-17T19:03:07.775000+0800</time>
      </trkpt>
      <trkpt lat="22.563387" lon="113.954024">
        <ele>-1.6</ele>
        <time>2023-04-17T19:03:09.763000+0800</time>
      </trkpt>
      <trkpt lat="22.563485" lon="113.95402">
        <ele>-1.6</ele>
        <time>2023-04-17T19:03:11.762000+0800</time>
      </trkpt>
      <trkpt lat="22.563589" lon="113.954004">
        <ele>-1.7</ele>
        <time>2023-04-17T19:03:13.755000+0800</time>
      </trkpt>
      <trkpt lat="22.56371" lon="113.953993">
        <ele>-1.8</ele>
        <time>2023-04-17T19:03:16.741000+0800</time>
      </trkpt>
      <trkpt lat="22.563826" lon="113.953981">
        <ele>-1.9</ele>
        <time>2023-04-17T19:03:19.734000+0800</time>
      </trkpt>
      <trkpt lat="22.563922" lon="113.953977">
        <ele>-1.9</ele>
        <time>2023-04-17T19:03:21.786000+0800</time>
      </trkpt>
      <trkpt lat="22.564027" lon="113.953959">
        <ele>-2</ele>
        <time>2023-04-17T19:03:23.821000+0800</time>
      </trkpt>
      <trkpt lat="22.564133" lon="113.953958">
        <ele>-2.1</ele>
        <time>2023-04-17T19:03:25.824000+0800</time>
      </trkpt>
      <trkpt lat="22.564252" lon="113.953953">
        <ele>-2.1</ele>
        <time>2023-04-17T19:03:28.751000+0800</time>
      </trkpt>
      <trkpt lat="22.564368" lon="113.95394">
        <ele>-2.2</ele>
        <time>2023-04-17T19:03:31.775000+0800</time>
      </trkpt>
      <trkpt lat="22.564497" lon="113.953956">
        <ele>-1.9</ele>
        <time>2023-04-17T19:03:33.782000+0800</time>
      </trkpt>
      <trkpt lat="22.564636" lon="113.953968">
        <ele>-1.3</ele>
        <time>2023-04-17T19:03:35.786000+0800</time>
      </trkpt>
      <trkpt lat="22.564685" lon="113.954057">
        <ele>-0.9</ele>
        <time>2023-04-17T19:03:38.790000+0800</time>
      </trkpt>
      <trkpt lat="22.564673" lon="113.954156">
        <ele>-0.6</ele>
        <time>2023-04-17T19:03:41.780000+0800</time>
      </trkpt>
      <trkpt lat="22.564658" lon="113.954266">
        <ele>-0.2</ele>
        <time>2023-04-17T19:03:44.797000+0800</time>
      </trkpt>
      <trkpt lat="22.564708" lon="113.95438">
        <ele>0.3</ele>
        <time>2023-04-17T19:03:48.812000+0800</time>
      </trkpt>
      <trkpt lat="22.564818" lon="113.954398">
        <ele>0.7</ele>
        <time>2023-04-17T19:03:51.798000+0800</time>
      </trkpt>
      <trkpt lat="22.564949" lon="113.954431">
        <ele>1.3</ele>
        <time>2023-04-17T19:03:54.796000+0800</time>
      </trkpt>
      <trkpt lat="22.565063" lon="113.954462">
        <ele>1.8</ele>
        <time>2023-04-17T19:03:57.815000+0800</time>
      </trkpt>
      <trkpt lat="22.565156" lon="113.954475">
        <ele>2.1</ele>
        <time>2023-04-17T19:04:00.837000+0800</time>
      </trkpt>
      <trkpt lat="22.565253" lon="113.954487">
        <ele>2.5</ele>
        <time>2023-04-17T19:04:03.817000+0800</time>
      </trkpt>
      <trkpt lat="22.565342" lon="113.954508">
        <ele>2.9</ele>
        <time>2023-04-17T19:04:06.794000+0800</time>
      </trkpt>
      <trkpt lat="22.565358" lon="113.95462">
        <ele>3.3</ele>
        <time>2023-04-17T19:04:10.800000+0800</time>
      </trkpt>
      <trkpt lat="22.565377" lon="113.95475">
        <ele>3.8</ele>
        <time>2023-04-17T19:04:14.786000+0800</time>
      </trkpt>
      <trkpt lat="22.565393" lon="113.954854">
        <ele>4.2</ele>
        <time>2023-04-17T19:04:17.811000+0800</time>
      </trkpt>
      <trkpt lat="22.565407" lon="113.954952">
        <ele>4.6</ele>
        <time>2023-04-17T19:04:20.757000+0800</time>
      </trkpt>
      <trkpt lat="22.565417" lon="113.955054">
        <ele>4.9</ele>
        <time>2023-04-17T19:04:24.782000+0800</time>
      </trkpt>
      <trkpt lat="22.565426" lon="113.955166">
        <ele>4.9</ele>
        <time>2023-04-17T19:04:28.794000+0800</time>
      </trkpt>
      <trkpt lat="22.56543" lon="113.955279">
        <ele>4.9</ele>
        <time>2023-04-17T19:04:32.793000+0800</time>
      </trkpt>
      <trkpt lat="22.565455" lon="113.95539">
        <ele>4.8</ele>
        <time>2023-04-17T19:04:40.764000+0800</time>
      </trkpt>
      <trkpt lat="22.565506" lon="113.955492">
        <ele>4.8</ele>
        <time>2023-04-17T19:04:44.733000+0800</time>
      </trkpt>
      <trkpt lat="22.565538" lon="113.955584">
        <ele>4.8</ele>
        <time>2023-04-17T19:04:47.754000+0800</time>
      </trkpt>
      <trkpt lat="22.56562" lon="113.955678">
        <ele>4.7</ele>
        <time>2023-04-17T19:04:51.778000+0800</time>
      </trkpt>
      <trkpt lat="22.565683" lon="113.955752">
        <ele>4.7</ele>
        <time>2023-04-17T19:04:54.712000+0800</time>
      </trkpt>
      <trkpt lat="22.565754" lon="113.955824">
        <ele>4.6</ele>
        <time>2023-04-17T19:04:57.750000+0800</time>
      </trkpt>
      <trkpt lat="22.565783" lon="113.95592">
        <ele>4.6</ele>
        <time>2023-04-17T19:05:03.759000+0800</time>
      </trkpt>
      <trkpt lat="22.565753" lon="113.95602">
        <ele>4.6</ele>
        <time>2023-04-17T19:05:06.760000+0800</time>
      </trkpt>
      <trkpt lat="22.565722" lon="113.956136">
        <ele>4.5</ele>
        <time>2023-04-17T19:05:09.742000+0800</time>
      </trkpt>
      <trkpt lat="22.565686" lon="113.956247">
        <ele>4.5</ele>
        <time>2023-04-17T19:05:12.751000+0800</time>
      </trkpt>
      <trkpt lat="22.565658" lon="113.956373">
        <ele>4.4</ele>
        <time>2023-04-17T19:05:15.781000+0800</time>
      </trkpt>
      <trkpt lat="22.565622" lon="113.956485">
        <ele>4.4</ele>
        <time>2023-04-17T19:05:18.717000+0800</time>
      </trkpt>
      <trkpt lat="22.565577" lon="113.956615">
        <ele>4.4</ele>
        <time>2023-04-17T19:05:21.745000+0800</time>
      </trkpt>
      <trkpt lat="22.56555" lon="113.956738">
        <ele>4.3</ele>
        <time>2023-04-17T19:05:24.771000+0800</time>
      </trkpt>
      <trkpt lat="22.565528" lon="113.956871">
        <ele>4.3</ele>
        <time>2023-04-17T19:05:27.766000+0800</time>
      </trkpt>
      <trkpt lat="22.565496" lon="113.956972">
        <ele>4.3</ele>
        <time>2023-04-17T19:05:30.745000+0800</time>
      </trkpt>
      <trkpt lat="22.565464" lon="113.957095">
        <ele>4.2</ele>
        <time>2023-04-17T19:05:33.772000+0800</time>
      </trkpt>
      <trkpt lat="22.565438" lon="113.957191">
        <ele>4.2</ele>
        <time>2023-04-17T19:05:35.764000+0800</time>
      </trkpt>
      <trkpt lat="22.565406" lon="113.957316">
        <ele>4.2</ele>
        <time>2023-04-17T19:05:38.752000+0800</time>
      </trkpt>
      <trkpt lat="22.56537" lon="113.957457">
        <ele>4.2</ele>
        <time>2023-04-17T19:05:41.767000+0800</time>
      </trkpt>
      <trkpt lat="22.565335" lon="113.957555">
        <ele>4.2</ele>
        <time>2023-04-17T19:05:43.753000+0800</time>
      </trkpt>
      <trkpt lat="22.565311" lon="113.957655">
        <ele>4.1</ele>
        <time>2023-04-17T19:05:45.742000+0800</time>
      </trkpt>
      <trkpt lat="22.565285" lon="113.957793">
        <ele>4.1</ele>
        <time>2023-04-17T19:05:48.750000+0800</time>
      </trkpt>
      <trkpt lat="22.565257" lon="113.957887">
        <ele>4.1</ele>
        <time>2023-04-17T19:05:50.755000+0800</time>
      </trkpt>
      <trkpt lat="22.565221" lon="113.957989">
        <ele>4.1</ele>
        <time>2023-04-17T19:05:52.715000+0800</time>
      </trkpt>
      <trkpt lat="22.565194" lon="113.958082">
        <ele>4.1</ele>
        <time>2023-04-17T19:05:54.706000+0800</time>
      </trkpt>
      <trkpt lat="22.565166" lon="113.958185">
        <ele>4.1</ele>
        <time>2023-04-17T19:05:56.757000+0800</time>
      </trkpt>
      <trkpt lat="22.565133" lon="113.958277">
        <ele>4</ele>
        <time>2023-04-17T19:05:58.758000+0800</time>
      </trkpt>
      <trkpt lat="22.5651" lon="113.95837">
        <ele>4</ele>
        <time>2023-04-17T19:06:00.740000+0800</time>
      </trkpt>
      <trkpt lat="22.565066" lon="113.958493">
        <ele>4</ele>
        <time>2023-04-17T19:06:03.742000+0800</time>
      </trkpt>
      <trkpt lat="22.565035" lon="113.958638">
        <ele>4</ele>
        <time>2023-04-17T19:06:06.744000+0800</time>
      </trkpt>
      <trkpt lat="22.565015" lon="113.958754">
        <ele>4</ele>
        <time>2023-04-17T19:06:09.727000+0800</time>
      </trkpt>
      <trkpt lat="22.565005" lon="113.958856">
        <ele>4</ele>
        <time>2023-04-17T19:06:13.741000+0800</time>
      </trkpt>
      <trkpt lat="22.564957" lon="113.958958">
        <ele>4</ele>
        <time>2023-04-17T19:06:17.753000+0800</time>
      </trkpt>
      <trkpt lat="22.56493" lon="113.959075">
        <ele>4</ele>
        <time>2023-04-17T19:06:21.771000+0800</time>
      </trkpt>
      <trkpt lat="22.564902" lon="113.95919">
        <ele>4</ele>
        <time>2023-04-17T19:06:25.759000+0800</time>
      </trkpt>
      <trkpt lat="22.564865" lon="113.959287">
        <ele>4</ele>
        <time>2023-04-17T19:06:28.720000+0800</time>
      </trkpt>
      <trkpt lat="22.564829" lon="113.959385">
        <ele>4</ele>
        <time>2023-04-17T19:06:31.731000+0800</time>
      </trkpt>
      <trkpt lat="22.564787" lon="113.959502">
        <ele>4</ele>
        <time>2023-04-17T19:06:34.726000+0800</time>
      </trkpt>
      <trkpt lat="22.564765" lon="113.959623">
        <ele>4</ele>
        <time>2023-04-17T19:06:37.737000+0800</time>
      </trkpt>
      <trkpt lat="22.56475" lon="113.959729">
        <ele>4</ele>
        <time>2023-04-17T19:06:40.735000+0800</time>
      </trkpt>
      <trkpt lat="22.564726" lon="113.959843">
        <ele>4</ele>
        <time>2023-04-17T19:06:43.726000+0800</time>
      </trkpt>
      <trkpt lat="22.564682" lon="113.959957">
        <ele>4</ele>
        <time>2023-04-17T19:06:46.766000+0800</time>
      </trkpt>
      <trkpt lat="22.564647" lon="113.960073">
        <ele>4</ele>
        <time>2023-04-17T19:06:49.780000+0800</time>
      </trkpt>
      <trkpt lat="22.564623" lon="113.960187">
        <ele>4</ele>
        <time>2023-04-17T19:06:53.749000+0800</time>
      </trkpt>
      <trkpt lat="22.564563" lon="113.960274">
        <ele>4</ele>
        <time>2023-04-17T19:06:58.756000+0800</time>
      </trkpt>
      <trkpt lat="22.564544" lon="113.960282">
        <ele>4</ele>
        <time>2023-04-17T19:07:44.011000+0800</time>
      </trkpt>
    </trkseg>
  </trk>
</gpx>