<?xml version="1.0" encoding="UTF-8"?>
<gpx xmlns="http://www.topografix.com/GPX/1/1" xmlns:xsi="http://www.w3.org/2001/XMLSchema-instance" xsi:schemaLocation="http://www.topografix.com/GPX/1/1 http://www.topografix.com/GPX/1/1/gpx.xsd" version="1.1" creator="鹏">
  <metadata>
    <name>Cycling (Completed)</name>
    <desc>Distance: 1.604km, Estimated duration: 0.11h, Elevation up: 4.0m, Elevation down: 4.0m</desc>
    <author>
      <name>鹏</name>
      <link href="https://www.komoot.de/user/3342641231843">
        <text>View 鹏's Profile on Komoot</text>
      </link>
    </author>
    <link href="https://www.komoot.de/tour/1097563968">
      <text>View tour on Komoot</text>
    </link>
  </metadata>
  <trk>
    <name>Cycling (Completed)</name>
    <desc>Distance: 1.604km, Estimated duration: 0.11h, Elevation up: 4.0m, Elevation down: 4.0m</desc>
    <link href="https://www.komoot.de/tour/1097563968">
      <text>View tour on Komoot</text>
    </link>
    <trkseg>
      <trkpt lat="22.522057" lon="113.957893">
        <ele>19.2</ele>
        <time>2023-04-29T09:15:07Z</time>
      </trkpt>
      <trkpt lat="22.522035" lon="113.957898">
        <ele>19.2</ele>
        <time>2023-04-29T09:15:08Z</time>
      </trkpt>
      <trkpt lat="22.52201" lon="113.957904">
        <ele>19.2</ele>
        <time>2023-04-29T09:15:09Z</time>
      </trkpt>
      <trkpt lat="22.521977" lon="113.957917">
        <ele>19.2</ele>
        <time>2023-04-29T09:15:10Z</time>
      </trkpt>
      <trkpt lat="22.521945" lon="113.95794">
        <ele>19.2</ele>
        <time>2023-04-29T09:15:11Z</time>
      </trkpt>
      <trkpt lat="22.521917" lon="113.957965">
        <ele>19.2</ele>
        <time>2023-04-29T09:15:12Z</time>
      </trkpt>
      <trkpt lat="22.52189" lon="113.957996">
        <ele>19.2</ele>
        <time>2023-04-29T09:15:13Z</time>
      </trkpt>
      <trkpt lat="22.521865" lon="113.958029">
        <ele>19.2</ele>
        <time>2023-04-29T09:15:14Z</time>
      </trkpt>
      <trkpt lat="22.521848" lon="113.958064">
        <ele>19.2</ele>
        <time>2023-04-29T09:15:15Z</time>
      </trkpt>
      <trkpt lat="22.521839" lon="113.958098">
        <ele>19.2</ele>
        <time>2023-04-29T09:15:16Z</time>
      </trkpt>
      <trkpt lat="22.521839" lon="113.958138">
        <ele>19.2</ele>
        <time>2023-04-29T09:15:17Z</time>
      </trkpt>
      <trkpt lat="22.52185" lon="113.95818">
        <ele>19.2</ele>
        <time>2023-04-29T09:15:18Z</time>
      </trkpt>
      <trkpt lat="22.521863" lon="113.958219">
        <ele>19.2</ele>
        <time>2023-04-29T09:15:19Z</time>
      </trkpt>
      <trkpt lat="22.521877" lon="113.958258">
        <ele>19.2</ele>
        <time>2023-04-29T09:15:20Z</time>
      </trkpt>
      <trkpt lat="22.521899" lon="113.958297">
        <ele>19.2</ele>
        <time>2023-04-29T09:15:21Z</time>
      </trkpt>
      <trkpt lat="22.521938" lon="113.958334">
        <ele>19.2</ele>
        <time>2023-04-29T09:15:22Z</time>
      </trkpt>
      <trkpt lat="22.521977" lon="113.958366">
        <ele>19.2</ele>
        <time>2023-04-29T09:15:23Z</time>
      </trkpt>
      <trkpt lat="22.522013" lon="113.958392">
        <ele>19.2</ele>
        <time>2023-04-29T09:15:24Z</time>
      </trkpt>
      <trkpt lat="22.522049" lon="113.958425">
        <ele>19.2</ele>
        <time>2023-04-29T09:15:25Z</time>
      </trkpt>
      <trkpt lat="22.522076" lon="113.958468">
        <ele>19.2</ele>
        <time>2023-04-29T09:15:26Z</time>
      </trkpt>
      <trkpt lat="22.522094" lon="113.958519">
        <ele>19.2</ele>
        <time>2023-04-29T09:15:27Z</time>
      </trkpt>
      <trkpt lat="22.522104" lon="113.958565">
        <ele>19.2</ele>
        <time>2023-04-29T09:15:28Z</time>
      </trkpt>
      <trkpt lat="22.522099" lon="113.958614">
        <ele>19.2</ele>
        <time>2023-04-29T09:15:29Z</time>
      </trkpt>
      <trkpt lat="22.522086" lon="113.958664">
        <ele>19.2</ele>
        <time>2023-04-29T09:15:30Z</time>
      </trkpt>
      <trkpt lat="22.522064" lon="113.958707">
        <ele>19.2</ele>
        <time>2023-04-29T09:15:31Z</time>
      </trkpt>
      <trkpt lat="22.522039" lon="113.958748">
        <ele>19.2</ele>
        <time>2023-04-29T09:15:32Z</time>
      </trkpt>
      <trkpt lat="22.522019" lon="113.958793">
        <ele>19.2</ele>
        <time>2023-04-29T09:15:33Z</time>
      </trkpt>
      <trkpt lat="22.522004" lon="113.958839">
        <ele>19.2</ele>
        <time>2023-04-29T09:15:34Z</time>
      </trkpt>
      <trkpt lat="22.521996" lon="113.958885">
        <ele>19.2</ele>
        <time>2023-04-29T09:15:35Z</time>
      </trkpt>
      <trkpt lat="22.521995" lon="113.958934">
        <ele>19.2</ele>
        <time>2023-04-29T09:15:36Z</time>
      </trkpt>
      <trkpt lat="22.521998" lon="113.958988">
        <ele>19.2</ele>
        <time>2023-04-29T09:15:37Z</time>
      </trkpt>
      <trkpt lat="22.521999" lon="113.95904">
        <ele>19.1</ele>
        <time>2023-04-29T09:15:38Z</time>
      </trkpt>
      <trkpt lat="22.521998" lon="113.959094">
        <ele>19.1</ele>
        <time>2023-04-29T09:15:39Z</time>
      </trkpt>
      <trkpt lat="22.522" lon="113.959149">
        <ele>19.1</ele>
        <time>2023-04-29T09:15:40Z</time>
      </trkpt>
      <trkpt lat="22.522001" lon="113.959201">
        <ele>19.1</ele>
        <time>2023-04-29T09:15:41Z</time>
      </trkpt>
      <trkpt lat="22.522001" lon="113.959251">
        <ele>19.1</ele>
        <time>2023-04-29T09:15:42Z</time>
      </trkpt>
      <trkpt lat="22.522002" lon="113.959304">
        <ele>19.1</ele>
        <time>2023-04-29T09:15:43Z</time>
      </trkpt>
      <trkpt lat="22.522001" lon="113.959353">
        <ele>19.1</ele>
        <time>2023-04-29T09:15:44Z</time>
      </trkpt>
      <trkpt lat="22.521995" lon="113.959401">
        <ele>19.1</ele>
        <time>2023-04-29T09:15:45Z</time>
      </trkpt>
      <trkpt lat="22.52199" lon="113.959455">
        <ele>19.1</ele>
        <time>2023-04-29T09:15:46Z</time>
      </trkpt>
      <trkpt lat="22.521986" lon="113.959512">
        <ele>19.1</ele>
        <time>2023-04-29T09:15:47Z</time>
      </trkpt>
      <trkpt lat="22.521985" lon="113.959573">
        <ele>19.1</ele>
        <time>2023-04-29T09:15:48Z</time>
      </trkpt>
      <trkpt lat="22.521983" lon="113.959636">
        <ele>19.1</ele>
        <time>2023-04-29T09:15:49Z</time>
      </trkpt>
      <trkpt lat="22.521981" lon="113.959703">
        <ele>19.1</ele>
        <time>2023-04-29T09:15:50Z</time>
      </trkpt>
      <trkpt lat="22.521979" lon="113.959764">
        <ele>19.1</ele>
        <time>2023-04-29T09:15:51Z</time>
      </trkpt>
      <trkpt lat="22.521975" lon="113.959827">
        <ele>19</ele>
        <time>2023-04-29T09:15:52Z</time>
      </trkpt>
      <trkpt lat="22.521973" lon="113.959893">
        <ele>19</ele>
        <time>2023-04-29T09:15:53Z</time>
      </trkpt>
      <trkpt lat="22.521972" lon="113.959954">
        <ele>19</ele>
        <time>2023-04-29T09:15:54Z</time>
      </trkpt>
      <trkpt lat="22.52197" lon="113.960012">
        <ele>19</ele>
        <time>2023-04-29T09:15:55Z</time>
      </trkpt>
      <trkpt lat="22.521968" lon="113.960069">
        <ele>19</ele>
        <time>2023-04-29T09:15:56Z</time>
      </trkpt>
      <trkpt lat="22.521965" lon="113.960129">
        <ele>19</ele>
        <time>2023-04-29T09:15:57Z</time>
      </trkpt>
      <trkpt lat="22.52196" lon="113.960188">
        <ele>19</ele>
        <time>2023-04-29T09:15:58Z</time>
      </trkpt>
      <trkpt lat="22.521957" lon="113.960244">
        <ele>19</ele>
        <time>2023-04-29T09:15:59Z</time>
      </trkpt>
      <trkpt lat="22.521955" lon="113.960304">
        <ele>19</ele>
        <time>2023-04-29T09:16:00Z</time>
      </trkpt>
      <trkpt lat="22.521955" lon="113.960366">
        <ele>19</ele>
        <time>2023-04-29T09:16:01Z</time>
      </trkpt>
      <trkpt lat="22.521954" lon="113.960427">
        <ele>19</ele>
        <time>2023-04-29T09:16:02Z</time>
      </trkpt>
      <trkpt lat="22.521952" lon="113.960488">
        <ele>19</ele>
        <time>2023-04-29T09:16:03Z</time>
      </trkpt>
      <trkpt lat="22.521949" lon="113.960545">
        <ele>19</ele>
        <time>2023-04-29T09:16:04Z</time>
      </trkpt>
      <trkpt lat="22.521947" lon="113.960599">
        <ele>18.9</ele>
        <time>2023-04-29T09:16:05Z</time>
      </trkpt>
      <trkpt lat="22.521945" lon="113.96065">
        <ele>18.9</ele>
        <time>2023-04-29T09:16:06Z</time>
      </trkpt>
      <trkpt lat="22.521943" lon="113.96069">
        <ele>18.9</ele>
        <time>2023-04-29T09:16:07Z</time>
      </trkpt>
      <trkpt lat="22.521943" lon="113.960715">
        <ele>18.9</ele>
        <time>2023-04-29T09:16:08Z</time>
      </trkpt>
      <trkpt lat="22.521945" lon="113.960724">
        <ele>18.9</ele>
        <time>2023-04-29T09:16:09Z</time>
      </trkpt>
      <trkpt lat="22.521947" lon="113.960724">
        <ele>18.9</ele>
        <time>2023-04-29T09:16:10Z</time>
      </trkpt>
      <trkpt lat="22.521949" lon="113.96073">
        <ele>18.9</ele>
        <time>2023-04-29T09:16:11Z</time>
      </trkpt>
      <trkpt lat="22.521943" lon="113.960745">
        <ele>18.9</ele>
        <time>2023-04-29T09:16:12Z</time>
      </trkpt>
      <trkpt lat="22.521928" lon="113.960757">
        <ele>18.9</ele>
        <time>2023-04-29T09:16:13Z</time>
      </trkpt>
      <trkpt lat="22.521904" lon="113.960759">
        <ele>18.9</ele>
        <time>2023-04-29T09:16:14Z</time>
      </trkpt>
      <trkpt lat="22.521882" lon="113.960757">
        <ele>18.9</ele>
        <time>2023-04-29T09:16:15Z</time>
      </trkpt>
      <trkpt lat="22.521865" lon="113.960768">
        <ele>18.8</ele>
        <time>2023-04-29T09:16:16Z</time>
      </trkpt>
      <trkpt lat="22.521848" lon="113.960777">
        <ele>18.8</ele>
        <time>2023-04-29T09:16:17Z</time>
      </trkpt>
      <trkpt lat="22.521832" lon="113.960772">
        <ele>18.8</ele>
        <time>2023-04-29T09:16:18Z</time>
      </trkpt>
      <trkpt lat="22.52182" lon="113.960748">
        <ele>18.8</ele>
        <time>2023-04-29T09:16:19Z</time>
      </trkpt>
      <trkpt lat="22.521815" lon="113.960712">
        <ele>18.8</ele>
        <time>2023-04-29T09:16:20Z</time>
      </trkpt>
      <trkpt lat="22.521811" lon="113.960682">
        <ele>18.8</ele>
        <time>2023-04-29T09:16:21Z</time>
      </trkpt>
      <trkpt lat="22.521801" lon="113.960645">
        <ele>18.8</ele>
        <time>2023-04-29T09:16:22Z</time>
      </trkpt>
      <trkpt lat="22.521787" lon="113.960602">
        <ele>18.8</ele>
        <time>2023-04-29T09:16:23Z</time>
      </trkpt>
      <trkpt lat="22.521773" lon="113.960561">
        <ele>18.7</ele>
        <time>2023-04-29T09:16:24Z</time>
      </trkpt>
      <trkpt lat="22.521761" lon="113.960515">
        <ele>18.7</ele>
        <time>2023-04-29T09:16:25Z</time>
      </trkpt>
      <trkpt lat="22.52175" lon="113.960473">
        <ele>18.7</ele>
        <time>2023-04-29T09:16:26Z</time>
      </trkpt>
      <trkpt lat="22.521733" lon="113.960441">
        <ele>18.7</ele>
        <time>2023-04-29T09:16:27Z</time>
      </trkpt>
      <trkpt lat="22.521705" lon="113.960417">
        <ele>18.7</ele>
        <time>2023-04-29T09:16:28Z</time>
      </trkpt>
      <trkpt lat="22.521681" lon="113.960391">
        <ele>18.7</ele>
        <time>2023-04-29T09:16:29Z</time>
      </trkpt>
      <trkpt lat="22.521668" lon="113.960358">
        <ele>18.7</ele>
        <time>2023-04-29T09:16:30Z</time>
      </trkpt>
      <trkpt lat="22.521662" lon="113.960317">
        <ele>18.6</ele>
        <time>2023-04-29T09:16:31Z</time>
      </trkpt>
      <trkpt lat="22.521658" lon="113.960278">
        <ele>18.6</ele>
        <time>2023-04-29T09:16:32Z</time>
      </trkpt>
      <trkpt lat="22.521649" lon="113.960241">
        <ele>18.6</ele>
        <time>2023-04-29T09:16:33Z</time>
      </trkpt>
      <trkpt lat="22.521635" lon="113.960198">
        <ele>18.6</ele>
        <time>2023-04-29T09:16:34Z</time>
      </trkpt>
      <trkpt lat="22.521621" lon="113.960157">
        <ele>18.6</ele>
        <time>2023-04-29T09:16:35Z</time>
      </trkpt>
      <trkpt lat="22.521606" lon="113.960114">
        <ele>18.6</ele>
        <time>2023-04-29T09:16:36Z</time>
      </trkpt>
      <trkpt lat="22.521592" lon="113.960072">
        <ele>18.5</ele>
        <time>2023-04-29T09:16:37Z</time>
      </trkpt>
      <trkpt lat="22.521578" lon="113.96003">
        <ele>18.5</ele>
        <time>2023-04-29T09:16:38Z</time>
      </trkpt>
      <trkpt lat="22.521563" lon="113.959989">
        <ele>18.5</ele>
        <time>2023-04-29T09:16:39Z</time>
      </trkpt>
      <trkpt lat="22.521546" lon="113.959946">
        <ele>18.5</ele>
        <time>2023-04-29T09:16:40Z</time>
      </trkpt>
      <trkpt lat="22.521527" lon="113.959905">
        <ele>18.5</ele>
        <time>2023-04-29T09:16:41Z</time>
      </trkpt>
      <trkpt lat="22.521507" lon="113.959859">
        <ele>18.5</ele>
        <time>2023-04-29T09:16:42Z</time>
      </trkpt>
      <trkpt lat="22.521489" lon="113.959817">
        <ele>18.4</ele>
        <time>2023-04-29T09:16:43Z</time>
      </trkpt>
      <trkpt lat="22.521472" lon="113.959779">
        <ele>18.4</ele>
        <time>2023-04-29T09:16:44Z</time>
      </trkpt>
      <trkpt lat="22.521459" lon="113.959737">
        <ele>18.4</ele>
        <time>2023-04-29T09:16:45Z</time>
      </trkpt>
      <trkpt lat="22.521447" lon="113.959695">
        <ele>18.4</ele>
        <time>2023-04-29T09:16:46Z</time>
      </trkpt>
      <trkpt lat="22.521433" lon="113.959653">
        <ele>18.4</ele>
        <time>2023-04-29T09:16:47Z</time>
      </trkpt>
      <trkpt lat="22.521421" lon="113.959608">
        <ele>18.3</ele>
        <time>2023-04-29T09:16:48Z</time>
      </trkpt>
      <trkpt lat="22.521409" lon="113.959562">
        <ele>18.3</ele>
        <time>2023-04-29T09:16:49Z</time>
      </trkpt>
      <trkpt lat="22.521397" lon="113.959519">
        <ele>18.3</ele>
        <time>2023-04-29T09:16:50Z</time>
      </trkpt>
      <trkpt lat="22.521382" lon="113.959478">
        <ele>18.3</ele>
        <time>2023-04-29T09:16:51Z</time>
      </trkpt>
      <trkpt lat="22.521365" lon="113.959438">
        <ele>18.3</ele>
        <time>2023-04-29T09:16:52Z</time>
      </trkpt>
      <trkpt lat="22.521357" lon="113.959405">
        <ele>18.3</ele>
        <time>2023-04-29T09:16:53Z</time>
      </trkpt>
      <trkpt lat="22.521353" lon="113.959361">
        <ele>18.2</ele>
        <time>2023-04-29T09:16:54Z</time>
      </trkpt>
      <trkpt lat="22.521347" lon="113.95931">
        <ele>18.2</ele>
        <time>2023-04-29T09:16:55Z</time>
      </trkpt>
      <trkpt lat="22.521334" lon="113.959267">
        <ele>18.2</ele>
        <time>2023-04-29T09:16:56Z</time>
      </trkpt>
      <trkpt lat="22.521322" lon="113.959226">
        <ele>18.2</ele>
        <time>2023-04-29T09:16:57Z</time>
      </trkpt>
      <trkpt lat="22.521309" lon="113.959183">
        <ele>18.3</ele>
        <time>2023-04-29T09:16:58Z</time>
      </trkpt>
      <trkpt lat="22.5213" lon="113.959143">
        <ele>18.3</ele>
        <time>2023-04-29T09:16:59Z</time>
      </trkpt>
      <trkpt lat="22.521297" lon="113.959097">
        <ele>18.3</ele>
        <time>2023-04-29T09:17:00Z</time>
      </trkpt>
      <trkpt lat="22.521295" lon="113.959054">
        <ele>18.3</ele>
        <time>2023-04-29T09:17:01Z</time>
      </trkpt>
      <trkpt lat="22.521286" lon="113.959015">
        <ele>18.4</ele>
        <time>2023-04-29T09:17:02Z</time>
      </trkpt>
      <trkpt lat="22.521275" lon="113.958977">
        <ele>18.4</ele>
        <time>2023-04-29T09:17:03Z</time>
      </trkpt>
      <trkpt lat="22.521265" lon="113.958939">
        <ele>18.4</ele>
        <time>2023-04-29T09:17:04Z</time>
      </trkpt>
      <trkpt lat="22.521264" lon="113.958901">
        <ele>18.4</ele>
        <time>2023-04-29T09:17:05Z</time>
      </trkpt>
      <trkpt lat="22.521266" lon="113.958866">
        <ele>18.4</ele>
        <time>2023-04-29T09:17:06Z</time>
      </trkpt>
      <trkpt lat="22.521265" lon="113.958835">
        <ele>18.5</ele>
        <time>2023-04-29T09:17:07Z</time>
      </trkpt>
      <trkpt lat="22.52126" lon="113.958805">
        <ele>18.5</ele>
        <time>2023-04-29T09:17:08Z</time>
      </trkpt>
      <trkpt lat="22.521256" lon="113.95878">
        <ele>18.5</ele>
        <time>2023-04-29T09:17:09Z</time>
      </trkpt>
      <trkpt lat="22.521253" lon="113.958768">
        <ele>18.5</ele>
        <time>2023-04-29T09:17:10Z</time>
      </trkpt>
      <trkpt lat="22.521256" lon="113.95876">
        <ele>18.5</ele>
        <time>2023-04-29T09:17:11Z</time>
      </trkpt>
      <trkpt lat="22.52127" lon="113.958752">
        <ele>18.5</ele>
        <time>2023-04-29T09:17:12Z</time>
      </trkpt>
      <trkpt lat="22.521293" lon="113.958751">
        <ele>18.5</ele>
        <time>2023-04-29T09:17:13Z</time>
      </trkpt>
      <trkpt lat="22.521319" lon="113.958752">
        <ele>18.5</ele>
        <time>2023-04-29T09:17:14Z</time>
      </trkpt>
      <trkpt lat="22.521343" lon="113.958745">
        <ele>18.6</ele>
        <time>2023-04-29T09:17:15Z</time>
      </trkpt>
      <trkpt lat="22.521367" lon="113.95874">
        <ele>18.6</ele>
        <time>2023-04-29T09:17:16Z</time>
      </trkpt>
      <trkpt lat="22.521395" lon="113.958743">
        <ele>18.6</ele>
        <time>2023-04-29T09:17:17Z</time>
      </trkpt>
      <trkpt lat="22.521421" lon="113.958748">
        <ele>18.6</ele>
        <time>2023-04-29T09:17:18Z</time>
      </trkpt>
      <trkpt lat="22.521444" lon="113.958745">
        <ele>18.6</ele>
        <time>2023-04-29T09:17:19Z</time>
      </trkpt>
      <trkpt lat="22.521467" lon="113.958737">
        <ele>18.6</ele>
        <time>2023-04-29T09:17:20Z</time>
      </trkpt>
      <trkpt lat="22.521488" lon="113.958726">
        <ele>18.7</ele>
        <time>2023-04-29T09:17:21Z</time>
      </trkpt>
      <trkpt lat="22.521508" lon="113.958708">
        <ele>18.7</ele>
        <time>2023-04-29T09:17:22Z</time>
      </trkpt>
      <trkpt lat="22.521532" lon="113.958686">
        <ele>18.7</ele>
        <time>2023-04-29T09:17:23Z</time>
      </trkpt>
      <trkpt lat="22.521562" lon="113.958666">
        <ele>18.7</ele>
        <time>2023-04-29T09:17:24Z</time>
      </trkpt>
      <trkpt lat="22.521597" lon="113.958656">
        <ele>18.7</ele>
        <time>2023-04-29T09:17:25Z</time>
      </trkpt>
      <trkpt lat="22.521631" lon="113.958653">
        <ele>18.8</ele>
        <time>2023-04-29T09:17:26Z</time>
      </trkpt>
      <trkpt lat="22.521661" lon="113.958643">
        <ele>18.8</ele>
        <time>2023-04-29T09:17:27Z</time>
      </trkpt>
      <trkpt lat="22.521689" lon="113.958628">
        <ele>18.8</ele>
        <time>2023-04-29T09:17:28Z</time>
      </trkpt>
      <trkpt lat="22.521715" lon="113.958613">
        <ele>18.8</ele>
        <time>2023-04-29T09:17:29Z</time>
      </trkpt>
      <trkpt lat="22.521734" lon="113.958592">
        <ele>18.8</ele>
        <time>2023-04-29T09:17:30Z</time>
      </trkpt>
      <trkpt lat="22.521747" lon="113.958558">
        <ele>18.8</ele>
        <time>2023-04-29T09:17:31Z</time>
      </trkpt>
      <trkpt lat="22.52175" lon="113.95852">
        <ele>18.9</ele>
        <time>2023-04-29T09:17:32Z</time>
      </trkpt>
      <trkpt lat="22.521752" lon="113.958484">
        <ele>18.9</ele>
        <time>2023-04-29T09:17:33Z</time>
      </trkpt>
      <trkpt lat="22.521756" lon="113.958454">
        <ele>18.9</ele>
        <time>2023-04-29T09:17:34Z</time>
      </trkpt>
      <trkpt lat="22.521767" lon="113.958429">
        <ele>18.9</ele>
        <time>2023-04-29T09:17:35Z</time>
      </trkpt>
      <trkpt lat="22.521785" lon="113.958414">
        <ele>18.9</ele>
        <time>2023-04-29T09:17:36Z</time>
      </trkpt>
      <trkpt lat="22.521807" lon="113.958399">
        <ele>19</ele>
        <time>2023-04-29T09:17:37Z</time>
      </trkpt>
      <trkpt lat="22.521828" lon="113.958375">
        <ele>19</ele>
        <time>2023-04-29T09:17:38Z</time>
      </trkpt>
      <trkpt lat="22.521845" lon="113.958336">
        <ele>19</ele>
        <time>2023-04-29T09:17:39Z</time>
      </trkpt>
      <trkpt lat="22.521854" lon="113.958298">
        <ele>19</ele>
        <time>2023-04-29T09:17:40Z</time>
      </trkpt>
      <trkpt lat="22.521864" lon="113.95826">
        <ele>19</ele>
        <time>2023-04-29T09:17:41Z</time>
      </trkpt>
      <trkpt lat="22.521872" lon="113.958222">
        <ele>19.1</ele>
        <time>2023-04-29T09:17:42Z</time>
      </trkpt>
      <trkpt lat="22.521879" lon="113.958187">
        <ele>19.1</ele>
        <time>2023-04-29T09:17:43Z</time>
      </trkpt>
      <trkpt lat="22.52189" lon="113.958154">
        <ele>19.1</ele>
        <time>2023-04-29T09:17:44Z</time>
      </trkpt>
      <trkpt lat="22.521905" lon="113.958116">
        <ele>19.1</ele>
        <time>2023-04-29T09:17:45Z</time>
      </trkpt>
      <trkpt lat="22.52192" lon="113.958077">
        <ele>19.2</ele>
        <time>2023-04-29T09:17:46Z</time>
      </trkpt>
      <trkpt lat="22.521931" lon="113.958042">
        <ele>19.2</ele>
        <time>2023-04-29T09:17:47Z</time>
      </trkpt>
      <trkpt lat="22.521942" lon="113.958011">
        <ele>19.2</ele>
        <time>2023-04-29T09:17:48Z</time>
      </trkpt>
      <trkpt lat="22.521959" lon="113.957981">
        <ele>19.2</ele>
        <time>2023-04-29T09:17:49Z</time>
      </trkpt>
      <trkpt lat="22.521986" lon="113.957959">
        <ele>19.2</ele>
        <time>2023-04-29T09:17:50Z</time>
      </trkpt>
      <trkpt lat="22.522018" lon="113.957952">
        <ele>19.3</ele>
        <time>2023-04-29T09:17:51Z</time>
      </trkpt>
      <trkpt lat="22.522048" lon="113.957941">
        <ele>19.3</ele>
        <time>2023-04-29T09:17:52Z</time>
      </trkpt>
      <trkpt lat="22.522076" lon="113.95792">
        <ele>19.3</ele>
        <time>2023-04-29T09:17:53Z</time>
      </trkpt>
      <trkpt lat="22.522112" lon="113.957898">
        <ele>19.3</ele>
        <time>2023-04-29T09:17:54Z</time>
      </trkpt>
      <trkpt lat="22.522157" lon="113.95789">
        <ele>19.3</ele>
        <time>2023-04-29T09:17:55Z</time>
      </trkpt>
      <trkpt lat="22.522202" lon="113.957883">
        <ele>19.3</ele>
        <time>2023-04-29T09:17:56Z</time>
      </trkpt>
      <trkpt lat="22.522236" lon="113.957872">
        <ele>19.3</ele>
        <time>2023-04-29T09:17:57Z</time>
      </trkpt>
      <trkpt lat="22.522264" lon="113.957851">
        <ele>19.3</ele>
        <time>2023-04-29T09:17:58Z</time>
      </trkpt>
      <trkpt lat="22.522289" lon="113.957821">
        <ele>19.3</ele>
        <time>2023-04-29T09:17:59Z</time>
      </trkpt>
      <trkpt lat="22.522306" lon="113.957787">
        <ele>19.3</ele>
        <time>2023-04-29T09:18:00Z</time>
      </trkpt>
      <trkpt lat="22.522316" lon="113.957743">
        <ele>19.3</ele>
        <time>2023-04-29T09:18:01Z</time>
      </trkpt>
      <trkpt lat="22.522321" lon="113.957692">
        <ele>19.3</ele>
        <time>2023-04-29T09:18:02Z</time>
      </trkpt>
      <trkpt lat="22.522332" lon="113.957645">
        <ele>19.3</ele>
        <time>2023-04-29T09:18:03Z</time>
      </trkpt>
      <trkpt lat="22.522349" lon="113.9576">
        <ele>19.3</ele>
        <time>2023-04-29T09:18:04Z</time>
      </trkpt>
      <trkpt lat="22.522365" lon="113.957558">
        <ele>19.3</ele>
        <time>2023-04-29T09:18:05Z</time>
      </trkpt>
      <trkpt lat="22.522378" lon="113.957517">
        <ele>19.3</ele>
        <time>2023-04-29T09:18:06Z</time>
      </trkpt>
      <trkpt lat="22.522391" lon="113.957471">
        <ele>19.3</ele>
        <time>2023-04-29T09:18:07Z</time>
      </trkpt>
      <trkpt lat="22.522401" lon="113.957426">
        <ele>19.3</ele>
        <time>2023-04-29T09:18:08Z</time>
      </trkpt>
      <trkpt lat="22.522409" lon="113.957377">
        <ele>19.3</ele>
        <time>2023-04-29T09:18:09Z</time>
      </trkpt>
      <trkpt lat="22.522417" lon="113.957324">
        <ele>19.3</ele>
        <time>2023-04-29T09:18:10Z</time>
      </trkpt>
      <trkpt lat="22.522426" lon="113.957273">
        <ele>19.3</ele>
        <time>2023-04-29T09:18:11Z</time>
      </trkpt>
      <trkpt lat="22.522437" lon="113.957228">
        <ele>19.4</ele>
        <time>2023-04-29T09:18:12Z</time>
      </trkpt>
      <trkpt lat="22.522448" lon="113.957179">
        <ele>19.4</ele>
        <time>2023-04-29T09:18:13Z</time>
      </trkpt>
      <trkpt lat="22.522457" lon="113.957125">
        <ele>19.4</ele>
        <time>2023-04-29T09:18:14Z</time>
      </trkpt>
      <trkpt lat="22.522463" lon="113.957069">
        <ele>19.4</ele>
        <time>2023-04-29T09:18:15Z</time>
      </trkpt>
      <trkpt lat="22.52247" lon="113.957014">
        <ele>19.4</ele>
        <time>2023-04-29T09:18:16Z</time>
      </trkpt>
      <trkpt lat="22.522477" lon="113.956965">
        <ele>19.4</ele>
        <time>2023-04-29T09:18:17Z</time>
      </trkpt>
      <trkpt lat="22.522486" lon="113.956911">
        <ele>19.4</ele>
        <time>2023-04-29T09:18:18Z</time>
      </trkpt>
      <trkpt lat="22.522495" lon="113.956854">
        <ele>19.4</ele>
        <time>2023-04-29T09:18:19Z</time>
      </trkpt>
      <trkpt lat="22.522505" lon="113.956795">
        <ele>19.4</ele>
        <time>2023-04-29T09:18:20Z</time>
      </trkpt>
      <trkpt lat="22.522518" lon="113.956734">
        <ele>19.4</ele>
        <time>2023-04-29T09:18:21Z</time>
      </trkpt>
      <trkpt lat="22.522527" lon="113.956672">
        <ele>19.4</ele>
        <time>2023-04-29T09:18:22Z</time>
      </trkpt>
      <trkpt lat="22.522533" lon="113.956614">
        <ele>19.4</ele>
        <time>2023-04-29T09:18:23Z</time>
      </trkpt>
      <trkpt lat="22.522538" lon="113.956558">
        <ele>19.4</ele>
        <time>2023-04-29T09:18:24Z</time>
      </trkpt>
      <trkpt lat="22.522548" lon="113.956496">
        <ele>19.4</ele>
        <time>2023-04-29T09:18:25Z</time>
      </trkpt>
      <trkpt lat="22.52256" lon="113.956437">
        <ele>19.4</ele>
        <time>2023-04-29T09:18:26Z</time>
      </trkpt>
      <trkpt lat="22.522568" lon="113.956381">
        <ele>19.4</ele>
        <time>2023-04-29T09:18:27Z</time>
      </trkpt>
      <trkpt lat="22.522572" lon="113.956321">
        <ele>19.4</ele>
        <time>2023-04-29T09:18:28Z</time>
      </trkpt>
      <trkpt lat="22.522574" lon="113.956261">
        <ele>19.4</ele>
        <time>2023-04-29T09:18:29Z</time>
      </trkpt>
      <trkpt lat="22.522577" lon="113.9562">
        <ele>19.4</ele>
        <time>2023-04-29T09:18:30Z</time>
      </trkpt>
      <trkpt lat="22.522579" lon="113.956138">
        <ele>19.4</ele>
        <time>2023-04-29T09:18:31Z</time>
      </trkpt>
      <trkpt lat="22.522579" lon="113.95608">
        <ele>19.4</ele>
        <time>2023-04-29T09:18:32Z</time>
      </trkpt>
      <trkpt lat="22.522579" lon="113.956024">
        <ele>19.4</ele>
        <time>2023-04-29T09:18:33Z</time>
      </trkpt>
      <trkpt lat="22.522581" lon="113.955965">
        <ele>19.4</ele>
        <time>2023-04-29T09:18:34Z</time>
      </trkpt>
      <trkpt lat="22.522585" lon="113.95591">
        <ele>19.4</ele>
        <time>2023-04-29T09:18:35Z</time>
      </trkpt>
      <trkpt lat="22.522591" lon="113.955848">
        <ele>19.4</ele>
        <time>2023-04-29T09:18:36Z</time>
      </trkpt>
      <trkpt lat="22.522596" lon="113.955789">
        <ele>19.4</ele>
        <time>2023-04-29T09:18:37Z</time>
      </trkpt>
      <trkpt lat="22.522598" lon="113.955733">
        <ele>19.4</ele>
        <time>2023-04-29T09:18:38Z</time>
      </trkpt>
      <trkpt lat="22.522595" lon="113.955676">
        <ele>19.3</ele>
        <time>2023-04-29T09:18:39Z</time>
      </trkpt>
      <trkpt lat="22.52259" lon="113.955622">
        <ele>19.3</ele>
        <time>2023-04-29T09:18:40Z</time>
      </trkpt>
      <trkpt lat="22.522582" lon="113.955569">
        <ele>19.3</ele>
        <time>2023-04-29T09:18:41Z</time>
      </trkpt>
      <trkpt lat="22.522576" lon="113.955515">
        <ele>19.3</ele>
        <time>2023-04-29T09:18:42Z</time>
      </trkpt>
      <trkpt lat="22.522572" lon="113.955465">
        <ele>19.3</ele>
        <time>2023-04-29T09:18:43Z</time>
      </trkpt>
      <trkpt lat="22.522566" lon="113.955416">
        <ele>19.3</ele>
        <time>2023-04-29T09:18:44Z</time>
      </trkpt>
      <trkpt lat="22.522558" lon="113.955369">
        <ele>19.3</ele>
        <time>2023-04-29T09:18:45Z</time>
      </trkpt>
      <trkpt lat="22.522554" lon="113.955328">
        <ele>19.3</ele>
        <time>2023-04-29T09:18:46Z</time>
      </trkpt>
      <trkpt lat="22.52256" lon="113.955279">
        <ele>19.3</ele>
        <time>2023-04-29T09:18:47Z</time>
      </trkpt>
      <trkpt lat="22.522577" lon="113.955229">
        <ele>19.3</ele>
        <time>2023-04-29T09:18:48Z</time>
      </trkpt>
      <trkpt lat="22.522597" lon="113.955186">
        <ele>19.3</ele>
        <time>2023-04-29T09:18:49Z</time>
      </trkpt>
      <trkpt lat="22.522618" lon="113.955142">
        <ele>19.3</ele>
        <time>2023-04-29T09:18:50Z</time>
      </trkpt>
      <trkpt lat="22.522631" lon="113.955091">
        <ele>19.3</ele>
        <time>2023-04-29T09:18:51Z</time>
      </trkpt>
      <trkpt lat="22.522637" lon="113.955048">
        <ele>19.3</ele>
        <time>2023-04-29T09:18:52Z</time>
      </trkpt>
      <trkpt lat="22.522646" lon="113.955008">
        <ele>19.3</ele>
        <time>2023-04-29T09:18:53Z</time>
      </trkpt>
      <trkpt lat="22.522657" lon="113.954965">
        <ele>19.3</ele>
        <time>2023-04-29T09:18:54Z</time>
      </trkpt>
      <trkpt lat="22.522671" lon="113.954926">
        <ele>19.3</ele>
        <time>2023-04-29T09:18:55Z</time>
      </trkpt>
      <trkpt lat="22.522687" lon="113.954885">
        <ele>19.3</ele>
        <time>2023-04-29T09:18:56Z</time>
      </trkpt>
      <trkpt lat="22.522696" lon="113.954839">
        <ele>19.3</ele>
        <time>2023-04-29T09:18:57Z</time>
      </trkpt>
      <trkpt lat="22.522702" lon="113.954796">
        <ele>19.3</ele>
        <time>2023-04-29T09:18:58Z</time>
      </trkpt>
      <trkpt lat="22.522705" lon="113.954758">
        <ele>19.3</ele>
        <time>2023-04-29T09:18:59Z</time>
      </trkpt>
      <trkpt lat="22.522707" lon="113.95472">
        <ele>19.3</ele>
        <time>2023-04-29T09:19:00Z</time>
      </trkpt>
      <trkpt lat="22.522714" lon="113.954682">
        <ele>19.3</ele>
        <time>2023-04-29T09:19:01Z</time>
      </trkpt>
      <trkpt lat="22.522722" lon="113.954644">
        <ele>19.3</ele>
        <time>2023-04-29T09:19:02Z</time>
      </trkpt>
      <trkpt lat="22.522725" lon="113.954607">
        <ele>19.3</ele>
        <time>2023-04-29T09:19:03Z</time>
      </trkpt>
      <trkpt lat="22.522728" lon="113.954565">
        <ele>19.3</ele>
        <time>2023-04-29T09:19:04Z</time>
      </trkpt>
      <trkpt lat="22.522733" lon="113.954519">
        <ele>19.2</ele>
        <time>2023-04-29T09:19:05Z</time>
      </trkpt>
      <trkpt lat="22.522742" lon="113.954471">
        <ele>19.2</ele>
        <time>2023-04-29T09:19:06Z</time>
      </trkpt>
      <trkpt lat="22.522756" lon="113.95442">
        <ele>19.2</ele>
        <time>2023-04-29T09:19:07Z</time>
      </trkpt>
      <trkpt lat="22.522769" lon="113.954374">
        <ele>19.2</ele>
        <time>2023-04-29T09:19:08Z</time>
      </trkpt>
      <trkpt lat="22.522779" lon="113.954331">
        <ele>19.2</ele>
        <time>2023-04-29T09:19:09Z</time>
      </trkpt>
      <trkpt lat="22.522786" lon="113.954293">
        <ele>19.2</ele>
        <time>2023-04-29T09:19:10Z</time>
      </trkpt>
      <trkpt lat="22.522794" lon="113.954255">
        <ele>19.2</ele>
        <time>2023-04-29T09:19:11Z</time>
      </trkpt>
      <trkpt lat="22.522799" lon="113.954216">
        <ele>19.2</ele>
        <time>2023-04-29T09:19:12Z</time>
      </trkpt>
      <trkpt lat="22.5228" lon="113.954175">
        <ele>19.2</ele>
        <time>2023-04-29T09:19:13Z</time>
      </trkpt>
      <trkpt lat="22.522803" lon="113.954135">
        <ele>19.2</ele>
        <time>2023-04-29T09:19:14Z</time>
      </trkpt>
      <trkpt lat="22.522807" lon="113.954105">
        <ele>19.2</ele>
        <time>2023-04-29T09:19:15Z</time>
      </trkpt>
      <trkpt lat="22.522811" lon="113.954066">
        <ele>19.2</ele>
        <time>2023-04-29T09:19:16Z</time>
      </trkpt>
      <trkpt lat="22.52282" lon="113.954015">
        <ele>19.2</ele>
        <time>2023-04-29T09:19:17Z</time>
      </trkpt>
      <trkpt lat="22.52283" lon="113.953971">
        <ele>19.2</ele>
        <time>2023-04-29T09:19:18Z</time>
      </trkpt>
      <trkpt lat="22.522836" lon="113.953928">
        <ele>19.2</ele>
        <time>2023-04-29T09:19:19Z</time>
      </trkpt>
      <trkpt lat="22.522841" lon="113.953885">
        <ele>19.2</ele>
        <time>2023-04-29T09:19:20Z</time>
      </trkpt>
      <trkpt lat="22.522838" lon="113.95384">
        <ele>19.2</ele>
        <time>2023-04-29T09:19:21Z</time>
      </trkpt>
      <trkpt lat="22.522835" lon="113.953797">
        <ele>19.2</ele>
        <time>2023-04-29T09:19:22Z</time>
      </trkpt>
      <trkpt lat="22.522839" lon="113.953757">
        <ele>19.2</ele>
        <time>2023-04-29T09:19:23Z</time>
      </trkpt>
      <trkpt lat="22.522845" lon="113.95371">
        <ele>19.2</ele>
        <time>2023-04-29T09:19:24Z</time>
      </trkpt>
      <trkpt lat="22.522852" lon="113.953667">
        <ele>19.2</ele>
        <time>2023-04-29T09:19:25Z</time>
      </trkpt>
      <trkpt lat="22.522858" lon="113.953628">
        <ele>19.2</ele>
        <time>2023-04-29T09:19:26Z</time>
      </trkpt>
      <trkpt lat="22.522864" lon="113.95359">
        <ele>19.2</ele>
        <time>2023-04-29T09:19:27Z</time>
      </trkpt>
      <trkpt lat="22.522869" lon="113.953553">
        <ele>19.2</ele>
        <time>2023-04-29T09:19:28Z</time>
      </trkpt>
      <trkpt lat="22.522875" lon="113.953512">
        <ele>19.2</ele>
        <time>2023-04-29T09:19:29Z</time>
      </trkpt>
      <trkpt lat="22.522878" lon="113.953467">
        <ele>19.2</ele>
        <time>2023-04-29T09:19:30Z</time>
      </trkpt>
      <trkpt lat="22.522874" lon="113.953421">
        <ele>19.2</ele>
        <time>2023-04-29T09:19:31Z</time>
      </trkpt>
      <trkpt lat="22.522868" lon="113.953372">
        <ele>19.2</ele>
        <time>2023-04-29T09:19:32Z</time>
      </trkpt>
      <trkpt lat="22.522867" lon="113.953322">
        <ele>19.2</ele>
        <time>2023-04-29T09:19:33Z</time>
      </trkpt>
      <trkpt lat="22.522867" lon="113.953276">
        <ele>19.2</ele>
        <time>2023-04-29T09:19:34Z</time>
      </trkpt>
      <trkpt lat="22.522864" lon="113.953229">
        <ele>19.2</ele>
        <time>2023-04-29T09:19:35Z</time>
      </trkpt>
      <trkpt lat="22.522856" lon="113.953183">
        <ele>19.2</ele>
        <time>2023-04-29T09:19:36Z</time>
      </trkpt>
      <trkpt lat="22.522847" lon="113.953136">
        <ele>19.2</ele>
        <time>2023-04-29T09:19:37Z</time>
      </trkpt>
      <trkpt lat="22.522837" lon="113.953085">
        <ele>19.2</ele>
        <time>2023-04-29T09:19:38Z</time>
      </trkpt>
      <trkpt lat="22.52282" lon="113.953045">
        <ele>19.2</ele>
        <time>2023-04-29T09:19:39Z</time>
      </trkpt>
      <trkpt lat="22.522794" lon="113.953017">
        <ele>19.2</ele>
        <time>2023-04-29T09:19:40Z</time>
      </trkpt>
      <trkpt lat="22.522757" lon="113.952992">
        <ele>19.2</ele>
        <time>2023-04-29T09:19:41Z</time>
      </trkpt>
      <trkpt lat="22.522716" lon="113.952961">
        <ele>19.2</ele>
        <time>2023-04-29T09:19:42Z</time>
      </trkpt>
      <trkpt lat="22.522679" lon="113.95293">
        <ele>19.2</ele>
        <time>2023-04-29T09:19:43Z</time>
      </trkpt>
      <trkpt lat="22.522647" lon="113.952903">
        <ele>19.2</ele>
        <time>2023-04-29T09:19:44Z</time>
      </trkpt>
      <trkpt lat="22.522619" lon="113.95288">
        <ele>19.2</ele>
        <time>2023-04-29T09:19:45Z</time>
      </trkpt>
      <trkpt lat="22.522591" lon="113.952857">
        <ele>19.2</ele>
        <time>2023-04-29T09:19:46Z</time>
      </trkpt>
      <trkpt lat="22.522561" lon="113.952837">
        <ele>19.2</ele>
        <time>2023-04-29T09:19:47Z</time>
      </trkpt>
      <trkpt lat="22.522528" lon="113.952822">
        <ele>19.2</ele>
        <time>2023-04-29T09:19:48Z</time>
      </trkpt>
      <trkpt lat="22.522493" lon="113.952806">
        <ele>19.2</ele>
        <time>2023-04-29T09:19:49Z</time>
      </trkpt>
      <trkpt lat="22.522457" lon="113.952791">
        <ele>19.2</ele>
        <time>2023-04-29T09:19:50Z</time>
      </trkpt>
      <trkpt lat="22.522421" lon="113.952772">
        <ele>19.2</ele>
        <time>2023-04-29T09:19:51Z</time>
      </trkpt>
      <trkpt lat="22.522388" lon="113.95275">
        <ele>19.1</ele>
        <time>2023-04-29T09:19:52Z</time>
      </trkpt>
      <trkpt lat="22.522359" lon="113.952722">
        <ele>19.1</ele>
        <time>2023-04-29T09:19:53Z</time>
      </trkpt>
      <trkpt lat="22.522333" lon="113.952683">
        <ele>19.1</ele>
        <time>2023-04-29T09:19:54Z</time>
      </trkpt>
      <trkpt lat="22.522311" lon="113.952642">
        <ele>19.1</ele>
        <time>2023-04-29T09:19:55Z</time>
      </trkpt>
      <trkpt lat="22.522289" lon="113.952601">
        <ele>19.1</ele>
        <time>2023-04-29T09:19:56Z</time>
      </trkpt>
      <trkpt lat="22.522268" lon="113.952566">
        <ele>19.1</ele>
        <time>2023-04-29T09:19:57Z</time>
      </trkpt>
      <trkpt lat="22.522245" lon="113.95253">
        <ele>19.1</ele>
        <time>2023-04-29T09:19:58Z</time>
      </trkpt>
      <trkpt lat="22.522221" lon="113.952492">
        <ele>19.1</ele>
        <time>2023-04-29T09:19:59Z</time>
      </trkpt>
      <trkpt lat="22.522196" lon="113.952454">
        <ele>19.1</ele>
        <time>2023-04-29T09:20:00Z</time>
      </trkpt>
      <trkpt lat="22.522172" lon="113.952416">
        <ele>19.1</ele>
        <time>2023-04-29T09:20:01Z</time>
      </trkpt>
      <trkpt lat="22.522153" lon="113.952375">
        <ele>19.1</ele>
        <time>2023-04-29T09:20:02Z</time>
      </trkpt>
      <trkpt lat="22.522134" lon="113.952329">
        <ele>19.1</ele>
        <time>2023-04-29T09:20:03Z</time>
      </trkpt>
      <trkpt lat="22.522119" lon="113.952286">
        <ele>19.1</ele>
        <time>2023-04-29T09:20:04Z</time>
      </trkpt>
      <trkpt lat="22.52211" lon="113.952245">
        <ele>19.1</ele>
        <time>2023-04-29T09:20:05Z</time>
      </trkpt>
      <trkpt lat="22.522106" lon="113.9522">
        <ele>19.1</ele>
        <time>2023-04-29T09:20:06Z</time>
      </trkpt>
      <trkpt lat="22.522107" lon="113.952154">
        <ele>19.1</ele>
        <time>2023-04-29T09:20:07Z</time>
      </trkpt>
      <trkpt lat="22.522109" lon="113.952108">
        <ele>19.1</ele>
        <time>2023-04-29T09:20:08Z</time>
      </trkpt>
      <trkpt lat="22.522111" lon="113.952065">
        <ele>19.1</ele>
        <time>2023-04-29T09:20:09Z</time>
      </trkpt>
      <trkpt lat="22.522116" lon="113.952027">
        <ele>19.1</ele>
        <time>2023-04-29T09:20:10Z</time>
      </trkpt>
      <trkpt lat="22.522128" lon="113.951989">
        <ele>19.1</ele>
        <time>2023-04-29T09:20:11Z</time>
      </trkpt>
      <trkpt lat="22.522138" lon="113.95195">
        <ele>19.1</ele>
        <time>2023-04-29T09:20:12Z</time>
      </trkpt>
      <trkpt lat="22.522145" lon="113.951912">
        <ele>19.1</ele>
        <time>2023-04-29T09:20:13Z</time>
      </trkpt>
      <trkpt lat="22.522153" lon="113.951872">
        <ele>19.1</ele>
        <time>2023-04-29T09:20:14Z</time>
      </trkpt>
      <trkpt lat="22.52216" lon="113.951829">
        <ele>19.1</ele>
        <time>2023-04-29T09:20:15Z</time>
      </trkpt>
      <trkpt lat="22.522167" lon="113.951794">
        <ele>19.1</ele>
        <time>2023-04-29T09:20:16Z</time>
      </trkpt>
      <trkpt lat="22.522176" lon="113.951761">
        <ele>19.1</ele>
        <time>2023-04-29T09:20:17Z</time>
      </trkpt>
      <trkpt lat="22.522184" lon="113.951722">
        <ele>19.1</ele>
        <time>2023-04-29T09:20:18Z</time>
      </trkpt>
      <trkpt lat="22.522194" lon="113.951681">
        <ele>19.1</ele>
        <time>2023-04-29T09:20:19Z</time>
      </trkpt>
      <trkpt lat="22.522207" lon="113.951636">
        <ele>19.1</ele>
        <time>2023-04-29T09:20:20Z</time>
      </trkpt>
      <trkpt lat="22.522222" lon="113.95159">
        <ele>19.1</ele>
        <time>2023-04-29T09:20:21Z</time>
      </trkpt>
      <trkpt lat="22.522236" lon="113.951546">
        <ele>19.1</ele>
        <time>2023-04-29T09:20:22Z</time>
      </trkpt>
      <trkpt lat="22.522253" lon="113.951508">
        <ele>19.1</ele>
        <time>2023-04-29T09:20:23Z</time>
      </trkpt>
      <trkpt lat="22.522271" lon="113.95147">
        <ele>19.1</ele>
        <time>2023-04-29T09:20:24Z</time>
      </trkpt>
      <trkpt lat="22.522291" lon="113.951432">
        <ele>19.1</ele>
        <time>2023-04-29T09:20:25Z</time>
      </trkpt>
      <trkpt lat="22.52231" lon="113.951394">
        <ele>19.1</ele>
        <time>2023-04-29T09:20:26Z</time>
      </trkpt>
      <trkpt lat="22.522329" lon="113.951355">
        <ele>19.1</ele>
        <time>2023-04-29T09:20:27Z</time>
      </trkpt>
      <trkpt lat="22.522347" lon="113.951317">
        <ele>19.1</ele>
        <time>2023-04-29T09:20:28Z</time>
      </trkpt>
      <trkpt lat="22.522361" lon="113.951279">
        <ele>19.1</ele>
        <time>2023-04-29T09:20:29Z</time>
      </trkpt>
      <trkpt lat="22.522373" lon="113.951238">
        <ele>19.1</ele>
        <time>2023-04-29T09:20:30Z</time>
      </trkpt>
      <trkpt lat="22.522383" lon="113.951193">
        <ele>19.1</ele>
        <time>2023-04-29T09:20:31Z</time>
      </trkpt>
      <trkpt lat="22.522393" lon="113.951147">
        <ele>19.1</ele>
        <time>2023-04-29T09:20:32Z</time>
      </trkpt>
      <trkpt lat="22.522406" lon="113.951104">
        <ele>19.1</ele>
        <time>2023-04-29T09:20:33Z</time>
      </trkpt>
      <trkpt lat="22.522416" lon="113.951066">
        <ele>19.1</ele>
        <time>2023-04-29T09:20:34Z</time>
      </trkpt>
      <trkpt lat="22.522424" lon="113.951028">
        <ele>19.1</ele>
        <time>2023-04-29T09:20:35Z</time>
      </trkpt>
      <trkpt lat="22.522433" lon="113.950987">
        <ele>19.1</ele>
        <time>2023-04-29T09:20:36Z</time>
      </trkpt>
      <trkpt lat="22.522441" lon="113.950941">
        <ele>19.1</ele>
        <time>2023-04-29T09:20:37Z</time>
      </trkpt>
      <trkpt lat="22.522448" lon="113.950895">
        <ele>19.1</ele>
        <time>2023-04-29T09:20:38Z</time>
      </trkpt>
      <trkpt lat="22.522451" lon="113.950851">
        <ele>19.1</ele>
        <time>2023-04-29T09:20:39Z</time>
      </trkpt>
      <trkpt lat="22.52245" lon="113.950808">
        <ele>19.1</ele>
        <time>2023-04-29T09:20:40Z</time>
      </trkpt>
      <trkpt lat="22.522448" lon="113.950765">
        <ele>19.1</ele>
        <time>2023-04-29T09:20:41Z</time>
      </trkpt>
      <trkpt lat="22.522446" lon="113.950719">
        <ele>19.1</ele>
        <time>2023-04-29T09:20:42Z</time>
      </trkpt>
      <trkpt lat="22.522444" lon="113.950674">
        <ele>19.1</ele>
        <time>2023-04-29T09:20:43Z</time>
      </trkpt>
      <trkpt lat="22.52244" lon="113.950631">
        <ele>19.1</ele>
        <time>2023-04-29T09:20:44Z</time>
      </trkpt>
      <trkpt lat="22.522437" lon="113.950593">
        <ele>19.1</ele>
        <time>2023-04-29T09:20:45Z</time>
      </trkpt>
      <trkpt lat="22.522433" lon="113.950555">
        <ele>19.1</ele>
        <time>2023-04-29T09:20:46Z</time>
      </trkpt>
      <trkpt lat="22.522429" lon="113.950515">
        <ele>19.1</ele>
        <time>2023-04-29T09:20:47Z</time>
      </trkpt>
      <trkpt lat="22.52242" lon="113.950472">
        <ele>19.1</ele>
        <time>2023-04-29T09:20:48Z</time>
      </trkpt>
      <trkpt lat="22.522411" lon="113.950431">
        <ele>19.1</ele>
        <time>2023-04-29T09:20:49Z</time>
      </trkpt>
      <trkpt lat="22.522402" lon="113.950394">
        <ele>19.1</ele>
        <time>2023-04-29T09:20:50Z</time>
      </trkpt>
      <trkpt lat="22.522391" lon="113.950359">
        <ele>19.1</ele>
        <time>2023-04-29T09:20:51Z</time>
      </trkpt>
      <trkpt lat="22.522377" lon="113.950328">
        <ele>19.1</ele>
        <time>2023-04-29T09:20:52Z</time>
      </trkpt>
      <trkpt lat="22.52236" lon="113.950296">
        <ele>19.1</ele>
        <time>2023-04-29T09:20:53Z</time>
      </trkpt>
      <trkpt lat="22.52234" lon="113.950261">
        <ele>19.1</ele>
        <time>2023-04-29T09:20:54Z</time>
      </trkpt>
      <trkpt lat="22.522325" lon="113.950229">
        <ele>19.1</ele>
        <time>2023-04-29T09:20:55Z</time>
      </trkpt>
      <trkpt lat="22.522312" lon="113.950195">
        <ele>19.1</ele>
        <time>2023-04-29T09:20:56Z</time>
      </trkpt>
      <trkpt lat="22.522298" lon="113.950159">
        <ele>19.1</ele>
        <time>2023-04-29T09:20:57Z</time>
      </trkpt>
      <trkpt lat="22.522284" lon="113.950125">
        <ele>19.1</ele>
        <time>2023-04-29T09:20:58Z</time>
      </trkpt>
      <trkpt lat="22.522268" lon="113.950087">
        <ele>19.1</ele>
        <time>2023-04-29T09:20:59Z</time>
      </trkpt>
      <trkpt lat="22.52225" lon="113.950052">
        <ele>19.1</ele>
        <time>2023-04-29T09:21:00Z</time>
      </trkpt>
      <trkpt lat="22.522231" lon="113.950025">
        <ele>19.1</ele>
        <time>2023-04-29T09:21:01Z</time>
      </trkpt>
      <trkpt lat="22.522211" lon="113.949999">
        <ele>19.1</ele>
        <time>2023-04-29T09:21:02Z</time>
      </trkpt>
      <trkpt lat="22.522191" lon="113.949969">
        <ele>19.1</ele>
        <time>2023-04-29T09:21:03Z</time>
      </trkpt>
      <trkpt lat="22.522171" lon="113.949938">
        <ele>19.1</ele>
        <time>2023-04-29T09:21:04Z</time>
      </trkpt>
      <trkpt lat="22.522155" lon="113.949911">
        <ele>19.1</ele>
        <time>2023-04-29T09:21:05Z</time>
      </trkpt>
      <trkpt lat="22.52214" lon="113.949888">
        <ele>19.1</ele>
        <time>2023-04-29T09:21:06Z</time>
      </trkpt>
      <trkpt lat="22.522126" lon="113.949869">
        <ele>19.1</ele>
        <time>2023-04-29T09:21:07Z</time>
      </trkpt>
      <trkpt lat="22.52212" lon="113.949857">
        <ele>19.1</ele>
        <time>2023-04-29T09:21:08Z</time>
      </trkpt>
      <trkpt lat="22.522119" lon="113.949849">
        <ele>19.1</ele>
        <time>2023-04-29T09:21:09Z</time>
      </trkpt>
      <trkpt lat="22.522115" lon="113.949838">
        <ele>19.1</ele>
        <time>2023-04-29T09:21:10Z</time>
      </trkpt>
      <trkpt lat="22.522114" lon="113.949829">
        <ele>19.1</ele>
        <time>2023-04-29T09:21:11Z</time>
      </trkpt>
      <trkpt lat="22.522117" lon="113.949829">
        <ele>19.1</ele>
        <time>2023-04-29T09:21:12Z</time>
      </trkpt>
      <trkpt lat="22.522118" lon="113.949832">
        <ele>19.1</ele>
        <time>2023-04-29T09:21:13Z</time>
      </trkpt>
      <trkpt lat="22.522118" lon="113.949837">
        <ele>19.1</ele>
        <time>2023-04-29T09:21:14Z</time>
      </trkpt>
      <trkpt lat="22.522116" lon="113.949837">
        <ele>19.1</ele>
        <time>2023-04-29T09:21:15Z</time>
      </trkpt>
      <trkpt lat="22.522116" lon="113.949837">
        <ele>19.1</ele>
        <time>2023-04-29T09:21:20Z</time>
      </trkpt>
      <trkpt lat="22.522116" lon="113.949837">
        <ele>19.1</ele>
        <time>2023-04-29T09:21:25Z</time>
      </trkpt>
      <trkpt lat="22.522116" lon="113.949837">
        <ele>19.1</ele>
        <time>2023-04-29T09:21:27Z</time>
      </trkpt>
      <trkpt lat="22.522116" lon="113.949837">
        <ele>19.1</ele>
        <time>2023-04-29T09:21:28Z</time>
      </trkpt>
      <trkpt lat="22.522116" lon="113.949837">
        <ele>19.1</ele>
        <time>2023-04-29T09:21:31Z</time>
      </trkpt>
      <trkpt lat="22.522116" lon="113.949837">
        <ele>19.1</ele>
        <time>2023-04-29T09:21:34Z</time>
      </trkpt>
      <trkpt lat="22.522116" lon="113.949837">
        <ele>19.1</ele>
        <time>2023-04-29T09:21:35Z</time>
      </trkpt>
      <trkpt lat="22.522116" lon="113.949837">
        <ele>19.1</ele>
        <time>2023-04-29T09:21:36Z</time>
      </trkpt>
      <trkpt lat="22.522116" lon="113.949837">
        <ele>19.1</ele>
        <time>2023-04-29T09:21:37Z</time>
      </trkpt>
      <trkpt lat="22.522116" lon="113.949837">
        <ele>19.1</ele>
        <time>2023-04-29T09:21:38Z</time>
      </trkpt>
      <trkpt lat="22.522116" lon="113.949837">
        <ele>19.1</ele>
        <time>2023-04-29T09:21:39Z</time>
      </trkpt>
      <trkpt lat="22.522116" lon="113.949837">
        <ele>19.1</ele>
        <time>2023-04-29T09:21:40Z</time>
      </trkpt>
    </trkseg>
  </trk>
</gpx>