<?xml version="1.0" encoding="UTF-8"?>
<gpx xmlns="http://www.topografix.com/GPX/1/1" xmlns:xsi="http://www.w3.org/2001/XMLSchema-instance" xsi:schemaLocation="http://www.topografix.com/GPX/1/1 http://www.topografix.com/GPX/1/1/gpx.xsd" version="1.1" creator="鹏">
  <metadata>
    <name>Hike (Completed)</name>
    <desc>Distance: 8.25km, Estimated duration: 0.76h, Elevation up: 64.2124224134501m, Elevation down: 56.20252255775655m</desc>
    <author>
      <name>鹏</name>
      <link href="https://www.komoot.de/user/3342641231843">
        <text>View 鹏's Profile on Komoot</text>
      </link>
    </author>
    <link href="https://www.komoot.de/tour/1161331156">
      <text>View tour on Komoot</text>
    </link>
  </metadata>
  <trk>
    <name>Hike (Completed)</name>
    <desc>Distance: 8.25km, Estimated duration: 0.76h, Elevation up: 64.2124224134501m, Elevation down: 56.20252255775655m</desc>
    <link href="https://www.komoot.de/tour/1161331156">
      <text>View tour on Komoot</text>
    </link>
    <trkseg>
      <trkpt lat="22.527401" lon="113.988988">
        <ele>4.7</ele>
        <time>2023-04-22T16:25:00.762000+0800</time>
      </trkpt>
      <trkpt lat="22.527299" lon="113.98899">
        <ele>4.7</ele>
        <time>2023-04-22T16:25:04.549000+0800</time>
      </trkpt>
      <trkpt lat="22.527204" lon="113.989012">
        <ele>4.7</ele>
        <time>2023-04-22T16:25:10.558000+0800</time>
      </trkpt>
      <trkpt lat="22.527105" lon="113.989011">
        <ele>4.7</ele>
        <time>2023-04-22T16:25:14.571000+0800</time>
      </trkpt>
      <trkpt lat="22.526987" lon="113.989029">
        <ele>4.7</ele>
        <time>2023-04-22T16:25:18.596000+0800</time>
      </trkpt>
      <trkpt lat="22.52689" lon="113.989044">
        <ele>4.7</ele>
        <time>2023-04-22T16:25:21.629000+0800</time>
      </trkpt>
      <trkpt lat="22.526791" lon="113.989066">
        <ele>4.7</ele>
        <time>2023-04-22T16:25:24.634000+0800</time>
      </trkpt>
      <trkpt lat="22.526691" lon="113.98908">
        <ele>4.7</ele>
        <time>2023-04-22T16:25:27.642000+0800</time>
      </trkpt>
      <trkpt lat="22.526589" lon="113.989097">
        <ele>4.7</ele>
        <time>2023-04-22T16:25:30.632000+0800</time>
      </trkpt>
      <trkpt lat="22.526483" lon="113.989111">
        <ele>4.6</ele>
        <time>2023-04-22T16:25:33.628000+0800</time>
      </trkpt>
      <trkpt lat="22.526373" lon="113.989133">
        <ele>4</ele>
        <time>2023-04-22T16:25:36.507000+0800</time>
      </trkpt>
      <trkpt lat="22.526255" lon="113.989145">
        <ele>3.4</ele>
        <time>2023-04-22T16:25:39.548000+0800</time>
      </trkpt>
      <trkpt lat="22.526146" lon="113.989168">
        <ele>2.9</ele>
        <time>2023-04-22T16:25:42.516000+0800</time>
      </trkpt>
      <trkpt lat="22.526036" lon="113.989176">
        <ele>2.3</ele>
        <time>2023-04-22T16:25:45.547000+0800</time>
      </trkpt>
      <trkpt lat="22.525945" lon="113.989178">
        <ele>1.9</ele>
        <time>2023-04-22T16:25:48.544000+0800</time>
      </trkpt>
      <trkpt lat="22.525855" lon="113.989234">
        <ele>1.4</ele>
        <time>2023-04-22T16:25:51.544000+0800</time>
      </trkpt>
      <trkpt lat="22.5258" lon="113.989141">
        <ele>0.8</ele>
        <time>2023-04-22T16:26:00.515000+0800</time>
      </trkpt>
      <trkpt lat="22.525788" lon="113.989033">
        <ele>0.3</ele>
        <time>2023-04-22T16:26:05.577000+0800</time>
      </trkpt>
      <trkpt lat="22.525779" lon="113.988934">
        <ele>-0.1</ele>
        <time>2023-04-22T16:26:15.578000+0800</time>
      </trkpt>
      <trkpt lat="22.525789" lon="113.988831">
        <ele>-0.6</ele>
        <time>2023-04-22T16:26:28.566000+0800</time>
      </trkpt>
      <trkpt lat="22.525762" lon="113.988734">
        <ele>-1</ele>
        <time>2023-04-22T16:26:32.585000+0800</time>
      </trkpt>
      <trkpt lat="22.525743" lon="113.988619">
        <ele>-1.6</ele>
        <time>2023-04-22T16:26:35.586000+0800</time>
      </trkpt>
      <trkpt lat="22.525731" lon="113.988514">
        <ele>-2.1</ele>
        <time>2023-04-22T16:26:38.568000+0800</time>
      </trkpt>
      <trkpt lat="22.525718" lon="113.988394">
        <ele>-2.6</ele>
        <time>2023-04-22T16:26:41.571000+0800</time>
      </trkpt>
      <trkpt lat="22.525722" lon="113.988297">
        <ele>-3.1</ele>
        <time>2023-04-22T16:26:44.577000+0800</time>
      </trkpt>
      <trkpt lat="22.525614" lon="113.988257">
        <ele>-3.6</ele>
        <time>2023-04-22T16:26:53.598000+0800</time>
      </trkpt>
      <trkpt lat="22.52552" lon="113.988278">
        <ele>-4.1</ele>
        <time>2023-04-22T16:26:56.581000+0800</time>
      </trkpt>
      <trkpt lat="22.525426" lon="113.988292">
        <ele>-4.2</ele>
        <time>2023-04-22T16:26:59.579000+0800</time>
      </trkpt>
      <trkpt lat="22.525332" lon="113.988322">
        <ele>-4.2</ele>
        <time>2023-04-22T16:27:02.595000+0800</time>
      </trkpt>
      <trkpt lat="22.525225" lon="113.988337">
        <ele>-4.2</ele>
        <time>2023-04-22T16:27:05.585000+0800</time>
      </trkpt>
      <trkpt lat="22.525122" lon="113.988338">
        <ele>-4.2</ele>
        <time>2023-04-22T16:27:09.592000+0800</time>
      </trkpt>
      <trkpt lat="22.525022" lon="113.988327">
        <ele>-4.1</ele>
        <time>2023-04-22T16:27:16.563000+0800</time>
      </trkpt>
      <trkpt lat="22.524962" lon="113.988253">
        <ele>-4.1</ele>
        <time>2023-04-22T16:27:20.567000+0800</time>
      </trkpt>
      <trkpt lat="22.524945" lon="113.988142">
        <ele>-4.1</ele>
        <time>2023-04-22T16:27:27.600000+0800</time>
      </trkpt>
      <trkpt lat="22.52491" lon="113.988041">
        <ele>-4.1</ele>
        <time>2023-04-22T16:27:33.588000+0800</time>
      </trkpt>
      <trkpt lat="22.524867" lon="113.987952">
        <ele>-4.1</ele>
        <time>2023-04-22T16:27:37.592000+0800</time>
      </trkpt>
      <trkpt lat="22.524835" lon="113.987855">
        <ele>-4</ele>
        <time>2023-04-22T16:27:40.593000+0800</time>
      </trkpt>
      <trkpt lat="22.524799" lon="113.987739">
        <ele>-4</ele>
        <time>2023-04-22T16:27:43.594000+0800</time>
      </trkpt>
      <trkpt lat="22.52476" lon="113.987631">
        <ele>-4</ele>
        <time>2023-04-22T16:27:46.579000+0800</time>
      </trkpt>
      <trkpt lat="22.524722" lon="113.987541">
        <ele>-4</ele>
        <time>2023-04-22T16:27:49.573000+0800</time>
      </trkpt>
      <trkpt lat="22.524679" lon="113.987444">
        <ele>-4</ele>
        <time>2023-04-22T16:27:56.579000+0800</time>
      </trkpt>
      <trkpt lat="22.52463" lon="113.987325">
        <ele>-3.9</ele>
        <time>2023-04-22T16:28:00.570000+0800</time>
      </trkpt>
      <trkpt lat="22.524608" lon="113.987221">
        <ele>-3.9</ele>
        <time>2023-04-22T16:28:03.590000+0800</time>
      </trkpt>
      <trkpt lat="22.524593" lon="113.987109">
        <ele>-3.9</ele>
        <time>2023-04-22T16:28:06.574000+0800</time>
      </trkpt>
      <trkpt lat="22.52455" lon="113.98701">
        <ele>-3.9</ele>
        <time>2023-04-22T16:28:09.585000+0800</time>
      </trkpt>
      <trkpt lat="22.524525" lon="113.986894">
        <ele>-4</ele>
        <time>2023-04-22T16:28:12.563000+0800</time>
      </trkpt>
      <trkpt lat="22.524485" lon="113.98679">
        <ele>-4.2</ele>
        <time>2023-04-22T16:28:15.551000+0800</time>
      </trkpt>
      <trkpt lat="22.524441" lon="113.986689">
        <ele>-4.3</ele>
        <time>2023-04-22T16:28:18.571000+0800</time>
      </trkpt>
      <trkpt lat="22.524398" lon="113.986564">
        <ele>-4.5</ele>
        <time>2023-04-22T16:28:21.596000+0800</time>
      </trkpt>
      <trkpt lat="22.524393" lon="113.986429">
        <ele>-4.6</ele>
        <time>2023-04-22T16:28:24.587000+0800</time>
      </trkpt>
      <trkpt lat="22.524354" lon="113.986299">
        <ele>-4.8</ele>
        <time>2023-04-22T16:28:27.586000+0800</time>
      </trkpt>
      <trkpt lat="22.524318" lon="113.986173">
        <ele>-5</ele>
        <time>2023-04-22T16:28:30.561000+0800</time>
      </trkpt>
      <trkpt lat="22.524289" lon="113.986061">
        <ele>-5.1</ele>
        <time>2023-04-22T16:28:33.561000+0800</time>
      </trkpt>
      <trkpt lat="22.524279" lon="113.98596">
        <ele>-5.3</ele>
        <time>2023-04-22T16:28:37.577000+0800</time>
      </trkpt>
      <trkpt lat="22.524246" lon="113.985822">
        <ele>-5.4</ele>
        <time>2023-04-22T16:28:40.593000+0800</time>
      </trkpt>
      <trkpt lat="22.524218" lon="113.985721">
        <ele>-5.6</ele>
        <time>2023-04-22T16:28:42.585000+0800</time>
      </trkpt>
      <trkpt lat="22.524169" lon="113.985623">
        <ele>-5.7</ele>
        <time>2023-04-22T16:28:49.562000+0800</time>
      </trkpt>
      <trkpt lat="22.52413" lon="113.98551">
        <ele>-5.9</ele>
        <time>2023-04-22T16:28:53.572000+0800</time>
      </trkpt>
      <trkpt lat="22.52411" lon="113.985411">
        <ele>-6</ele>
        <time>2023-04-22T16:28:56.572000+0800</time>
      </trkpt>
      <trkpt lat="22.524108" lon="113.985512">
        <ele>-6.1</ele>
        <time>2023-04-22T16:29:06.633000+0800</time>
      </trkpt>
      <trkpt lat="22.524117" lon="113.985671">
        <ele>-6.3</ele>
        <time>2023-04-22T16:29:16.625000+0800</time>
      </trkpt>
      <trkpt lat="22.523388" lon="113.985884">
        <ele>-5</ele>
        <time>2023-04-22T16:29:54.590000+0800</time>
      </trkpt>
      <trkpt lat="22.523439" lon="113.985964">
        <ele>-4.8</ele>
        <time>2023-04-22T16:30:02.521000+0800</time>
      </trkpt>
      <trkpt lat="22.523524" lon="113.986011">
        <ele>-4.7</ele>
        <time>2023-04-22T16:30:15.592000+0800</time>
      </trkpt>
      <trkpt lat="22.523533" lon="113.985902">
        <ele>-4.5</ele>
        <time>2023-04-22T16:30:35.584000+0800</time>
      </trkpt>
      <trkpt lat="22.523508" lon="113.985792">
        <ele>-4.3</ele>
        <time>2023-04-22T16:30:38.578000+0800</time>
      </trkpt>
      <trkpt lat="22.523477" lon="113.985657">
        <ele>-4.1</ele>
        <time>2023-04-22T16:30:41.592000+0800</time>
      </trkpt>
      <trkpt lat="22.523458" lon="113.985557">
        <ele>-3.9</ele>
        <time>2023-04-22T16:30:45.588000+0800</time>
      </trkpt>
      <trkpt lat="22.523434" lon="113.985449">
        <ele>-3.7</ele>
        <time>2023-04-22T16:30:48.582000+0800</time>
      </trkpt>
      <trkpt lat="22.523399" lon="113.985321">
        <ele>-3.5</ele>
        <time>2023-04-22T16:30:51.579000+0800</time>
      </trkpt>
      <trkpt lat="22.523354" lon="113.985224">
        <ele>-3.3</ele>
        <time>2023-04-22T16:30:54.585000+0800</time>
      </trkpt>
      <trkpt lat="22.523338" lon="113.985099">
        <ele>-3.2</ele>
        <time>2023-04-22T16:30:57.589000+0800</time>
      </trkpt>
      <trkpt lat="22.523324" lon="113.984961">
        <ele>-3.4</ele>
        <time>2023-04-22T16:31:00.593000+0800</time>
      </trkpt>
      <trkpt lat="22.523287" lon="113.984858">
        <ele>-3.6</ele>
        <time>2023-04-22T16:31:04.578000+0800</time>
      </trkpt>
      <trkpt lat="22.523262" lon="113.984738">
        <ele>-3.8</ele>
        <time>2023-04-22T16:31:07.586000+0800</time>
      </trkpt>
      <trkpt lat="22.52323" lon="113.984613">
        <ele>-4</ele>
        <time>2023-04-22T16:31:10.580000+0800</time>
      </trkpt>
      <trkpt lat="22.523215" lon="113.984511">
        <ele>-4.2</ele>
        <time>2023-04-22T16:31:13.573000+0800</time>
      </trkpt>
      <trkpt lat="22.52319" lon="113.984381">
        <ele>-4.4</ele>
        <time>2023-04-22T16:31:16.579000+0800</time>
      </trkpt>
      <trkpt lat="22.523167" lon="113.98426">
        <ele>-4.6</ele>
        <time>2023-04-22T16:31:19.589000+0800</time>
      </trkpt>
      <trkpt lat="22.52315" lon="113.984152">
        <ele>-4.8</ele>
        <time>2023-04-22T16:31:22.561000+0800</time>
      </trkpt>
      <trkpt lat="22.523123" lon="113.984028">
        <ele>-5</ele>
        <time>2023-04-22T16:31:25.601000+0800</time>
      </trkpt>
      <trkpt lat="22.523097" lon="113.983933">
        <ele>-5.1</ele>
        <time>2023-04-22T16:31:28.588000+0800</time>
      </trkpt>
      <trkpt lat="22.523083" lon="113.983823">
        <ele>-5.3</ele>
        <time>2023-04-22T16:31:31.579000+0800</time>
      </trkpt>
      <trkpt lat="22.52306" lon="113.983701">
        <ele>-5.5</ele>
        <time>2023-04-22T16:31:34.583000+0800</time>
      </trkpt>
      <trkpt lat="22.523038" lon="113.983581">
        <ele>-5.7</ele>
        <time>2023-04-22T16:31:37.594000+0800</time>
      </trkpt>
      <trkpt lat="22.523031" lon="113.983453">
        <ele>-5.9</ele>
        <time>2023-04-22T16:31:40.594000+0800</time>
      </trkpt>
      <trkpt lat="22.523014" lon="113.983344">
        <ele>-6.1</ele>
        <time>2023-04-22T16:31:45.562000+0800</time>
      </trkpt>
      <trkpt lat="22.522993" lon="113.983221">
        <ele>-6.3</ele>
        <time>2023-04-22T16:31:48.575000+0800</time>
      </trkpt>
      <trkpt lat="22.522967" lon="113.983091">
        <ele>-6.3</ele>
        <time>2023-04-22T16:31:51.580000+0800</time>
      </trkpt>
      <trkpt lat="22.522967" lon="113.982993">
        <ele>-6.2</ele>
        <time>2023-04-22T16:31:54.605000+0800</time>
      </trkpt>
      <trkpt lat="22.522951" lon="113.982883">
        <ele>-6.1</ele>
        <time>2023-04-22T16:31:57.565000+0800</time>
      </trkpt>
      <trkpt lat="22.522944" lon="113.982772">
        <ele>-6</ele>
        <time>2023-04-22T16:32:00.577000+0800</time>
      </trkpt>
      <trkpt lat="22.522928" lon="113.982669">
        <ele>-5.9</ele>
        <time>2023-04-22T16:32:03.590000+0800</time>
      </trkpt>
      <trkpt lat="22.522905" lon="113.982573">
        <ele>-5.9</ele>
        <time>2023-04-22T16:32:06.589000+0800</time>
      </trkpt>
      <trkpt lat="22.522884" lon="113.98245">
        <ele>-5.8</ele>
        <time>2023-04-22T16:32:12.598000+0800</time>
      </trkpt>
      <trkpt lat="22.522875" lon="113.982345">
        <ele>-5.7</ele>
        <time>2023-04-22T16:32:15.594000+0800</time>
      </trkpt>
      <trkpt lat="22.522862" lon="113.982246">
        <ele>-5.6</ele>
        <time>2023-04-22T16:32:18.578000+0800</time>
      </trkpt>
      <trkpt lat="22.522847" lon="113.982127">
        <ele>-5.5</ele>
        <time>2023-04-22T16:32:23.576000+0800</time>
      </trkpt>
      <trkpt lat="22.52285" lon="113.982019">
        <ele>-5.4</ele>
        <time>2023-04-22T16:32:26.592000+0800</time>
      </trkpt>
      <trkpt lat="22.522823" lon="113.981905">
        <ele>-5.3</ele>
        <time>2023-04-22T16:32:30.575000+0800</time>
      </trkpt>
      <trkpt lat="22.522826" lon="113.981804">
        <ele>-5.3</ele>
        <time>2023-04-22T16:32:33.590000+0800</time>
      </trkpt>
      <trkpt lat="22.522819" lon="113.981699">
        <ele>-5.2</ele>
        <time>2023-04-22T16:32:36.591000+0800</time>
      </trkpt>
      <trkpt lat="22.5228" lon="113.981596">
        <ele>-5.1</ele>
        <time>2023-04-22T16:32:40.589000+0800</time>
      </trkpt>
      <trkpt lat="22.522757" lon="113.981491">
        <ele>-5</ele>
        <time>2023-04-22T16:32:54.606000+0800</time>
      </trkpt>
      <trkpt lat="22.522655" lon="113.981475">
        <ele>-4.9</ele>
        <time>2023-04-22T16:33:02.595000+0800</time>
      </trkpt>
      <trkpt lat="22.522594" lon="113.981394">
        <ele>-4.8</ele>
        <time>2023-04-22T16:33:12.594000+0800</time>
      </trkpt>
      <trkpt lat="22.522603" lon="113.981289">
        <ele>-4.8</ele>
        <time>2023-04-22T16:33:19.575000+0800</time>
      </trkpt>
      <trkpt lat="22.522583" lon="113.981182">
        <ele>-4.7</ele>
        <time>2023-04-22T16:33:27.606000+0800</time>
      </trkpt>
      <trkpt lat="22.52255" lon="113.981085">
        <ele>-4.7</ele>
        <time>2023-04-22T16:33:36.577000+0800</time>
      </trkpt>
      <trkpt lat="22.522513" lon="113.980991">
        <ele>-4.7</ele>
        <time>2023-04-22T16:33:40.584000+0800</time>
      </trkpt>
      <trkpt lat="22.522456" lon="113.980893">
        <ele>-4.6</ele>
        <time>2023-04-22T16:33:43.566000+0800</time>
      </trkpt>
      <trkpt lat="22.522446" lon="113.980775">
        <ele>-4.6</ele>
        <time>2023-04-22T16:33:46.567000+0800</time>
      </trkpt>
      <trkpt lat="22.522444" lon="113.980644">
        <ele>-4.5</ele>
        <time>2023-04-22T16:33:49.587000+0800</time>
      </trkpt>
      <trkpt lat="22.52244" lon="113.980531">
        <ele>-4.4</ele>
        <time>2023-04-22T16:33:52.610000+0800</time>
      </trkpt>
      <trkpt lat="22.522414" lon="113.98042">
        <ele>-4.4</ele>
        <time>2023-04-22T16:33:55.570000+0800</time>
      </trkpt>
      <trkpt lat="22.522377" lon="113.980298">
        <ele>-4.3</ele>
        <time>2023-04-22T16:33:58.579000+0800</time>
      </trkpt>
      <trkpt lat="22.522345" lon="113.980205">
        <ele>-4.3</ele>
        <time>2023-04-22T16:34:00.541000+0800</time>
      </trkpt>
      <trkpt lat="22.522311" lon="113.980114">
        <ele>-4.2</ele>
        <time>2023-04-22T16:34:02.587000+0800</time>
      </trkpt>
      <trkpt lat="22.522271" lon="113.97998">
        <ele>-4.2</ele>
        <time>2023-04-22T16:34:05.599000+0800</time>
      </trkpt>
      <trkpt lat="22.522236" lon="113.979851">
        <ele>-4.1</ele>
        <time>2023-04-22T16:34:08.584000+0800</time>
      </trkpt>
      <trkpt lat="22.522181" lon="113.979739">
        <ele>-4.1</ele>
        <time>2023-04-22T16:34:11.587000+0800</time>
      </trkpt>
      <trkpt lat="22.522222" lon="113.979642">
        <ele>-4</ele>
        <time>2023-04-22T16:34:14.585000+0800</time>
      </trkpt>
      <trkpt lat="22.522278" lon="113.979542">
        <ele>-4</ele>
        <time>2023-04-22T16:34:17.575000+0800</time>
      </trkpt>
      <trkpt lat="22.522254" lon="113.979408">
        <ele>-4.1</ele>
        <time>2023-04-22T16:34:20.586000+0800</time>
      </trkpt>
      <trkpt lat="22.522203" lon="113.979327">
        <ele>-4.2</ele>
        <time>2023-04-22T16:34:22.584000+0800</time>
      </trkpt>
      <trkpt lat="22.522164" lon="113.979203">
        <ele>-4.3</ele>
        <time>2023-04-22T16:34:25.589000+0800</time>
      </trkpt>
      <trkpt lat="22.52219" lon="113.979107">
        <ele>-4.4</ele>
        <time>2023-04-22T16:34:27.592000+0800</time>
      </trkpt>
      <trkpt lat="22.522245" lon="113.979011">
        <ele>-4.5</ele>
        <time>2023-04-22T16:34:30.587000+0800</time>
      </trkpt>
      <trkpt lat="22.522284" lon="113.9789">
        <ele>-4.7</ele>
        <time>2023-04-22T16:34:33.563000+0800</time>
      </trkpt>
      <trkpt lat="22.522372" lon="113.97886">
        <ele>-4.8</ele>
        <time>2023-04-22T16:34:37.561000+0800</time>
      </trkpt>
      <trkpt lat="22.52239" lon="113.978745">
        <ele>-4.9</ele>
        <time>2023-04-22T16:34:43.588000+0800</time>
      </trkpt>
      <trkpt lat="22.522398" lon="113.978644">
        <ele>-5</ele>
        <time>2023-04-22T16:34:46.609000+0800</time>
      </trkpt>
      <trkpt lat="22.522344" lon="113.978565">
        <ele>-5.1</ele>
        <time>2023-04-22T16:34:49.562000+0800</time>
      </trkpt>
      <trkpt lat="22.522265" lon="113.978466">
        <ele>-5.2</ele>
        <time>2023-04-22T16:34:53.598000+0800</time>
      </trkpt>
      <trkpt lat="22.522219" lon="113.978352">
        <ele>-5.3</ele>
        <time>2023-04-22T16:34:56.581000+0800</time>
      </trkpt>
      <trkpt lat="22.522147" lon="113.978263">
        <ele>-5.4</ele>
        <time>2023-04-22T16:34:59.591000+0800</time>
      </trkpt>
      <trkpt lat="22.522037" lon="113.978178">
        <ele>-5.5</ele>
        <time>2023-04-22T16:35:02.577000+0800</time>
      </trkpt>
      <trkpt lat="22.52195" lon="113.978144">
        <ele>-5.6</ele>
        <time>2023-04-22T16:35:05.586000+0800</time>
      </trkpt>
      <trkpt lat="22.521858" lon="113.978198">
        <ele>-5.7</ele>
        <time>2023-04-22T16:35:09.590000+0800</time>
      </trkpt>
      <trkpt lat="22.5219" lon="113.978105">
        <ele>-5.8</ele>
        <time>2023-04-22T16:35:23.614000+0800</time>
      </trkpt>
      <trkpt lat="22.521985" lon="113.978065">
        <ele>-5.7</ele>
        <time>2023-04-22T16:35:27.587000+0800</time>
      </trkpt>
      <trkpt lat="22.522092" lon="113.978088">
        <ele>-5.5</ele>
        <time>2023-04-22T16:35:31.598000+0800</time>
      </trkpt>
      <trkpt lat="22.522188" lon="113.978114">
        <ele>-5.4</ele>
        <time>2023-04-22T16:35:35.598000+0800</time>
      </trkpt>
      <trkpt lat="22.522191" lon="113.977996">
        <ele>-5.3</ele>
        <time>2023-04-22T16:35:39.579000+0800</time>
      </trkpt>
      <trkpt lat="22.522201" lon="113.977888">
        <ele>-5.2</ele>
        <time>2023-04-22T16:35:43.589000+0800</time>
      </trkpt>
      <trkpt lat="22.522305" lon="113.977884">
        <ele>-5</ele>
        <time>2023-04-22T16:35:48.542000+0800</time>
      </trkpt>
      <trkpt lat="22.522397" lon="113.97789">
        <ele>-4.9</ele>
        <time>2023-04-22T16:35:53.599000+0800</time>
      </trkpt>
      <trkpt lat="22.522504" lon="113.977917">
        <ele>-4.8</ele>
        <time>2023-04-22T16:35:58.583000+0800</time>
      </trkpt>
      <trkpt lat="22.522597" lon="113.977918">
        <ele>-4.7</ele>
        <time>2023-04-22T16:36:01.595000+0800</time>
      </trkpt>
      <trkpt lat="22.522696" lon="113.977927">
        <ele>-4.5</ele>
        <time>2023-04-22T16:36:04.582000+0800</time>
      </trkpt>
      <trkpt lat="22.52281" lon="113.977916">
        <ele>-4.4</ele>
        <time>2023-04-22T16:36:07.579000+0800</time>
      </trkpt>
      <trkpt lat="22.522929" lon="113.977911">
        <ele>-4.3</ele>
        <time>2023-04-22T16:36:10.551000+0800</time>
      </trkpt>
      <trkpt lat="22.52305" lon="113.977918">
        <ele>-4.1</ele>
        <time>2023-04-22T16:36:13.590000+0800</time>
      </trkpt>
      <trkpt lat="22.523164" lon="113.97792">
        <ele>-4</ele>
        <time>2023-04-22T16:36:16.587000+0800</time>
      </trkpt>
      <trkpt lat="22.523281" lon="113.977913">
        <ele>-3.8</ele>
        <time>2023-04-22T16:36:19.573000+0800</time>
      </trkpt>
      <trkpt lat="22.523411" lon="113.977908">
        <ele>-3.7</ele>
        <time>2023-04-22T16:36:22.580000+0800</time>
      </trkpt>
      <trkpt lat="22.523507" lon="113.977902">
        <ele>-3.7</ele>
        <time>2023-04-22T16:36:24.597000+0800</time>
      </trkpt>
      <trkpt lat="22.523607" lon="113.977898">
        <ele>-4</ele>
        <time>2023-04-22T16:36:26.563000+0800</time>
      </trkpt>
      <trkpt lat="22.523727" lon="113.977903">
        <ele>-4.2</ele>
        <time>2023-04-22T16:36:29.589000+0800</time>
      </trkpt>
      <trkpt lat="22.523815" lon="113.977949">
        <ele>-4.4</ele>
        <time>2023-04-22T16:36:33.584000+0800</time>
      </trkpt>
      <trkpt lat="22.52392" lon="113.977976">
        <ele>-4.7</ele>
        <time>2023-04-22T16:36:37.598000+0800</time>
      </trkpt>
      <trkpt lat="22.52405" lon="113.977994">
        <ele>-4.9</ele>
        <time>2023-04-22T16:36:40.584000+0800</time>
      </trkpt>
      <trkpt lat="22.524184" lon="113.977993">
        <ele>-5.2</ele>
        <time>2023-04-22T16:36:43.578000+0800</time>
      </trkpt>
      <trkpt lat="22.524314" lon="113.977983">
        <ele>-5.5</ele>
        <time>2023-04-22T16:36:46.605000+0800</time>
      </trkpt>
      <trkpt lat="22.524411" lon="113.977977">
        <ele>-5.7</ele>
        <time>2023-04-22T16:36:49.592000+0800</time>
      </trkpt>
      <trkpt lat="22.524508" lon="113.977973">
        <ele>-5.9</ele>
        <time>2023-04-22T16:36:52.583000+0800</time>
      </trkpt>
      <trkpt lat="22.524603" lon="113.977981">
        <ele>-6.2</ele>
        <time>2023-04-22T16:36:54.571000+0800</time>
      </trkpt>
      <trkpt lat="22.524719" lon="113.978014">
        <ele>-6.4</ele>
        <time>2023-04-22T16:36:57.593000+0800</time>
      </trkpt>
      <trkpt lat="22.524841" lon="113.978006">
        <ele>-6.7</ele>
        <time>2023-04-22T16:37:00.586000+0800</time>
      </trkpt>
      <trkpt lat="22.524938" lon="113.977997">
        <ele>-6.9</ele>
        <time>2023-04-22T16:37:02.587000+0800</time>
      </trkpt>
      <trkpt lat="22.525041" lon="113.978001">
        <ele>-7.1</ele>
        <time>2023-04-22T16:37:04.607000+0800</time>
      </trkpt>
      <trkpt lat="22.52515" lon="113.978001">
        <ele>-7.4</ele>
        <time>2023-04-22T16:37:06.572000+0800</time>
      </trkpt>
      <trkpt lat="22.525252" lon="113.977996">
        <ele>-7.5</ele>
        <time>2023-04-22T16:37:08.593000+0800</time>
      </trkpt>
      <trkpt lat="22.525359" lon="113.977993">
        <ele>-7.5</ele>
        <time>2023-04-22T16:37:10.591000+0800</time>
      </trkpt>
      <trkpt lat="22.525459" lon="113.977991">
        <ele>-7.5</ele>
        <time>2023-04-22T16:37:12.584000+0800</time>
      </trkpt>
      <trkpt lat="22.525588" lon="113.977985">
        <ele>-7.5</ele>
        <time>2023-04-22T16:37:15.600000+0800</time>
      </trkpt>
      <trkpt lat="22.525685" lon="113.977973">
        <ele>-7.4</ele>
        <time>2023-04-22T16:37:17.590000+0800</time>
      </trkpt>
      <trkpt lat="22.525801" lon="113.977965">
        <ele>-7.4</ele>
        <time>2023-04-22T16:37:19.596000+0800</time>
      </trkpt>
      <trkpt lat="22.525917" lon="113.977964">
        <ele>-7.4</ele>
        <time>2023-04-22T16:37:21.607000+0800</time>
      </trkpt>
      <trkpt lat="22.526021" lon="113.97797">
        <ele>-7.4</ele>
        <time>2023-04-22T16:37:23.581000+0800</time>
      </trkpt>
      <trkpt lat="22.52612" lon="113.977974">
        <ele>-7.4</ele>
        <time>2023-04-22T16:37:25.584000+0800</time>
      </trkpt>
      <trkpt lat="22.526224" lon="113.977969">
        <ele>-7.3</ele>
        <time>2023-04-22T16:37:27.586000+0800</time>
      </trkpt>
      <trkpt lat="22.52633" lon="113.977965">
        <ele>-7.3</ele>
        <time>2023-04-22T16:37:29.579000+0800</time>
      </trkpt>
      <trkpt lat="22.526425" lon="113.977967">
        <ele>-7.3</ele>
        <time>2023-04-22T16:37:31.589000+0800</time>
      </trkpt>
      <trkpt lat="22.52652" lon="113.977964">
        <ele>-7.3</ele>
        <time>2023-04-22T16:37:33.586000+0800</time>
      </trkpt>
      <trkpt lat="22.526624" lon="113.977966">
        <ele>-7.3</ele>
        <time>2023-04-22T16:37:35.598000+0800</time>
      </trkpt>
      <trkpt lat="22.526724" lon="113.97797">
        <ele>-7.2</ele>
        <time>2023-04-22T16:37:37.599000+0800</time>
      </trkpt>
      <trkpt lat="22.526818" lon="113.977963">
        <ele>-7.2</ele>
        <time>2023-04-22T16:37:39.611000+0800</time>
      </trkpt>
      <trkpt lat="22.526931" lon="113.977946">
        <ele>-7.2</ele>
        <time>2023-04-22T16:37:42.601000+0800</time>
      </trkpt>
      <trkpt lat="22.527044" lon="113.977947">
        <ele>-7.2</ele>
        <time>2023-04-22T16:37:46.594000+0800</time>
      </trkpt>
      <trkpt lat="22.527155" lon="113.977946">
        <ele>-7.2</ele>
        <time>2023-04-22T16:37:49.596000+0800</time>
      </trkpt>
      <trkpt lat="22.527249" lon="113.977956">
        <ele>-7.3</ele>
        <time>2023-04-22T16:37:51.584000+0800</time>
      </trkpt>
      <trkpt lat="22.527342" lon="113.977955">
        <ele>-7.3</ele>
        <time>2023-04-22T16:37:53.619000+0800</time>
      </trkpt>
      <trkpt lat="22.527434" lon="113.977952">
        <ele>-7.4</ele>
        <time>2023-04-22T16:37:55.599000+0800</time>
      </trkpt>
      <trkpt lat="22.527529" lon="113.977957">
        <ele>-7.4</ele>
        <time>2023-04-22T16:37:57.602000+0800</time>
      </trkpt>
      <trkpt lat="22.527667" lon="113.977964">
        <ele>-7.5</ele>
        <time>2023-04-22T16:38:00.573000+0800</time>
      </trkpt>
      <trkpt lat="22.527764" lon="113.977964">
        <ele>-7.5</ele>
        <time>2023-04-22T16:38:02.587000+0800</time>
      </trkpt>
      <trkpt lat="22.527897" lon="113.977949">
        <ele>-7.6</ele>
        <time>2023-04-22T16:38:05.589000+0800</time>
      </trkpt>
      <trkpt lat="22.528023" lon="113.977945">
        <ele>-7.7</ele>
        <time>2023-04-22T16:38:08.602000+0800</time>
      </trkpt>
      <trkpt lat="22.528124" lon="113.977915">
        <ele>-7.7</ele>
        <time>2023-04-22T16:38:11.568000+0800</time>
      </trkpt>
      <trkpt lat="22.528178" lon="113.977832">
        <ele>-7.8</ele>
        <time>2023-04-22T16:38:16.592000+0800</time>
      </trkpt>
      <trkpt lat="22.528373" lon="113.977864">
        <ele>-7.9</ele>
        <time>2023-04-22T16:38:46.567000+0800</time>
      </trkpt>
      <trkpt lat="22.528584" lon="113.977853">
        <ele>-8</ele>
        <time>2023-04-22T16:39:11.585000+0800</time>
      </trkpt>
      <trkpt lat="22.528592" lon="113.977727">
        <ele>-8</ele>
        <time>2023-04-22T16:39:16.602000+0800</time>
      </trkpt>
      <trkpt lat="22.528627" lon="113.97761">
        <ele>-8</ele>
        <time>2023-04-22T16:39:19.596000+0800</time>
      </trkpt>
      <trkpt lat="22.528676" lon="113.977505">
        <ele>-7.9</ele>
        <time>2023-04-22T16:39:22.570000+0800</time>
      </trkpt>
      <trkpt lat="22.528695" lon="113.977375">
        <ele>-7.7</ele>
        <time>2023-04-22T16:39:25.589000+0800</time>
      </trkpt>
      <trkpt lat="22.528711" lon="113.977274">
        <ele>-7.6</ele>
        <time>2023-04-22T16:39:27.602000+0800</time>
      </trkpt>
      <trkpt lat="22.528732" lon="113.977167">
        <ele>-7.4</ele>
        <time>2023-04-22T16:39:29.586000+0800</time>
      </trkpt>
      <trkpt lat="22.52876" lon="113.977055">
        <ele>-7.3</ele>
        <time>2023-04-22T16:39:31.606000+0800</time>
      </trkpt>
      <trkpt lat="22.528791" lon="113.976914">
        <ele>-7.1</ele>
        <time>2023-04-22T16:39:34.591000+0800</time>
      </trkpt>
      <trkpt lat="22.528822" lon="113.976804">
        <ele>-6.9</ele>
        <time>2023-04-22T16:39:36.604000+0800</time>
      </trkpt>
      <trkpt lat="22.528859" lon="113.976704">
        <ele>-6.8</ele>
        <time>2023-04-22T16:39:38.576000+0800</time>
      </trkpt>
      <trkpt lat="22.528912" lon="113.97657">
        <ele>-6.6</ele>
        <time>2023-04-22T16:39:41.600000+0800</time>
      </trkpt>
      <trkpt lat="22.528943" lon="113.976471">
        <ele>-6.5</ele>
        <time>2023-04-22T16:39:43.598000+0800</time>
      </trkpt>
      <trkpt lat="22.528983" lon="113.976348">
        <ele>-6.3</ele>
        <time>2023-04-22T16:39:46.580000+0800</time>
      </trkpt>
      <trkpt lat="22.529046" lon="113.976215">
        <ele>-6.1</ele>
        <time>2023-04-22T16:39:49.602000+0800</time>
      </trkpt>
      <trkpt lat="22.529087" lon="113.976092">
        <ele>-5.9</ele>
        <time>2023-04-22T16:39:52.616000+0800</time>
      </trkpt>
      <trkpt lat="22.529122" lon="113.975988">
        <ele>-5.8</ele>
        <time>2023-04-22T16:39:54.595000+0800</time>
      </trkpt>
      <trkpt lat="22.52916" lon="113.97589">
        <ele>-5.6</ele>
        <time>2023-04-22T16:39:56.583000+0800</time>
      </trkpt>
      <trkpt lat="22.529186" lon="113.975762">
        <ele>-5.5</ele>
        <time>2023-04-22T16:39:59.585000+0800</time>
      </trkpt>
      <trkpt lat="22.529217" lon="113.975655">
        <ele>-5.3</ele>
        <time>2023-04-22T16:40:01.565000+0800</time>
      </trkpt>
      <trkpt lat="22.52925" lon="113.975558">
        <ele>-5.1</ele>
        <time>2023-04-22T16:40:03.602000+0800</time>
      </trkpt>
      <trkpt lat="22.529291" lon="113.975458">
        <ele>-4.9</ele>
        <time>2023-04-22T16:40:05.591000+0800</time>
      </trkpt>
      <trkpt lat="22.529335" lon="113.975372">
        <ele>-4.7</ele>
        <time>2023-04-22T16:40:07.586000+0800</time>
      </trkpt>
      <trkpt lat="22.529377" lon="113.975256">
        <ele>-4.5</ele>
        <time>2023-04-22T16:40:10.594000+0800</time>
      </trkpt>
      <trkpt lat="22.529417" lon="113.97515">
        <ele>-4.3</ele>
        <time>2023-04-22T16:40:12.577000+0800</time>
      </trkpt>
      <trkpt lat="22.52945" lon="113.975056">
        <ele>-4.2</ele>
        <time>2023-04-22T16:40:14.585000+0800</time>
      </trkpt>
      <trkpt lat="22.529481" lon="113.974956">
        <ele>-4</ele>
        <time>2023-04-22T16:40:16.589000+0800</time>
      </trkpt>
      <trkpt lat="22.529526" lon="113.974835">
        <ele>-3.8</ele>
        <time>2023-04-22T16:40:18.587000+0800</time>
      </trkpt>
      <trkpt lat="22.529561" lon="113.97473">
        <ele>-3.6</ele>
        <time>2023-04-22T16:40:20.584000+0800</time>
      </trkpt>
      <trkpt lat="22.529599" lon="113.974628">
        <ele>-3.4</ele>
        <time>2023-04-22T16:40:22.590000+0800</time>
      </trkpt>
      <trkpt lat="22.529629" lon="113.974525">
        <ele>-3.2</ele>
        <time>2023-04-22T16:40:24.594000+0800</time>
      </trkpt>
      <trkpt lat="22.529656" lon="113.974423">
        <ele>-3</ele>
        <time>2023-04-22T16:40:26.599000+0800</time>
      </trkpt>
      <trkpt lat="22.529682" lon="113.974326">
        <ele>-2.9</ele>
        <time>2023-04-22T16:40:28.601000+0800</time>
      </trkpt>
      <trkpt lat="22.529714" lon="113.974234">
        <ele>-2.7</ele>
        <time>2023-04-22T16:40:30.564000+0800</time>
      </trkpt>
      <trkpt lat="22.52976" lon="113.974092">
        <ele>-2.4</ele>
        <time>2023-04-22T16:40:33.608000+0800</time>
      </trkpt>
      <trkpt lat="22.529793" lon="113.973992">
        <ele>-2.3</ele>
        <time>2023-04-22T16:40:35.592000+0800</time>
      </trkpt>
      <trkpt lat="22.529821" lon="113.973857">
        <ele>-2.4</ele>
        <time>2023-04-22T16:40:38.580000+0800</time>
      </trkpt>
      <trkpt lat="22.529889" lon="113.973745">
        <ele>-2.5</ele>
        <time>2023-04-22T16:40:41.594000+0800</time>
      </trkpt>
      <trkpt lat="22.529942" lon="113.973624">
        <ele>-2.7</ele>
        <time>2023-04-22T16:40:44.596000+0800</time>
      </trkpt>
      <trkpt lat="22.529983" lon="113.973517">
        <ele>-2.8</ele>
        <time>2023-04-22T16:40:46.590000+0800</time>
      </trkpt>
      <trkpt lat="22.530034" lon="113.973378">
        <ele>-2.9</ele>
        <time>2023-04-22T16:40:49.589000+0800</time>
      </trkpt>
      <trkpt lat="22.530076" lon="113.973278">
        <ele>-3.1</ele>
        <time>2023-04-22T16:40:51.584000+0800</time>
      </trkpt>
      <trkpt lat="22.530109" lon="113.973171">
        <ele>-3.2</ele>
        <time>2023-04-22T16:40:53.562000+0800</time>
      </trkpt>
      <trkpt lat="22.530145" lon="113.973071">
        <ele>-3.3</ele>
        <time>2023-04-22T16:40:55.594000+0800</time>
      </trkpt>
      <trkpt lat="22.530197" lon="113.972935">
        <ele>-3.5</ele>
        <time>2023-04-22T16:40:58.589000+0800</time>
      </trkpt>
      <trkpt lat="22.530225" lon="113.972836">
        <ele>-3.6</ele>
        <time>2023-04-22T16:41:00.589000+0800</time>
      </trkpt>
      <trkpt lat="22.530261" lon="113.97273">
        <ele>-3.7</ele>
        <time>2023-04-22T16:41:02.578000+0800</time>
      </trkpt>
      <trkpt lat="22.530299" lon="113.972641">
        <ele>-3.8</ele>
        <time>2023-04-22T16:41:04.597000+0800</time>
      </trkpt>
      <trkpt lat="22.530355" lon="113.972528">
        <ele>-3.9</ele>
        <time>2023-04-22T16:41:07.542000+0800</time>
      </trkpt>
      <trkpt lat="22.530388" lon="113.972434">
        <ele>-4</ele>
        <time>2023-04-22T16:41:09.572000+0800</time>
      </trkpt>
      <trkpt lat="22.530419" lon="113.972332">
        <ele>-4.2</ele>
        <time>2023-04-22T16:41:11.596000+0800</time>
      </trkpt>
      <trkpt lat="22.530454" lon="113.972236">
        <ele>-4.3</ele>
        <time>2023-04-22T16:41:13.585000+0800</time>
      </trkpt>
      <trkpt lat="22.530494" lon="113.972105">
        <ele>-4.4</ele>
        <time>2023-04-22T16:41:16.592000+0800</time>
      </trkpt>
      <trkpt lat="22.5305" lon="113.971992">
        <ele>-4.6</ele>
        <time>2023-04-22T16:41:19.585000+0800</time>
      </trkpt>
      <trkpt lat="22.530518" lon="113.971879">
        <ele>-4.7</ele>
        <time>2023-04-22T16:41:23.598000+0800</time>
      </trkpt>
      <trkpt lat="22.530558" lon="113.971778">
        <ele>-4.9</ele>
        <time>2023-04-22T16:41:26.596000+0800</time>
      </trkpt>
      <trkpt lat="22.530625" lon="113.971697">
        <ele>-5</ele>
        <time>2023-04-22T16:41:29.590000+0800</time>
      </trkpt>
      <trkpt lat="22.530669" lon="113.971581">
        <ele>-5.1</ele>
        <time>2023-04-22T16:41:32.581000+0800</time>
      </trkpt>
      <trkpt lat="22.530699" lon="113.971458">
        <ele>-5.3</ele>
        <time>2023-04-22T16:41:35.593000+0800</time>
      </trkpt>
      <trkpt lat="22.53074" lon="113.971342">
        <ele>-5.5</ele>
        <time>2023-04-22T16:41:38.594000+0800</time>
      </trkpt>
      <trkpt lat="22.530801" lon="113.971258">
        <ele>-5.6</ele>
        <time>2023-04-22T16:41:41.599000+0800</time>
      </trkpt>
      <trkpt lat="22.530858" lon="113.971142">
        <ele>-5.8</ele>
        <time>2023-04-22T16:41:44.610000+0800</time>
      </trkpt>
      <trkpt lat="22.530897" lon="113.970996">
        <ele>-5.9</ele>
        <time>2023-04-22T16:41:47.587000+0800</time>
      </trkpt>
      <trkpt lat="22.530922" lon="113.970883">
        <ele>-6.1</ele>
        <time>2023-04-22T16:41:50.602000+0800</time>
      </trkpt>
      <trkpt lat="22.530959" lon="113.970782">
        <ele>-6.2</ele>
        <time>2023-04-22T16:41:53.613000+0800</time>
      </trkpt>
      <trkpt lat="22.531014" lon="113.970683">
        <ele>-6.4</ele>
        <time>2023-04-22T16:41:56.593000+0800</time>
      </trkpt>
      <trkpt lat="22.531054" lon="113.970549">
        <ele>-6.5</ele>
        <time>2023-04-22T16:41:59.602000+0800</time>
      </trkpt>
      <trkpt lat="22.531103" lon="113.970428">
        <ele>-6.7</ele>
        <time>2023-04-22T16:42:02.582000+0800</time>
      </trkpt>
      <trkpt lat="22.531159" lon="113.970298">
        <ele>-6.7</ele>
        <time>2023-04-22T16:42:05.597000+0800</time>
      </trkpt>
      <trkpt lat="22.531213" lon="113.970173">
        <ele>-6.5</ele>
        <time>2023-04-22T16:42:08.600000+0800</time>
      </trkpt>
      <trkpt lat="22.531245" lon="113.970041">
        <ele>-6.4</ele>
        <time>2023-04-22T16:42:11.609000+0800</time>
      </trkpt>
      <trkpt lat="22.531285" lon="113.969905">
        <ele>-6.2</ele>
        <time>2023-04-22T16:42:14.600000+0800</time>
      </trkpt>
      <trkpt lat="22.531326" lon="113.969818">
        <ele>-6.1</ele>
        <time>2023-04-22T16:42:16.587000+0800</time>
      </trkpt>
      <trkpt lat="22.531363" lon="113.969716">
        <ele>-6</ele>
        <time>2023-04-22T16:42:19.585000+0800</time>
      </trkpt>
      <trkpt lat="22.531384" lon="113.969613">
        <ele>-5.9</ele>
        <time>2023-04-22T16:42:22.590000+0800</time>
      </trkpt>
      <trkpt lat="22.531428" lon="113.969484">
        <ele>-5.8</ele>
        <time>2023-04-22T16:42:25.595000+0800</time>
      </trkpt>
      <trkpt lat="22.531467" lon="113.969391">
        <ele>-5.7</ele>
        <time>2023-04-22T16:42:27.606000+0800</time>
      </trkpt>
      <trkpt lat="22.531512" lon="113.969298">
        <ele>-5.6</ele>
        <time>2023-04-22T16:42:29.612000+0800</time>
      </trkpt>
      <trkpt lat="22.53155" lon="113.969196">
        <ele>-5.5</ele>
        <time>2023-04-22T16:42:31.588000+0800</time>
      </trkpt>
      <trkpt lat="22.531586" lon="113.969093">
        <ele>-5.4</ele>
        <time>2023-04-22T16:42:33.591000+0800</time>
      </trkpt>
      <trkpt lat="22.531625" lon="113.968987">
        <ele>-5.2</ele>
        <time>2023-04-22T16:42:35.582000+0800</time>
      </trkpt>
      <trkpt lat="22.53166" lon="113.968872">
        <ele>-5.1</ele>
        <time>2023-04-22T16:42:37.601000+0800</time>
      </trkpt>
      <trkpt lat="22.531694" lon="113.968777">
        <ele>-5</ele>
        <time>2023-04-22T16:42:39.612000+0800</time>
      </trkpt>
      <trkpt lat="22.531716" lon="113.968678">
        <ele>-4.9</ele>
        <time>2023-04-22T16:42:41.609000+0800</time>
      </trkpt>
      <trkpt lat="22.531752" lon="113.968584">
        <ele>-4.8</ele>
        <time>2023-04-22T16:42:43.596000+0800</time>
      </trkpt>
      <trkpt lat="22.531801" lon="113.968466">
        <ele>-4.7</ele>
        <time>2023-04-22T16:42:46.601000+0800</time>
      </trkpt>
      <trkpt lat="22.531835" lon="113.968327">
        <ele>-4.6</ele>
        <time>2023-04-22T16:42:49.607000+0800</time>
      </trkpt>
      <trkpt lat="22.531891" lon="113.968213">
        <ele>-4.4</ele>
        <time>2023-04-22T16:42:52.597000+0800</time>
      </trkpt>
      <trkpt lat="22.53193" lon="113.968106">
        <ele>-4.3</ele>
        <time>2023-04-22T16:42:55.598000+0800</time>
      </trkpt>
      <trkpt lat="22.531972" lon="113.967986">
        <ele>-4.2</ele>
        <time>2023-04-22T16:42:58.579000+0800</time>
      </trkpt>
      <trkpt lat="22.532021" lon="113.967884">
        <ele>-4.1</ele>
        <time>2023-04-22T16:43:01.583000+0800</time>
      </trkpt>
      <trkpt lat="22.53206" lon="113.967786">
        <ele>-4</ele>
        <time>2023-04-22T16:43:04.583000+0800</time>
      </trkpt>
      <trkpt lat="22.532086" lon="113.96769">
        <ele>-3.9</ele>
        <time>2023-04-22T16:43:07.630000+0800</time>
      </trkpt>
      <trkpt lat="22.53212" lon="113.967588">
        <ele>-3.8</ele>
        <time>2023-04-22T16:43:10.613000+0800</time>
      </trkpt>
      <trkpt lat="22.532174" lon="113.967466">
        <ele>-3.7</ele>
        <time>2023-04-22T16:43:13.559000+0800</time>
      </trkpt>
      <trkpt lat="22.532219" lon="113.967352">
        <ele>-3.6</ele>
        <time>2023-04-22T16:43:16.591000+0800</time>
      </trkpt>
      <trkpt lat="22.532251" lon="113.967223">
        <ele>-3.5</ele>
        <time>2023-04-22T16:43:19.609000+0800</time>
      </trkpt>
      <trkpt lat="22.532305" lon="113.967141">
        <ele>-3.4</ele>
        <time>2023-04-22T16:43:22.599000+0800</time>
      </trkpt>
      <trkpt lat="22.532363" lon="113.967039">
        <ele>-3.3</ele>
        <time>2023-04-22T16:43:26.597000+0800</time>
      </trkpt>
      <trkpt lat="22.53236" lon="113.966936">
        <ele>-3.2</ele>
        <time>2023-04-22T16:43:29.605000+0800</time>
      </trkpt>
      <trkpt lat="22.532387" lon="113.966843">
        <ele>-3.1</ele>
        <time>2023-04-22T16:43:32.593000+0800</time>
      </trkpt>
      <trkpt lat="22.532426" lon="113.966732">
        <ele>-3</ele>
        <time>2023-04-22T16:43:35.586000+0800</time>
      </trkpt>
      <trkpt lat="22.532465" lon="113.966626">
        <ele>-3</ele>
        <time>2023-04-22T16:43:39.594000+0800</time>
      </trkpt>
      <trkpt lat="22.532513" lon="113.966514">
        <ele>-3</ele>
        <time>2023-04-22T16:43:43.598000+0800</time>
      </trkpt>
      <trkpt lat="22.532568" lon="113.966399">
        <ele>-3</ele>
        <time>2023-04-22T16:43:46.596000+0800</time>
      </trkpt>
      <trkpt lat="22.532607" lon="113.96627">
        <ele>-3</ele>
        <time>2023-04-22T16:43:49.598000+0800</time>
      </trkpt>
      <trkpt lat="22.532639" lon="113.966149">
        <ele>-3</ele>
        <time>2023-04-22T16:43:52.599000+0800</time>
      </trkpt>
      <trkpt lat="22.532676" lon="113.966057">
        <ele>-3</ele>
        <time>2023-04-22T16:43:55.596000+0800</time>
      </trkpt>
      <trkpt lat="22.532713" lon="113.965955">
        <ele>-3</ele>
        <time>2023-04-22T16:43:59.525000+0800</time>
      </trkpt>
      <trkpt lat="22.532724" lon="113.96585">
        <ele>-3</ele>
        <time>2023-04-22T16:44:02.576000+0800</time>
      </trkpt>
      <trkpt lat="22.532734" lon="113.965751">
        <ele>-3</ele>
        <time>2023-04-22T16:44:05.600000+0800</time>
      </trkpt>
      <trkpt lat="22.5328" lon="113.965639">
        <ele>-3</ele>
        <time>2023-04-22T16:44:09.603000+0800</time>
      </trkpt>
      <trkpt lat="22.532883" lon="113.965565">
        <ele>-3</ele>
        <time>2023-04-22T16:44:12.598000+0800</time>
      </trkpt>
      <trkpt lat="22.532929" lon="113.965445">
        <ele>-2.9</ele>
        <time>2023-04-22T16:44:16.593000+0800</time>
      </trkpt>
      <trkpt lat="22.532942" lon="113.965324">
        <ele>-2.9</ele>
        <time>2023-04-22T16:44:19.577000+0800</time>
      </trkpt>
      <trkpt lat="22.532971" lon="113.965199">
        <ele>-2.9</ele>
        <time>2023-04-22T16:44:23.614000+0800</time>
      </trkpt>
      <trkpt lat="22.53304" lon="113.965096">
        <ele>-2.9</ele>
        <time>2023-04-22T16:44:26.620000+0800</time>
      </trkpt>
      <trkpt lat="22.533083" lon="113.964988">
        <ele>-2.9</ele>
        <time>2023-04-22T16:44:31.606000+0800</time>
      </trkpt>
      <trkpt lat="22.533142" lon="113.964896">
        <ele>-2.7</ele>
        <time>2023-04-22T16:44:35.602000+0800</time>
      </trkpt>
      <trkpt lat="22.533217" lon="113.964803">
        <ele>-2.6</ele>
        <time>2023-04-22T16:44:39.603000+0800</time>
      </trkpt>
      <trkpt lat="22.533295" lon="113.964711">
        <ele>-2.4</ele>
        <time>2023-04-22T16:44:42.586000+0800</time>
      </trkpt>
      <trkpt lat="22.533353" lon="113.964608">
        <ele>-2.3</ele>
        <time>2023-04-22T16:44:45.571000+0800</time>
      </trkpt>
      <trkpt lat="22.533401" lon="113.96451">
        <ele>-2.1</ele>
        <time>2023-04-22T16:44:48.584000+0800</time>
      </trkpt>
      <trkpt lat="22.533433" lon="113.964395">
        <ele>-1.9</ele>
        <time>2023-04-22T16:44:51.596000+0800</time>
      </trkpt>
      <trkpt lat="22.533476" lon="113.96428">
        <ele>-1.8</ele>
        <time>2023-04-22T16:44:54.591000+0800</time>
      </trkpt>
      <trkpt lat="22.533525" lon="113.96418">
        <ele>-1.6</ele>
        <time>2023-04-22T16:44:57.607000+0800</time>
      </trkpt>
      <trkpt lat="22.533567" lon="113.964084">
        <ele>-1.5</ele>
        <time>2023-04-22T16:45:00.568000+0800</time>
      </trkpt>
      <trkpt lat="22.533598" lon="113.963991">
        <ele>-1.4</ele>
        <time>2023-04-22T16:45:02.603000+0800</time>
      </trkpt>
      <trkpt lat="22.533631" lon="113.963859">
        <ele>-1.2</ele>
        <time>2023-04-22T16:45:05.607000+0800</time>
      </trkpt>
      <trkpt lat="22.533667" lon="113.96373">
        <ele>-1</ele>
        <time>2023-04-22T16:45:08.603000+0800</time>
      </trkpt>
      <trkpt lat="22.533695" lon="113.963619">
        <ele>-0.9</ele>
        <time>2023-04-22T16:45:11.606000+0800</time>
      </trkpt>
      <trkpt lat="22.533684" lon="113.96351">
        <ele>-0.7</ele>
        <time>2023-04-22T16:45:15.606000+0800</time>
      </trkpt>
      <trkpt lat="22.533668" lon="113.963406">
        <ele>-0.6</ele>
        <time>2023-04-22T16:45:18.584000+0800</time>
      </trkpt>
      <trkpt lat="22.53374" lon="113.963314">
        <ele>-0.4</ele>
        <time>2023-04-22T16:45:22.599000+0800</time>
      </trkpt>
      <trkpt lat="22.533816" lon="113.963238">
        <ele>-0.5</ele>
        <time>2023-04-22T16:45:27.598000+0800</time>
      </trkpt>
      <trkpt lat="22.533775" lon="113.963136">
        <ele>-0.7</ele>
        <time>2023-04-22T16:45:31.602000+0800</time>
      </trkpt>
      <trkpt lat="22.533766" lon="113.963025">
        <ele>-0.9</ele>
        <time>2023-04-22T16:45:34.598000+0800</time>
      </trkpt>
      <trkpt lat="22.533778" lon="113.962921">
        <ele>-1.1</ele>
        <time>2023-04-22T16:45:38.608000+0800</time>
      </trkpt>
      <trkpt lat="22.533848" lon="113.962829">
        <ele>-1.4</ele>
        <time>2023-04-22T16:45:47.616000+0800</time>
      </trkpt>
      <trkpt lat="22.53388" lon="113.962721">
        <ele>-1.6</ele>
        <time>2023-04-22T16:45:54.592000+0800</time>
      </trkpt>
      <trkpt lat="22.533881" lon="113.962607">
        <ele>-1.8</ele>
        <time>2023-04-22T16:45:58.605000+0800</time>
      </trkpt>
      <trkpt lat="22.533896" lon="113.9625">
        <ele>-2.1</ele>
        <time>2023-04-22T16:46:02.599000+0800</time>
      </trkpt>
      <trkpt lat="22.533968" lon="113.96242">
        <ele>-2.3</ele>
        <time>2023-04-22T16:46:07.620000+0800</time>
      </trkpt>
      <trkpt lat="22.534019" lon="113.962331">
        <ele>-2.5</ele>
        <time>2023-04-22T16:46:12.583000+0800</time>
      </trkpt>
      <trkpt lat="22.534014" lon="113.962225">
        <ele>-2.7</ele>
        <time>2023-04-22T16:46:15.586000+0800</time>
      </trkpt>
      <trkpt lat="22.534009" lon="113.962097">
        <ele>-3</ele>
        <time>2023-04-22T16:46:19.596000+0800</time>
      </trkpt>
      <trkpt lat="22.534046" lon="113.962005">
        <ele>-3.2</ele>
        <time>2023-04-22T16:46:26.595000+0800</time>
      </trkpt>
      <trkpt lat="22.534137" lon="113.961967">
        <ele>-3.4</ele>
        <time>2023-04-22T16:46:33.606000+0800</time>
      </trkpt>
      <trkpt lat="22.534216" lon="113.961912">
        <ele>-3.6</ele>
        <time>2023-04-22T16:46:37.616000+0800</time>
      </trkpt>
      <trkpt lat="22.534255" lon="113.96181">
        <ele>-3.8</ele>
        <time>2023-04-22T16:46:40.594000+0800</time>
      </trkpt>
      <trkpt lat="22.534275" lon="113.961708">
        <ele>-4</ele>
        <time>2023-04-22T16:46:43.606000+0800</time>
      </trkpt>
      <trkpt lat="22.53431" lon="113.961612">
        <ele>-4.3</ele>
        <time>2023-04-22T16:46:46.602000+0800</time>
      </trkpt>
      <trkpt lat="22.534345" lon="113.961521">
        <ele>-4.1</ele>
        <time>2023-04-22T16:46:49.591000+0800</time>
      </trkpt>
      <trkpt lat="22.534395" lon="113.961418">
        <ele>-3.8</ele>
        <time>2023-04-22T16:46:52.603000+0800</time>
      </trkpt>
      <trkpt lat="22.53444" lon="113.961318">
        <ele>-3.6</ele>
        <time>2023-04-22T16:46:55.573000+0800</time>
      </trkpt>
      <trkpt lat="22.534471" lon="113.961224">
        <ele>-3.3</ele>
        <time>2023-04-22T16:46:58.603000+0800</time>
      </trkpt>
      <trkpt lat="22.534472" lon="113.961122">
        <ele>-3.1</ele>
        <time>2023-04-22T16:47:02.588000+0800</time>
      </trkpt>
      <trkpt lat="22.534389" lon="113.961074">
        <ele>-2.8</ele>
        <time>2023-04-22T16:47:08.600000+0800</time>
      </trkpt>
      <trkpt lat="22.534429" lon="113.960976">
        <ele>-2.6</ele>
        <time>2023-04-22T16:47:13.602000+0800</time>
      </trkpt>
      <trkpt lat="22.534435" lon="113.960855">
        <ele>-2.3</ele>
        <time>2023-04-22T16:47:18.576000+0800</time>
      </trkpt>
      <trkpt lat="22.534438" lon="113.960744">
        <ele>-2</ele>
        <time>2023-04-22T16:47:22.586000+0800</time>
      </trkpt>
      <trkpt lat="22.53449" lon="113.960637">
        <ele>-1.7</ele>
        <time>2023-04-22T16:47:26.606000+0800</time>
      </trkpt>
      <trkpt lat="22.534544" lon="113.960535">
        <ele>-1.4</ele>
        <time>2023-04-22T16:47:29.611000+0800</time>
      </trkpt>
      <trkpt lat="22.534618" lon="113.960432">
        <ele>-1.1</ele>
        <time>2023-04-22T16:47:32.580000+0800</time>
      </trkpt>
      <trkpt lat="22.534672" lon="113.960318">
        <ele>-0.8</ele>
        <time>2023-04-22T16:47:38.617000+0800</time>
      </trkpt>
      <trkpt lat="22.534691" lon="113.960218">
        <ele>-0.5</ele>
        <time>2023-04-22T16:47:41.669000+0800</time>
      </trkpt>
      <trkpt lat="22.534716" lon="113.960119">
        <ele>-0.3</ele>
        <time>2023-04-22T16:47:45.593000+0800</time>
      </trkpt>
      <trkpt lat="22.534706" lon="113.960218">
        <ele>0</ele>
        <time>2023-04-22T16:48:10.579000+0800</time>
      </trkpt>
      <trkpt lat="22.534661" lon="113.960315">
        <ele>0.2</ele>
        <time>2023-04-22T16:48:47.625000+0800</time>
      </trkpt>
      <trkpt lat="22.534633" lon="113.960409">
        <ele>0.5</ele>
        <time>2023-04-22T16:49:04.663000+0800</time>
      </trkpt>
      <trkpt lat="22.534573" lon="113.960523">
        <ele>0.4</ele>
        <time>2023-04-22T16:49:08.639000+0800</time>
      </trkpt>
      <trkpt lat="22.534508" lon="113.960602">
        <ele>0.4</ele>
        <time>2023-04-22T16:49:12.651000+0800</time>
      </trkpt>
      <trkpt lat="22.534449" lon="113.960681">
        <ele>0.3</ele>
        <time>2023-04-22T16:49:17.658000+0800</time>
      </trkpt>
      <trkpt lat="22.534537" lon="113.960715">
        <ele>0.3</ele>
        <time>2023-04-22T16:49:23.655000+0800</time>
      </trkpt>
      <trkpt lat="22.534635" lon="113.960725">
        <ele>0.2</ele>
        <time>2023-04-22T16:49:33.658000+0800</time>
      </trkpt>
      <trkpt lat="22.534671" lon="113.960625">
        <ele>0.2</ele>
        <time>2023-04-22T16:49:37.644000+0800</time>
      </trkpt>
      <trkpt lat="22.534713" lon="113.960533">
        <ele>0.2</ele>
        <time>2023-04-22T16:49:40.629000+0800</time>
      </trkpt>
      <trkpt lat="22.534746" lon="113.960429">
        <ele>0.1</ele>
        <time>2023-04-22T16:49:43.654000+0800</time>
      </trkpt>
      <trkpt lat="22.53477" lon="113.960311">
        <ele>0.1</ele>
        <time>2023-04-22T16:49:46.655000+0800</time>
      </trkpt>
      <trkpt lat="22.534807" lon="113.960204">
        <ele>0</ele>
        <time>2023-04-22T16:49:49.670000+0800</time>
      </trkpt>
      <trkpt lat="22.53484" lon="113.960105">
        <ele>0</ele>
        <time>2023-04-22T16:49:52.654000+0800</time>
      </trkpt>
      <trkpt lat="22.534866" lon="113.959998">
        <ele>-0.1</ele>
        <time>2023-04-22T16:49:55.669000+0800</time>
      </trkpt>
      <trkpt lat="22.534905" lon="113.959898">
        <ele>-0.1</ele>
        <time>2023-04-22T16:49:58.647000+0800</time>
      </trkpt>
      <trkpt lat="22.534979" lon="113.95982">
        <ele>-0.1</ele>
        <time>2023-04-22T16:50:01.653000+0800</time>
      </trkpt>
      <trkpt lat="22.535071" lon="113.959749">
        <ele>-0.2</ele>
        <time>2023-04-22T16:50:04.637000+0800</time>
      </trkpt>
      <trkpt lat="22.535159" lon="113.959693">
        <ele>-0.2</ele>
        <time>2023-04-22T16:50:07.660000+0800</time>
      </trkpt>
      <trkpt lat="22.535254" lon="113.959636">
        <ele>-0.3</ele>
        <time>2023-04-22T16:50:13.662000+0800</time>
      </trkpt>
      <trkpt lat="22.535355" lon="113.959634">
        <ele>-0.5</ele>
        <time>2023-04-22T16:50:16.658000+0800</time>
      </trkpt>
      <trkpt lat="22.53545" lon="113.959599">
        <ele>-0.9</ele>
        <time>2023-04-22T16:50:20.665000+0800</time>
      </trkpt>
      <trkpt lat="22.535555" lon="113.959559">
        <ele>-1.3</ele>
        <time>2023-04-22T16:50:26.676000+0800</time>
      </trkpt>
      <trkpt lat="22.535682" lon="113.95954">
        <ele>-1.8</ele>
        <time>2023-04-22T16:50:29.673000+0800</time>
      </trkpt>
      <trkpt lat="22.535799" lon="113.959527">
        <ele>-2.2</ele>
        <time>2023-04-22T16:50:32.647000+0800</time>
      </trkpt>
      <trkpt lat="22.535902" lon="113.959512">
        <ele>-2.6</ele>
        <time>2023-04-22T16:50:35.663000+0800</time>
      </trkpt>
      <trkpt lat="22.536024" lon="113.959509">
        <ele>-3.1</ele>
        <time>2023-04-22T16:50:38.645000+0800</time>
      </trkpt>
      <trkpt lat="22.536127" lon="113.959505">
        <ele>-3.4</ele>
        <time>2023-04-22T16:50:41.652000+0800</time>
      </trkpt>
      <trkpt lat="22.536217" lon="113.959494">
        <ele>-3.8</ele>
        <time>2023-04-22T16:50:44.656000+0800</time>
      </trkpt>
      <trkpt lat="22.536312" lon="113.95947">
        <ele>-4.2</ele>
        <time>2023-04-22T16:50:47.659000+0800</time>
      </trkpt>
      <trkpt lat="22.536395" lon="113.959426">
        <ele>-4.5</ele>
        <time>2023-04-22T16:50:50.602000+0800</time>
      </trkpt>
      <trkpt lat="22.536501" lon="113.959422">
        <ele>-4.9</ele>
        <time>2023-04-22T16:50:53.596000+0800</time>
      </trkpt>
      <trkpt lat="22.536633" lon="113.959403">
        <ele>-5.4</ele>
        <time>2023-04-22T16:50:56.604000+0800</time>
      </trkpt>
      <trkpt lat="22.536761" lon="113.959406">
        <ele>-5.9</ele>
        <time>2023-04-22T16:50:59.592000+0800</time>
      </trkpt>
      <trkpt lat="22.536852" lon="113.959409">
        <ele>-6.2</ele>
        <time>2023-04-22T16:51:01.597000+0800</time>
      </trkpt>
      <trkpt lat="22.53695" lon="113.959414">
        <ele>-6.6</ele>
        <time>2023-04-22T16:51:03.596000+0800</time>
      </trkpt>
      <trkpt lat="22.537055" lon="113.959424">
        <ele>-7</ele>
        <time>2023-04-22T16:51:05.627000+0800</time>
      </trkpt>
      <trkpt lat="22.537169" lon="113.959431">
        <ele>-7</ele>
        <time>2023-04-22T16:51:08.613000+0800</time>
      </trkpt>
      <trkpt lat="22.537284" lon="113.959428">
        <ele>-6.9</ele>
        <time>2023-04-22T16:51:11.596000+0800</time>
      </trkpt>
      <trkpt lat="22.537404" lon="113.959409">
        <ele>-6.7</ele>
        <time>2023-04-22T16:51:14.614000+0800</time>
      </trkpt>
      <trkpt lat="22.537538" lon="113.959401">
        <ele>-6.6</ele>
        <time>2023-04-22T16:51:17.627000+0800</time>
      </trkpt>
      <trkpt lat="22.537628" lon="113.959388">
        <ele>-6.5</ele>
        <time>2023-04-22T16:51:19.636000+0800</time>
      </trkpt>
      <trkpt lat="22.537759" lon="113.959385">
        <ele>-6.4</ele>
        <time>2023-04-22T16:51:22.621000+0800</time>
      </trkpt>
      <trkpt lat="22.537883" lon="113.959388">
        <ele>-6.3</ele>
        <time>2023-04-22T16:51:25.613000+0800</time>
      </trkpt>
      <trkpt lat="22.538009" lon="113.959376">
        <ele>-6.2</ele>
        <time>2023-04-22T16:51:28.608000+0800</time>
      </trkpt>
      <trkpt lat="22.538122" lon="113.959364">
        <ele>-6.1</ele>
        <time>2023-04-22T16:51:31.614000+0800</time>
      </trkpt>
      <trkpt lat="22.538227" lon="113.959378">
        <ele>-6</ele>
        <time>2023-04-22T16:51:34.601000+0800</time>
      </trkpt>
      <trkpt lat="22.538338" lon="113.959385">
        <ele>-5.9</ele>
        <time>2023-04-22T16:51:37.608000+0800</time>
      </trkpt>
      <trkpt lat="22.538463" lon="113.959354">
        <ele>-5.8</ele>
        <time>2023-04-22T16:51:40.583000+0800</time>
      </trkpt>
      <trkpt lat="22.538572" lon="113.959361">
        <ele>-5.7</ele>
        <time>2023-04-22T16:51:44.567000+0800</time>
      </trkpt>
      <trkpt lat="22.538667" lon="113.959371">
        <ele>-5.6</ele>
        <time>2023-04-22T16:51:48.600000+0800</time>
      </trkpt>
      <trkpt lat="22.538768" lon="113.959398">
        <ele>-5.5</ele>
        <time>2023-04-22T16:51:52.612000+0800</time>
      </trkpt>
      <trkpt lat="22.538881" lon="113.959391">
        <ele>-5.3</ele>
        <time>2023-04-22T16:51:57.572000+0800</time>
      </trkpt>
      <trkpt lat="22.538984" lon="113.959388">
        <ele>-5.2</ele>
        <time>2023-04-22T16:52:00.574000+0800</time>
      </trkpt>
      <trkpt lat="22.539101" lon="113.959408">
        <ele>-4.9</ele>
        <time>2023-04-22T16:52:03.613000+0800</time>
      </trkpt>
      <trkpt lat="22.539194" lon="113.959425">
        <ele>-4.8</ele>
        <time>2023-04-22T16:52:06.620000+0800</time>
      </trkpt>
      <trkpt lat="22.53931" lon="113.959452">
        <ele>-4.5</ele>
        <time>2023-04-22T16:52:09.612000+0800</time>
      </trkpt>
      <trkpt lat="22.539431" lon="113.959481">
        <ele>-4.3</ele>
        <time>2023-04-22T16:52:12.593000+0800</time>
      </trkpt>
      <trkpt lat="22.539555" lon="113.959508">
        <ele>-4.1</ele>
        <time>2023-04-22T16:52:15.598000+0800</time>
      </trkpt>
      <trkpt lat="22.539677" lon="113.959521">
        <ele>-3.9</ele>
        <time>2023-04-22T16:52:18.583000+0800</time>
      </trkpt>
      <trkpt lat="22.539788" lon="113.95954">
        <ele>-3.7</ele>
        <time>2023-04-22T16:52:21.620000+0800</time>
      </trkpt>
      <trkpt lat="22.539908" lon="113.95955">
        <ele>-3.4</ele>
        <time>2023-04-22T16:52:24.609000+0800</time>
      </trkpt>
      <trkpt lat="22.540027" lon="113.959579">
        <ele>-3.2</ele>
        <time>2023-04-22T16:52:27.596000+0800</time>
      </trkpt>
      <trkpt lat="22.540125" lon="113.95959">
        <ele>-3</ele>
        <time>2023-04-22T16:52:30.596000+0800</time>
      </trkpt>
      <trkpt lat="22.540244" lon="113.959594">
        <ele>-2.8</ele>
        <time>2023-04-22T16:52:34.574000+0800</time>
      </trkpt>
      <trkpt lat="22.540359" lon="113.959592">
        <ele>-2.6</ele>
        <time>2023-04-22T16:52:37.610000+0800</time>
      </trkpt>
      <trkpt lat="22.540472" lon="113.959609">
        <ele>-2.4</ele>
        <time>2023-04-22T16:52:40.619000+0800</time>
      </trkpt>
      <trkpt lat="22.540561" lon="113.959626">
        <ele>-2.2</ele>
        <time>2023-04-22T16:52:42.602000+0800</time>
      </trkpt>
      <trkpt lat="22.540672" lon="113.959659">
        <ele>-2.1</ele>
        <time>2023-04-22T16:52:45.604000+0800</time>
      </trkpt>
      <trkpt lat="22.540781" lon="113.959682">
        <ele>-2.3</ele>
        <time>2023-04-22T16:52:48.596000+0800</time>
      </trkpt>
      <trkpt lat="22.540883" lon="113.959717">
        <ele>-2.4</ele>
        <time>2023-04-22T16:52:51.596000+0800</time>
      </trkpt>
      <trkpt lat="22.540985" lon="113.959739">
        <ele>-2.5</ele>
        <time>2023-04-22T16:52:54.594000+0800</time>
      </trkpt>
      <trkpt lat="22.541077" lon="113.959727">
        <ele>-2.7</ele>
        <time>2023-04-22T16:52:58.579000+0800</time>
      </trkpt>
      <trkpt lat="22.541169" lon="113.959736">
        <ele>-2.8</ele>
        <time>2023-04-22T16:53:03.613000+0800</time>
      </trkpt>
      <trkpt lat="22.541266" lon="113.959764">
        <ele>-2.9</ele>
        <time>2023-04-22T16:53:06.593000+0800</time>
      </trkpt>
      <trkpt lat="22.54139" lon="113.959799">
        <ele>-3.1</ele>
        <time>2023-04-22T16:53:09.596000+0800</time>
      </trkpt>
      <trkpt lat="22.541513" lon="113.959822">
        <ele>-3.3</ele>
        <time>2023-04-22T16:53:12.618000+0800</time>
      </trkpt>
      <trkpt lat="22.54163" lon="113.959841">
        <ele>-3.4</ele>
        <time>2023-04-22T16:53:15.599000+0800</time>
      </trkpt>
      <trkpt lat="22.541729" lon="113.959844">
        <ele>-3.5</ele>
        <time>2023-04-22T16:53:17.606000+0800</time>
      </trkpt>
      <trkpt lat="22.541842" lon="113.959851">
        <ele>-3.7</ele>
        <time>2023-04-22T16:53:20.603000+0800</time>
      </trkpt>
      <trkpt lat="22.541938" lon="113.959866">
        <ele>-3.8</ele>
        <time>2023-04-22T16:53:23.612000+0800</time>
      </trkpt>
      <trkpt lat="22.542031" lon="113.959882">
        <ele>-3.9</ele>
        <time>2023-04-22T16:53:26.600000+0800</time>
      </trkpt>
      <trkpt lat="22.542134" lon="113.959881">
        <ele>-4.1</ele>
        <time>2023-04-22T16:53:29.629000+0800</time>
      </trkpt>
      <trkpt lat="22.54223" lon="113.959905">
        <ele>-4.2</ele>
        <time>2023-04-22T16:53:34.587000+0800</time>
      </trkpt>
      <trkpt lat="22.542354" lon="113.95992">
        <ele>-4.4</ele>
        <time>2023-04-22T16:53:38.620000+0800</time>
      </trkpt>
      <trkpt lat="22.542463" lon="113.959912">
        <ele>-4.5</ele>
        <time>2023-04-22T16:53:41.609000+0800</time>
      </trkpt>
      <trkpt lat="22.542571" lon="113.959942">
        <ele>-4.7</ele>
        <time>2023-04-22T16:53:45.578000+0800</time>
      </trkpt>
      <trkpt lat="22.542673" lon="113.959967">
        <ele>-4.8</ele>
        <time>2023-04-22T16:53:50.584000+0800</time>
      </trkpt>
      <trkpt lat="22.542765" lon="113.959983">
        <ele>-4.9</ele>
        <time>2023-04-22T16:53:54.608000+0800</time>
      </trkpt>
      <trkpt lat="22.542877" lon="113.959987">
        <ele>-5.1</ele>
        <time>2023-04-22T16:53:58.606000+0800</time>
      </trkpt>
      <trkpt lat="22.542972" lon="113.95998">
        <ele>-5.2</ele>
        <time>2023-04-22T16:54:04.602000+0800</time>
      </trkpt>
      <trkpt lat="22.543049" lon="113.959923">
        <ele>-5.4</ele>
        <time>2023-04-22T16:54:09.602000+0800</time>
      </trkpt>
      <trkpt lat="22.543245" lon="113.959982">
        <ele>-5.6</ele>
        <time>2023-04-22T16:54:55.621000+0800</time>
      </trkpt>
      <trkpt lat="22.543333" lon="113.960005">
        <ele>-5.8</ele>
        <time>2023-04-22T16:54:58.621000+0800</time>
      </trkpt>
      <trkpt lat="22.543446" lon="113.960014">
        <ele>-5.9</ele>
        <time>2023-04-22T16:55:01.634000+0800</time>
      </trkpt>
      <trkpt lat="22.543526" lon="113.960069">
        <ele>-6.1</ele>
        <time>2023-04-22T16:55:06.611000+0800</time>
      </trkpt>
      <trkpt lat="22.543598" lon="113.960129">
        <ele>-6.2</ele>
        <time>2023-04-22T16:55:09.616000+0800</time>
      </trkpt>
      <trkpt lat="22.543691" lon="113.96013">
        <ele>-6.3</ele>
        <time>2023-04-22T16:55:12.620000+0800</time>
      </trkpt>
      <trkpt lat="22.543797" lon="113.960151">
        <ele>-6.5</ele>
        <time>2023-04-22T16:55:15.609000+0800</time>
      </trkpt>
      <trkpt lat="22.54391" lon="113.960165">
        <ele>-6.6</ele>
        <time>2023-04-22T16:55:18.603000+0800</time>
      </trkpt>
      <trkpt lat="22.544019" lon="113.960187">
        <ele>-6.8</ele>
        <time>2023-04-22T16:55:21.615000+0800</time>
      </trkpt>
      <trkpt lat="22.544127" lon="113.960214">
        <ele>-6.9</ele>
        <time>2023-04-22T16:55:24.606000+0800</time>
      </trkpt>
      <trkpt lat="22.544223" lon="113.960235">
        <ele>-6.7</ele>
        <time>2023-04-22T16:55:28.603000+0800</time>
      </trkpt>
      <trkpt lat="22.544323" lon="113.960239">
        <ele>-6.5</ele>
        <time>2023-04-22T16:55:32.610000+0800</time>
      </trkpt>
      <trkpt lat="22.544422" lon="113.960246">
        <ele>-6.3</ele>
        <time>2023-04-22T16:55:35.618000+0800</time>
      </trkpt>
      <trkpt lat="22.544526" lon="113.960268">
        <ele>-6</ele>
        <time>2023-04-22T16:55:38.611000+0800</time>
      </trkpt>
      <trkpt lat="22.544651" lon="113.960274">
        <ele>-5.8</ele>
        <time>2023-04-22T16:55:41.611000+0800</time>
      </trkpt>
      <trkpt lat="22.544771" lon="113.960284">
        <ele>-5.5</ele>
        <time>2023-04-22T16:55:44.614000+0800</time>
      </trkpt>
      <trkpt lat="22.544882" lon="113.9603">
        <ele>-5.2</ele>
        <time>2023-04-22T16:55:46.609000+0800</time>
      </trkpt>
      <trkpt lat="22.544988" lon="113.960325">
        <ele>-5</ele>
        <time>2023-04-22T16:55:48.628000+0800</time>
      </trkpt>
      <trkpt lat="22.545086" lon="113.960343">
        <ele>-4.8</ele>
        <time>2023-04-22T16:55:50.617000+0800</time>
      </trkpt>
      <trkpt lat="22.545222" lon="113.960353">
        <ele>-4.5</ele>
        <time>2023-04-22T16:55:53.621000+0800</time>
      </trkpt>
      <trkpt lat="22.545331" lon="113.960381">
        <ele>-4.2</ele>
        <time>2023-04-22T16:55:55.608000+0800</time>
      </trkpt>
      <trkpt lat="22.545434" lon="113.9604">
        <ele>-4</ele>
        <time>2023-04-22T16:55:57.586000+0800</time>
      </trkpt>
      <trkpt lat="22.545531" lon="113.960411">
        <ele>-3.8</ele>
        <time>2023-04-22T16:55:59.614000+0800</time>
      </trkpt>
      <trkpt lat="22.545633" lon="113.960439">
        <ele>-3.5</ele>
        <time>2023-04-22T16:56:01.591000+0800</time>
      </trkpt>
      <trkpt lat="22.545761" lon="113.960461">
        <ele>-3.2</ele>
        <time>2023-04-22T16:56:04.605000+0800</time>
      </trkpt>
      <trkpt lat="22.545891" lon="113.960481">
        <ele>-2.9</ele>
        <time>2023-04-22T16:56:07.631000+0800</time>
      </trkpt>
      <trkpt lat="22.545982" lon="113.960503">
        <ele>-3</ele>
        <time>2023-04-22T16:56:09.620000+0800</time>
      </trkpt>
      <trkpt lat="22.546113" lon="113.960508">
        <ele>-3.2</ele>
        <time>2023-04-22T16:56:12.613000+0800</time>
      </trkpt>
      <trkpt lat="22.546244" lon="113.96053">
        <ele>-3.4</ele>
        <time>2023-04-22T16:56:15.617000+0800</time>
      </trkpt>
      <trkpt lat="22.546367" lon="113.960545">
        <ele>-3.6</ele>
        <time>2023-04-22T16:56:18.579000+0800</time>
      </trkpt>
      <trkpt lat="22.546476" lon="113.960548">
        <ele>-3.8</ele>
        <time>2023-04-22T16:56:21.569000+0800</time>
      </trkpt>
      <trkpt lat="22.546567" lon="113.96058">
        <ele>-4</ele>
        <time>2023-04-22T16:56:23.617000+0800</time>
      </trkpt>
      <trkpt lat="22.546674" lon="113.960602">
        <ele>-4.2</ele>
        <time>2023-04-22T16:56:26.624000+0800</time>
      </trkpt>
      <trkpt lat="22.546797" lon="113.960613">
        <ele>-4.4</ele>
        <time>2023-04-22T16:56:30.624000+0800</time>
      </trkpt>
      <trkpt lat="22.546917" lon="113.96064">
        <ele>-4.6</ele>
        <time>2023-04-22T16:56:33.568000+0800</time>
      </trkpt>
      <trkpt lat="22.547029" lon="113.960648">
        <ele>-4.7</ele>
        <time>2023-04-22T16:56:36.584000+0800</time>
      </trkpt>
      <trkpt lat="22.547126" lon="113.960664">
        <ele>-4.9</ele>
        <time>2023-04-22T16:56:40.623000+0800</time>
      </trkpt>
      <trkpt lat="22.547234" lon="113.960671">
        <ele>-5.1</ele>
        <time>2023-04-22T16:56:44.608000+0800</time>
      </trkpt>
      <trkpt lat="22.547334" lon="113.960683">
        <ele>-5.2</ele>
        <time>2023-04-22T16:56:48.570000+0800</time>
      </trkpt>
      <trkpt lat="22.547443" lon="113.960693">
        <ele>-5.4</ele>
        <time>2023-04-22T16:56:51.572000+0800</time>
      </trkpt>
      <trkpt lat="22.547571" lon="113.960713">
        <ele>-5.6</ele>
        <time>2023-04-22T16:56:54.616000+0800</time>
      </trkpt>
      <trkpt lat="22.547685" lon="113.960733">
        <ele>-5.8</ele>
        <time>2023-04-22T16:56:57.626000+0800</time>
      </trkpt>
      <trkpt lat="22.547785" lon="113.960743">
        <ele>-6</ele>
        <time>2023-04-22T16:57:02.615000+0800</time>
      </trkpt>
      <trkpt lat="22.547902" lon="113.960775">
        <ele>-6.3</ele>
        <time>2023-04-22T16:57:07.626000+0800</time>
      </trkpt>
      <trkpt lat="22.547999" lon="113.960797">
        <ele>-6.5</ele>
        <time>2023-04-22T16:57:11.616000+0800</time>
      </trkpt>
      <trkpt lat="22.548101" lon="113.96083">
        <ele>-6.7</ele>
        <time>2023-04-22T16:57:15.623000+0800</time>
      </trkpt>
      <trkpt lat="22.548191" lon="113.960847">
        <ele>-6.8</ele>
        <time>2023-04-22T16:57:18.611000+0800</time>
      </trkpt>
      <trkpt lat="22.548294" lon="113.960843">
        <ele>-7</ele>
        <time>2023-04-22T16:57:22.627000+0800</time>
      </trkpt>
      <trkpt lat="22.548417" lon="113.960862">
        <ele>-7.3</ele>
        <time>2023-04-22T16:57:26.632000+0800</time>
      </trkpt>
      <trkpt lat="22.548507" lon="113.960875">
        <ele>-7.5</ele>
        <time>2023-04-22T16:57:28.634000+0800</time>
      </trkpt>
      <trkpt lat="22.548607" lon="113.960882">
        <ele>-7.7</ele>
        <time>2023-04-22T16:57:34.628000+0800</time>
      </trkpt>
      <trkpt lat="22.548721" lon="113.960912">
        <ele>-7.9</ele>
        <time>2023-04-22T16:57:37.603000+0800</time>
      </trkpt>
      <trkpt lat="22.548851" lon="113.960938">
        <ele>-8.2</ele>
        <time>2023-04-22T16:57:40.610000+0800</time>
      </trkpt>
      <trkpt lat="22.548959" lon="113.960967">
        <ele>-8.4</ele>
        <time>2023-04-22T16:57:43.581000+0800</time>
      </trkpt>
      <trkpt lat="22.549059" lon="113.960985">
        <ele>-8.6</ele>
        <time>2023-04-22T16:57:46.625000+0800</time>
      </trkpt>
      <trkpt lat="22.549166" lon="113.961002">
        <ele>-8.8</ele>
        <time>2023-04-22T16:57:49.604000+0800</time>
      </trkpt>
      <trkpt lat="22.549283" lon="113.961011">
        <ele>-9</ele>
        <time>2023-04-22T16:57:52.628000+0800</time>
      </trkpt>
      <trkpt lat="22.549406" lon="113.961017">
        <ele>-9.3</ele>
        <time>2023-04-22T16:57:55.638000+0800</time>
      </trkpt>
      <trkpt lat="22.549519" lon="113.961044">
        <ele>-9.2</ele>
        <time>2023-04-22T16:57:58.566000+0800</time>
      </trkpt>
      <trkpt lat="22.549627" lon="113.961048">
        <ele>-8.9</ele>
        <time>2023-04-22T16:58:02.587000+0800</time>
      </trkpt>
      <trkpt lat="22.549724" lon="113.961049">
        <ele>-8.6</ele>
        <time>2023-04-22T16:58:06.618000+0800</time>
      </trkpt>
      <trkpt lat="22.549816" lon="113.961076">
        <ele>-8.4</ele>
        <time>2023-04-22T16:58:11.631000+0800</time>
      </trkpt>
      <trkpt lat="22.54991" lon="113.961094">
        <ele>-8.1</ele>
        <time>2023-04-22T16:58:16.577000+0800</time>
      </trkpt>
      <trkpt lat="22.55001" lon="113.96112">
        <ele>-7.8</ele>
        <time>2023-04-22T16:58:20.618000+0800</time>
      </trkpt>
      <trkpt lat="22.550121" lon="113.961159">
        <ele>-7.4</ele>
        <time>2023-04-22T16:58:24.604000+0800</time>
      </trkpt>
      <trkpt lat="22.550207" lon="113.961195">
        <ele>-7.2</ele>
        <time>2023-04-22T16:58:27.624000+0800</time>
      </trkpt>
      <trkpt lat="22.550323" lon="113.961216">
        <ele>-6.8</ele>
        <time>2023-04-22T16:58:31.629000+0800</time>
      </trkpt>
      <trkpt lat="22.550444" lon="113.961222">
        <ele>-6.5</ele>
        <time>2023-04-22T16:58:34.575000+0800</time>
      </trkpt>
      <trkpt lat="22.550575" lon="113.96123">
        <ele>-6.1</ele>
        <time>2023-04-22T16:58:37.570000+0800</time>
      </trkpt>
      <trkpt lat="22.550699" lon="113.961217">
        <ele>-5.8</ele>
        <time>2023-04-22T16:58:40.544000+0800</time>
      </trkpt>
      <trkpt lat="22.550814" lon="113.961238">
        <ele>-5.4</ele>
        <time>2023-04-22T16:58:43.586000+0800</time>
      </trkpt>
      <trkpt lat="22.550934" lon="113.961267">
        <ele>-5.1</ele>
        <time>2023-04-22T16:58:46.585000+0800</time>
      </trkpt>
      <trkpt lat="22.551036" lon="113.961281">
        <ele>-4.8</ele>
        <time>2023-04-22T16:58:49.562000+0800</time>
      </trkpt>
      <trkpt lat="22.551145" lon="113.961298">
        <ele>-4.5</ele>
        <time>2023-04-22T16:58:52.601000+0800</time>
      </trkpt>
      <trkpt lat="22.551237" lon="113.961311">
        <ele>-4.2</ele>
        <time>2023-04-22T16:58:55.629000+0800</time>
      </trkpt>
      <trkpt lat="22.551341" lon="113.961316">
        <ele>-4.1</ele>
        <time>2023-04-22T16:58:58.615000+0800</time>
      </trkpt>
      <trkpt lat="22.551455" lon="113.961341">
        <ele>-4</ele>
        <time>2023-04-22T16:59:01.608000+0800</time>
      </trkpt>
      <trkpt lat="22.551576" lon="113.961357">
        <ele>-3.9</ele>
        <time>2023-04-22T16:59:04.581000+0800</time>
      </trkpt>
      <trkpt lat="22.551697" lon="113.961366">
        <ele>-3.8</ele>
        <time>2023-04-22T16:59:07.579000+0800</time>
      </trkpt>
      <trkpt lat="22.551808" lon="113.961384">
        <ele>-3.8</ele>
        <time>2023-04-22T16:59:10.633000+0800</time>
      </trkpt>
      <trkpt lat="22.551919" lon="113.96139">
        <ele>-3.7</ele>
        <time>2023-04-22T16:59:13.615000+0800</time>
      </trkpt>
      <trkpt lat="22.552008" lon="113.961428">
        <ele>-3.6</ele>
        <time>2023-04-22T16:59:16.609000+0800</time>
      </trkpt>
      <trkpt lat="22.552111" lon="113.961455">
        <ele>-3.5</ele>
        <time>2023-04-22T16:59:19.655000+0800</time>
      </trkpt>
      <trkpt lat="22.552221" lon="113.961451">
        <ele>-3.4</ele>
        <time>2023-04-22T16:59:22.615000+0800</time>
      </trkpt>
      <trkpt lat="22.552322" lon="113.961451">
        <ele>-3.3</ele>
        <time>2023-04-22T16:59:25.630000+0800</time>
      </trkpt>
      <trkpt lat="22.552426" lon="113.961475">
        <ele>-3.2</ele>
        <time>2023-04-22T16:59:28.595000+0800</time>
      </trkpt>
      <trkpt lat="22.552514" lon="113.961509">
        <ele>-3.2</ele>
        <time>2023-04-22T16:59:31.544000+0800</time>
      </trkpt>
      <trkpt lat="22.552608" lon="113.961467">
        <ele>-3.1</ele>
        <time>2023-04-22T16:59:35.635000+0800</time>
      </trkpt>
      <trkpt lat="22.552813" lon="113.961435">
        <ele>-2.9</ele>
        <time>2023-04-22T17:00:17.644000+0800</time>
      </trkpt>
      <trkpt lat="22.552908" lon="113.961475">
        <ele>-2.8</ele>
        <time>2023-04-22T17:00:21.569000+0800</time>
      </trkpt>
      <trkpt lat="22.553017" lon="113.961481">
        <ele>-2.7</ele>
        <time>2023-04-22T17:00:26.567000+0800</time>
      </trkpt>
      <trkpt lat="22.553121" lon="113.961507">
        <ele>-2.4</ele>
        <time>2023-04-22T17:00:29.584000+0800</time>
      </trkpt>
      <trkpt lat="22.553213" lon="113.961532">
        <ele>-2.2</ele>
        <time>2023-04-22T17:00:32.579000+0800</time>
      </trkpt>
      <trkpt lat="22.553325" lon="113.961546">
        <ele>-1.9</ele>
        <time>2023-04-22T17:00:36.597000+0800</time>
      </trkpt>
      <trkpt lat="22.55344" lon="113.961558">
        <ele>-1.7</ele>
        <time>2023-04-22T17:00:40.627000+0800</time>
      </trkpt>
      <trkpt lat="22.553564" lon="113.961561">
        <ele>-1.4</ele>
        <time>2023-04-22T17:00:44.606000+0800</time>
      </trkpt>
      <trkpt lat="22.55366" lon="113.961569">
        <ele>-1.1</ele>
        <time>2023-04-22T17:00:47.615000+0800</time>
      </trkpt>
      <trkpt lat="22.553747" lon="113.961592">
        <ele>-0.9</ele>
        <time>2023-04-22T17:00:50.620000+0800</time>
      </trkpt>
      <trkpt lat="22.553838" lon="113.961615">
        <ele>-0.7</ele>
        <time>2023-04-22T17:00:53.617000+0800</time>
      </trkpt>
      <trkpt lat="22.553954" lon="113.961614">
        <ele>-0.4</ele>
        <time>2023-04-22T17:00:57.600000+0800</time>
      </trkpt>
      <trkpt lat="22.55405" lon="113.961642">
        <ele>-0.2</ele>
        <time>2023-04-22T17:01:02.604000+0800</time>
      </trkpt>
      <trkpt lat="22.554145" lon="113.961621">
        <ele>0.1</ele>
        <time>2023-04-22T17:01:09.619000+0800</time>
      </trkpt>
      <trkpt lat="22.554236" lon="113.961616">
        <ele>0.3</ele>
        <time>2023-04-22T17:01:12.590000+0800</time>
      </trkpt>
      <trkpt lat="22.554337" lon="113.961646">
        <ele>0.5</ele>
        <time>2023-04-22T17:01:15.598000+0800</time>
      </trkpt>
      <trkpt lat="22.554449" lon="113.961659">
        <ele>0.8</ele>
        <time>2023-04-22T17:01:18.629000+0800</time>
      </trkpt>
      <trkpt lat="22.554563" lon="113.961672">
        <ele>1.1</ele>
        <time>2023-04-22T17:01:21.606000+0800</time>
      </trkpt>
      <trkpt lat="22.554675" lon="113.961695">
        <ele>1.4</ele>
        <time>2023-04-22T17:01:24.621000+0800</time>
      </trkpt>
      <trkpt lat="22.554792" lon="113.961708">
        <ele>1.6</ele>
        <time>2023-04-22T17:01:28.632000+0800</time>
      </trkpt>
      <trkpt lat="22.554887" lon="113.961748">
        <ele>1.7</ele>
        <time>2023-04-22T17:01:31.621000+0800</time>
      </trkpt>
      <trkpt lat="22.554946" lon="113.961826">
        <ele>1.8</ele>
        <time>2023-04-22T17:01:35.617000+0800</time>
      </trkpt>
      <trkpt lat="22.555038" lon="113.961881">
        <ele>1.9</ele>
        <time>2023-04-22T17:01:39.610000+0800</time>
      </trkpt>
      <trkpt lat="22.555116" lon="113.961967">
        <ele>2</ele>
        <time>2023-04-22T17:01:43.619000+0800</time>
      </trkpt>
      <trkpt lat="22.555181" lon="113.962036">
        <ele>2.1</ele>
        <time>2023-04-22T17:01:46.631000+0800</time>
      </trkpt>
      <trkpt lat="22.555248" lon="113.962114">
        <ele>2.2</ele>
        <time>2023-04-22T17:01:49.633000+0800</time>
      </trkpt>
      <trkpt lat="22.555321" lon="113.962196">
        <ele>2.3</ele>
        <time>2023-04-22T17:01:52.620000+0800</time>
      </trkpt>
      <trkpt lat="22.555406" lon="113.962273">
        <ele>2.4</ele>
        <time>2023-04-22T17:01:55.623000+0800</time>
      </trkpt>
      <trkpt lat="22.555476" lon="113.962365">
        <ele>2.5</ele>
        <time>2023-04-22T17:01:58.611000+0800</time>
      </trkpt>
      <trkpt lat="22.555539" lon="113.962436">
        <ele>2.6</ele>
        <time>2023-04-22T17:02:00.556000+0800</time>
      </trkpt>
      <trkpt lat="22.555626" lon="113.962539">
        <ele>2.7</ele>
        <time>2023-04-22T17:02:03.570000+0800</time>
      </trkpt>
      <trkpt lat="22.555709" lon="113.962635">
        <ele>2.9</ele>
        <time>2023-04-22T17:02:06.571000+0800</time>
      </trkpt>
      <trkpt lat="22.555772" lon="113.962715">
        <ele>3</ele>
        <time>2023-04-22T17:02:08.618000+0800</time>
      </trkpt>
      <trkpt lat="22.555864" lon="113.962829">
        <ele>3.1</ele>
        <time>2023-04-22T17:02:11.615000+0800</time>
      </trkpt>
      <trkpt lat="22.555933" lon="113.962909">
        <ele>3.2</ele>
        <time>2023-04-22T17:02:13.632000+0800</time>
      </trkpt>
      <trkpt lat="22.556009" lon="113.962987">
        <ele>3.3</ele>
        <time>2023-04-22T17:02:15.579000+0800</time>
      </trkpt>
      <trkpt lat="22.556094" lon="113.963085">
        <ele>3.3</ele>
        <time>2023-04-22T17:02:17.613000+0800</time>
      </trkpt>
      <trkpt lat="22.556181" lon="113.963181">
        <ele>3.2</ele>
        <time>2023-04-22T17:02:19.627000+0800</time>
      </trkpt>
      <trkpt lat="22.556268" lon="113.963276">
        <ele>3</ele>
        <time>2023-04-22T17:02:21.579000+0800</time>
      </trkpt>
      <trkpt lat="22.556344" lon="113.963361">
        <ele>2.9</ele>
        <time>2023-04-22T17:02:23.598000+0800</time>
      </trkpt>
      <trkpt lat="22.556426" lon="113.963434">
        <ele>2.8</ele>
        <time>2023-04-22T17:02:25.621000+0800</time>
      </trkpt>
      <trkpt lat="22.556496" lon="113.963525">
        <ele>2.7</ele>
        <time>2023-04-22T17:02:27.579000+0800</time>
      </trkpt>
      <trkpt lat="22.556547" lon="113.963622">
        <ele>2.6</ele>
        <time>2023-04-22T17:02:29.628000+0800</time>
      </trkpt>
      <trkpt lat="22.556585" lon="113.963733">
        <ele>2.5</ele>
        <time>2023-04-22T17:02:31.635000+0800</time>
      </trkpt>
      <trkpt lat="22.556603" lon="113.96386">
        <ele>2.3</ele>
        <time>2023-04-22T17:02:34.647000+0800</time>
      </trkpt>
      <trkpt lat="22.556632" lon="113.963988">
        <ele>2.2</ele>
        <time>2023-04-22T17:02:37.636000+0800</time>
      </trkpt>
      <trkpt lat="22.556668" lon="113.964108">
        <ele>2.1</ele>
        <time>2023-04-22T17:02:40.587000+0800</time>
      </trkpt>
      <trkpt lat="22.556679" lon="113.964231">
        <ele>2</ele>
        <time>2023-04-22T17:02:43.610000+0800</time>
      </trkpt>
      <trkpt lat="22.556697" lon="113.964329">
        <ele>1.9</ele>
        <time>2023-04-22T17:02:45.585000+0800</time>
      </trkpt>
      <trkpt lat="22.556712" lon="113.964446">
        <ele>1.8</ele>
        <time>2023-04-22T17:02:48.601000+0800</time>
      </trkpt>
      <trkpt lat="22.556723" lon="113.964545">
        <ele>1.7</ele>
        <time>2023-04-22T17:02:51.588000+0800</time>
      </trkpt>
      <trkpt lat="22.55675" lon="113.964674">
        <ele>1.5</ele>
        <time>2023-04-22T17:02:54.619000+0800</time>
      </trkpt>
      <trkpt lat="22.556786" lon="113.964799">
        <ele>1.6</ele>
        <time>2023-04-22T17:02:57.632000+0800</time>
      </trkpt>
      <trkpt lat="22.556809" lon="113.964935">
        <ele>1.9</ele>
        <time>2023-04-22T17:03:00.618000+0800</time>
      </trkpt>
      <trkpt lat="22.55683" lon="113.965063">
        <ele>2.1</ele>
        <time>2023-04-22T17:03:03.622000+0800</time>
      </trkpt>
      <trkpt lat="22.556847" lon="113.96517">
        <ele>2.4</ele>
        <time>2023-04-22T17:03:06.638000+0800</time>
      </trkpt>
      <trkpt lat="22.55687" lon="113.965278">
        <ele>2.6</ele>
        <time>2023-04-22T17:03:10.626000+0800</time>
      </trkpt>
      <trkpt lat="22.556869" lon="113.965384">
        <ele>2.8</ele>
        <time>2023-04-22T17:03:15.626000+0800</time>
      </trkpt>
      <trkpt lat="22.556876" lon="113.965498">
        <ele>3</ele>
        <time>2023-04-22T17:03:19.624000+0800</time>
      </trkpt>
      <trkpt lat="22.556903" lon="113.965623">
        <ele>3.2</ele>
        <time>2023-04-22T17:03:23.623000+0800</time>
      </trkpt>
      <trkpt lat="22.556935" lon="113.965739">
        <ele>3.5</ele>
        <time>2023-04-22T17:03:26.620000+0800</time>
      </trkpt>
      <trkpt lat="22.556945" lon="113.965849">
        <ele>3.7</ele>
        <time>2023-04-22T17:03:29.626000+0800</time>
      </trkpt>
      <trkpt lat="22.556974" lon="113.965976">
        <ele>3.9</ele>
        <time>2023-04-22T17:03:32.607000+0800</time>
      </trkpt>
      <trkpt lat="22.556989" lon="113.966072">
        <ele>4.1</ele>
        <time>2023-04-22T17:03:34.619000+0800</time>
      </trkpt>
      <trkpt lat="22.557016" lon="113.966217">
        <ele>4.4</ele>
        <time>2023-04-22T17:03:37.585000+0800</time>
      </trkpt>
      <trkpt lat="22.557043" lon="113.96635">
        <ele>4.7</ele>
        <time>2023-04-22T17:03:40.591000+0800</time>
      </trkpt>
      <trkpt lat="22.557086" lon="113.966461">
        <ele>4.9</ele>
        <time>2023-04-22T17:03:43.583000+0800</time>
      </trkpt>
      <trkpt lat="22.557097" lon="113.9666">
        <ele>5.2</ele>
        <time>2023-04-22T17:03:47.624000+0800</time>
      </trkpt>
      <trkpt lat="22.557147" lon="113.966716">
        <ele>5</ele>
        <time>2023-04-22T17:03:51.625000+0800</time>
      </trkpt>
      <trkpt lat="22.557145" lon="113.966821">
        <ele>4.7</ele>
        <time>2023-04-22T17:03:54.623000+0800</time>
      </trkpt>
      <trkpt lat="22.557153" lon="113.966938">
        <ele>4.4</ele>
        <time>2023-04-22T17:03:57.627000+0800</time>
      </trkpt>
      <trkpt lat="22.557152" lon="113.967079">
        <ele>3.9</ele>
        <time>2023-04-22T17:04:00.612000+0800</time>
      </trkpt>
      <trkpt lat="22.557144" lon="113.967204">
        <ele>3.6</ele>
        <time>2023-04-22T17:04:03.617000+0800</time>
      </trkpt>
      <trkpt lat="22.557135" lon="113.967336">
        <ele>3.2</ele>
        <time>2023-04-22T17:04:06.633000+0800</time>
      </trkpt>
      <trkpt lat="22.557123" lon="113.967469">
        <ele>2.8</ele>
        <time>2023-04-22T17:04:09.560000+0800</time>
      </trkpt>
      <trkpt lat="22.557151" lon="113.967585">
        <ele>2.4</ele>
        <time>2023-04-22T17:04:12.616000+0800</time>
      </trkpt>
      <trkpt lat="22.557153" lon="113.967487">
        <ele>2.1</ele>
        <time>2023-04-22T17:04:36.603000+0800</time>
      </trkpt>
      <trkpt lat="22.557124" lon="113.967394">
        <ele>1.8</ele>
        <time>2023-04-22T17:04:50.615000+0800</time>
      </trkpt>
      <trkpt lat="22.557181" lon="113.96731">
        <ele>1.5</ele>
        <time>2023-04-22T17:05:04.620000+0800</time>
      </trkpt>
      <trkpt lat="22.557274" lon="113.96734">
        <ele>1.2</ele>
        <time>2023-04-22T17:05:08.606000+0800</time>
      </trkpt>
      <trkpt lat="22.557367" lon="113.967346">
        <ele>0.9</ele>
        <time>2023-04-22T17:05:13.618000+0800</time>
      </trkpt>
      <trkpt lat="22.557474" lon="113.96734">
        <ele>0.6</ele>
        <time>2023-04-22T17:05:19.639000+0800</time>
      </trkpt>
      <trkpt lat="22.557569" lon="113.967324">
        <ele>0.3</ele>
        <time>2023-04-22T17:05:24.628000+0800</time>
      </trkpt>
      <trkpt lat="22.557667" lon="113.96732">
        <ele>0</ele>
        <time>2023-04-22T17:05:32.624000+0800</time>
      </trkpt>
      <trkpt lat="22.55778" lon="113.967321">
        <ele>-0.4</ele>
        <time>2023-04-22T17:05:39.628000+0800</time>
      </trkpt>
      <trkpt lat="22.557887" lon="113.967284">
        <ele>0.1</ele>
        <time>2023-04-22T17:05:46.616000+0800</time>
      </trkpt>
      <trkpt lat="22.557979" lon="113.96728">
        <ele>0.6</ele>
        <time>2023-04-22T17:05:55.623000+0800</time>
      </trkpt>
      <trkpt lat="22.558067" lon="113.967321">
        <ele>1.3</ele>
        <time>2023-04-22T17:06:03.612000+0800</time>
      </trkpt>
      <trkpt lat="22.558168" lon="113.967335">
        <ele>1.9</ele>
        <time>2023-04-22T17:06:10.619000+0800</time>
      </trkpt>
      <trkpt lat="22.558264" lon="113.967499">
        <ele>3.1</ele>
        <time>2023-04-22T17:06:58.613000+0800</time>
      </trkpt>
      <trkpt lat="22.558196" lon="113.967594">
        <ele>3.8</ele>
        <time>2023-04-22T17:07:07.634000+0800</time>
      </trkpt>
      <trkpt lat="22.558202" lon="113.967724">
        <ele>4.5</ele>
        <time>2023-04-22T17:07:11.631000+0800</time>
      </trkpt>
      <trkpt lat="22.558201" lon="113.967842">
        <ele>5.2</ele>
        <time>2023-04-22T17:07:15.637000+0800</time>
      </trkpt>
      <trkpt lat="22.558188" lon="113.967952">
        <ele>5.9</ele>
        <time>2023-04-22T17:07:19.596000+0800</time>
      </trkpt>
      <trkpt lat="22.558185" lon="113.968056">
        <ele>6.5</ele>
        <time>2023-04-22T17:07:22.613000+0800</time>
      </trkpt>
      <trkpt lat="22.558177" lon="113.968187">
        <ele>7.3</ele>
        <time>2023-04-22T17:07:26.619000+0800</time>
      </trkpt>
      <trkpt lat="22.558172" lon="113.968367">
        <ele>8.3</ele>
        <time>2023-04-22T17:07:30.680000+0800</time>
      </trkpt>
      <trkpt lat="22.558156" lon="113.968477">
        <ele>9</ele>
        <time>2023-04-22T17:07:33.684000+0800</time>
      </trkpt>
      <trkpt lat="22.558159" lon="113.968603">
        <ele>9.7</ele>
        <time>2023-04-22T17:07:36.677000+0800</time>
      </trkpt>
      <trkpt lat="22.55815" lon="113.968723">
        <ele>10.5</ele>
        <time>2023-04-22T17:07:39.685000+0800</time>
      </trkpt>
      <trkpt lat="22.558149" lon="113.968857">
        <ele>11.1</ele>
        <time>2023-04-22T17:07:42.650000+0800</time>
      </trkpt>
      <trkpt lat="22.558137" lon="113.96896">
        <ele>11.2</ele>
        <time>2023-04-22T17:07:45.607000+0800</time>
      </trkpt>
      <trkpt lat="22.558134" lon="113.969066">
        <ele>11.2</ele>
        <time>2023-04-22T17:07:48.623000+0800</time>
      </trkpt>
      <trkpt lat="22.55812" lon="113.969174">
        <ele>11.3</ele>
        <time>2023-04-22T17:07:51.563000+0800</time>
      </trkpt>
      <trkpt lat="22.558105" lon="113.969288">
        <ele>11.4</ele>
        <time>2023-04-22T17:07:54.595000+0800</time>
      </trkpt>
      <trkpt lat="22.558098" lon="113.969397">
        <ele>11.5</ele>
        <time>2023-04-22T17:07:57.624000+0800</time>
      </trkpt>
      <trkpt lat="22.55809" lon="113.969513">
        <ele>11.6</ele>
        <time>2023-04-22T17:08:00.620000+0800</time>
      </trkpt>
      <trkpt lat="22.558087" lon="113.969623">
        <ele>11.7</ele>
        <time>2023-04-22T17:08:03.640000+0800</time>
      </trkpt>
      <trkpt lat="22.558074" lon="113.969744">
        <ele>11.8</ele>
        <time>2023-04-22T17:08:06.623000+0800</time>
      </trkpt>
      <trkpt lat="22.558063" lon="113.969876">
        <ele>11.9</ele>
        <time>2023-04-22T17:08:10.628000+0800</time>
      </trkpt>
      <trkpt lat="22.558088" lon="113.970005">
        <ele>12.1</ele>
        <time>2023-04-22T17:08:13.629000+0800</time>
      </trkpt>
      <trkpt lat="22.55816" lon="113.970085">
        <ele>12.2</ele>
        <time>2023-04-22T17:08:16.631000+0800</time>
      </trkpt>
      <trkpt lat="22.558281" lon="113.970109">
        <ele>12.3</ele>
        <time>2023-04-22T17:08:19.640000+0800</time>
      </trkpt>
      <trkpt lat="22.558408" lon="113.970134">
        <ele>12.4</ele>
        <time>2023-04-22T17:08:22.622000+0800</time>
      </trkpt>
      <trkpt lat="22.558517" lon="113.970168">
        <ele>12.5</ele>
        <time>2023-04-22T17:08:25.646000+0800</time>
      </trkpt>
      <trkpt lat="22.558631" lon="113.970202">
        <ele>12.6</ele>
        <time>2023-04-22T17:08:28.639000+0800</time>
      </trkpt>
      <trkpt lat="22.558746" lon="113.970241">
        <ele>12.7</ele>
        <time>2023-04-22T17:08:31.645000+0800</time>
      </trkpt>
      <trkpt lat="22.558846" lon="113.970278">
        <ele>12.7</ele>
        <time>2023-04-22T17:08:34.622000+0800</time>
      </trkpt>
      <trkpt lat="22.558946" lon="113.970316">
        <ele>12.7</ele>
        <time>2023-04-22T17:08:37.605000+0800</time>
      </trkpt>
      <trkpt lat="22.559059" lon="113.970354">
        <ele>12.7</ele>
        <time>2023-04-22T17:08:40.615000+0800</time>
      </trkpt>
      <trkpt lat="22.559181" lon="113.970373">
        <ele>12.7</ele>
        <time>2023-04-22T17:08:43.628000+0800</time>
      </trkpt>
      <trkpt lat="22.559298" lon="113.970417">
        <ele>12.7</ele>
        <time>2023-04-22T17:08:46.641000+0800</time>
      </trkpt>
      <trkpt lat="22.559422" lon="113.97044">
        <ele>12.7</ele>
        <time>2023-04-22T17:08:49.627000+0800</time>
      </trkpt>
      <trkpt lat="22.55952" lon="113.970399">
        <ele>12.7</ele>
        <time>2023-04-22T17:08:53.575000+0800</time>
      </trkpt>
      <trkpt lat="22.559613" lon="113.970421">
        <ele>12.7</ele>
        <time>2023-04-22T17:09:03.598000+0800</time>
      </trkpt>
      <trkpt lat="22.559524" lon="113.970387">
        <ele>12.7</ele>
        <time>2023-04-22T17:10:12.631000+0800</time>
      </trkpt>
      <trkpt lat="22.559506" lon="113.970267">
        <ele>12.7</ele>
        <time>2023-04-22T17:10:19.578000+0800</time>
      </trkpt>
      <trkpt lat="22.559511" lon="113.970162">
        <ele>12.7</ele>
        <time>2023-04-22T17:10:24.612000+0800</time>
      </trkpt>
      <trkpt lat="22.559511" lon="113.970052">
        <ele>12.7</ele>
        <time>2023-04-22T17:10:34.558000+0800</time>
      </trkpt>
      <trkpt lat="22.559522" lon="113.970031">
        <ele>12.7</ele>
        <time>2023-04-22T17:10:36.577000+0800</time>
      </trkpt>
    </trkseg>
  </trk>
</gpx>