<?xml version="1.0" encoding="UTF-8"?>
<gpx xmlns="http://www.topografix.com/GPX/1/1" xmlns:xsi="http://www.w3.org/2001/XMLSchema-instance" xsi:schemaLocation="http://www.topografix.com/GPX/1/1 http://www.topografix.com/GPX/1/1/gpx.xsd" version="1.1" creator="鹏">
  <metadata>
    <name>Mountain bike ride (Completed)</name>
    <desc>Distance: 1.885km, Estimated duration: 0.16h, Elevation up: 22.55025029421729m, Elevation down: 9.915821711706297m</desc>
    <author>
      <name>鹏</name>
      <link href="https://www.komoot.de/user/3342641231843">
        <text>View 鹏's Profile on Komoot</text>
      </link>
    </author>
    <link href="https://www.komoot.de/tour/1202718959">
      <text>View tour on Komoot</text>
    </link>
  </metadata>
  <trk>
    <name>Mountain bike ride (Completed)</name>
    <desc>Distance: 1.885km, Estimated duration: 0.16h, Elevation up: 22.55025029421729m, Elevation down: 9.915821711706297m</desc>
    <link href="https://www.komoot.de/tour/1202718959">
      <text>View tour on Komoot</text>
    </link>
    <trkseg>
      <trkpt lat="22.571695" lon="114.032405">
        <ele>18.2</ele>
        <time>2023-07-08T19:12:27.544000+0800</time>
      </trkpt>
      <trkpt lat="22.571559" lon="114.032437">
        <ele>18.2</ele>
        <time>2023-07-08T19:12:54.449000+0800</time>
      </trkpt>
      <trkpt lat="22.571396" lon="114.032576">
        <ele>18.2</ele>
        <time>2023-07-08T19:13:21.510000+0800</time>
      </trkpt>
      <trkpt lat="22.571293" lon="114.032643">
        <ele>18.2</ele>
        <time>2023-07-08T19:13:25.448000+0800</time>
      </trkpt>
      <trkpt lat="22.57123" lon="114.032721">
        <ele>18.2</ele>
        <time>2023-07-08T19:13:28.461000+0800</time>
      </trkpt>
      <trkpt lat="22.571152" lon="114.032799">
        <ele>18.2</ele>
        <time>2023-07-08T19:13:32.435000+0800</time>
      </trkpt>
      <trkpt lat="22.571056" lon="114.032855">
        <ele>18.2</ele>
        <time>2023-07-08T19:13:35.455000+0800</time>
      </trkpt>
      <trkpt lat="22.570992" lon="114.032931">
        <ele>18.2</ele>
        <time>2023-07-08T19:13:38.453000+0800</time>
      </trkpt>
      <trkpt lat="22.570936" lon="114.033013">
        <ele>18.5</ele>
        <time>2023-07-08T19:13:42.462000+0800</time>
      </trkpt>
      <trkpt lat="22.570834" lon="114.033039">
        <ele>18.9</ele>
        <time>2023-07-08T19:13:47.397000+0800</time>
      </trkpt>
      <trkpt lat="22.570753" lon="114.033098">
        <ele>19.4</ele>
        <time>2023-07-08T19:13:53.425000+0800</time>
      </trkpt>
      <trkpt lat="22.570684" lon="114.033165">
        <ele>19.8</ele>
        <time>2023-07-08T19:13:59.404000+0800</time>
      </trkpt>
      <trkpt lat="22.570778" lon="114.033116">
        <ele>20.2</ele>
        <time>2023-07-08T19:14:06.405000+0800</time>
      </trkpt>
      <trkpt lat="22.570847" lon="114.033039">
        <ele>20.7</ele>
        <time>2023-07-08T19:14:12.438000+0800</time>
      </trkpt>
      <trkpt lat="22.570919" lon="114.032975">
        <ele>21.1</ele>
        <time>2023-07-08T19:14:17.404000+0800</time>
      </trkpt>
      <trkpt lat="22.570923" lon="114.032876">
        <ele>21.5</ele>
        <time>2023-07-08T19:14:25.409000+0800</time>
      </trkpt>
      <trkpt lat="22.57088" lon="114.032788">
        <ele>21.9</ele>
        <time>2023-07-08T19:14:29.452000+0800</time>
      </trkpt>
      <trkpt lat="22.570816" lon="114.032702">
        <ele>22.4</ele>
        <time>2023-07-08T19:14:33.460000+0800</time>
      </trkpt>
      <trkpt lat="22.570789" lon="114.032606">
        <ele>22.8</ele>
        <time>2023-07-08T19:14:37.434000+0800</time>
      </trkpt>
      <trkpt lat="22.570733" lon="114.032526">
        <ele>23.2</ele>
        <time>2023-07-08T19:14:40.397000+0800</time>
      </trkpt>
      <trkpt lat="22.570686" lon="114.032437">
        <ele>23.6</ele>
        <time>2023-07-08T19:14:43.396000+0800</time>
      </trkpt>
      <trkpt lat="22.570651" lon="114.032343">
        <ele>24.1</ele>
        <time>2023-07-08T19:14:45.472000+0800</time>
      </trkpt>
      <trkpt lat="22.57058" lon="114.032226">
        <ele>24.6</ele>
        <time>2023-07-08T19:14:48.407000+0800</time>
      </trkpt>
      <trkpt lat="22.5705" lon="114.032148">
        <ele>25.1</ele>
        <time>2023-07-08T19:14:51.415000+0800</time>
      </trkpt>
      <trkpt lat="22.570419" lon="114.032069">
        <ele>25.6</ele>
        <time>2023-07-08T19:14:54.452000+0800</time>
      </trkpt>
      <trkpt lat="22.570338" lon="114.031979">
        <ele>26.1</ele>
        <time>2023-07-08T19:14:57.431000+0800</time>
      </trkpt>
      <trkpt lat="22.57027" lon="114.031868">
        <ele>25.9</ele>
        <time>2023-07-08T19:15:00.465000+0800</time>
      </trkpt>
      <trkpt lat="22.570219" lon="114.031767">
        <ele>25.5</ele>
        <time>2023-07-08T19:15:03.452000+0800</time>
      </trkpt>
      <trkpt lat="22.57015" lon="114.031702">
        <ele>25.2</ele>
        <time>2023-07-08T19:15:06.396000+0800</time>
      </trkpt>
      <trkpt lat="22.570047" lon="114.031701">
        <ele>24.9</ele>
        <time>2023-07-08T19:15:10.413000+0800</time>
      </trkpt>
      <trkpt lat="22.569957" lon="114.031735">
        <ele>24.5</ele>
        <time>2023-07-08T19:15:13.402000+0800</time>
      </trkpt>
      <trkpt lat="22.569869" lon="114.031791">
        <ele>24.2</ele>
        <time>2023-07-08T19:15:17.409000+0800</time>
      </trkpt>
      <trkpt lat="22.569782" lon="114.031831">
        <ele>23.9</ele>
        <time>2023-07-08T19:15:22.435000+0800</time>
      </trkpt>
      <trkpt lat="22.569691" lon="114.031856">
        <ele>23.6</ele>
        <time>2023-07-08T19:15:26.451000+0800</time>
      </trkpt>
      <trkpt lat="22.569595" lon="114.031901">
        <ele>23.2</ele>
        <time>2023-07-08T19:15:29.454000+0800</time>
      </trkpt>
      <trkpt lat="22.569506" lon="114.031973">
        <ele>22.9</ele>
        <time>2023-07-08T19:15:32.411000+0800</time>
      </trkpt>
      <trkpt lat="22.569401" lon="114.032023">
        <ele>22.5</ele>
        <time>2023-07-08T19:15:35.448000+0800</time>
      </trkpt>
      <trkpt lat="22.569314" lon="114.032093">
        <ele>22.1</ele>
        <time>2023-07-08T19:15:38.421000+0800</time>
      </trkpt>
      <trkpt lat="22.569216" lon="114.032174">
        <ele>21.7</ele>
        <time>2023-07-08T19:15:41.424000+0800</time>
      </trkpt>
      <trkpt lat="22.569119" lon="114.03214">
        <ele>21.4</ele>
        <time>2023-07-08T19:15:44.421000+0800</time>
      </trkpt>
      <trkpt lat="22.569065" lon="114.03202">
        <ele>21</ele>
        <time>2023-07-08T19:15:48.450000+0800</time>
      </trkpt>
      <trkpt lat="22.569021" lon="114.031924">
        <ele>20.6</ele>
        <time>2023-07-08T19:15:55.408000+0800</time>
      </trkpt>
      <trkpt lat="22.569084" lon="114.032027">
        <ele>20.3</ele>
        <time>2023-07-08T19:16:01.432000+0800</time>
      </trkpt>
      <trkpt lat="22.569076" lon="114.032127">
        <ele>20.4</ele>
        <time>2023-07-08T19:16:05.458000+0800</time>
      </trkpt>
      <trkpt lat="22.568963" lon="114.032158">
        <ele>20.7</ele>
        <time>2023-07-08T19:16:08.459000+0800</time>
      </trkpt>
      <trkpt lat="22.568867" lon="114.032183">
        <ele>20.9</ele>
        <time>2023-07-08T19:16:11.444000+0800</time>
      </trkpt>
      <trkpt lat="22.56876" lon="114.032204">
        <ele>21.1</ele>
        <time>2023-07-08T19:16:14.420000+0800</time>
      </trkpt>
      <trkpt lat="22.568656" lon="114.032222">
        <ele>21.4</ele>
        <time>2023-07-08T19:16:17.437000+0800</time>
      </trkpt>
      <trkpt lat="22.568557" lon="114.032231">
        <ele>21.6</ele>
        <time>2023-07-08T19:16:20.400000+0800</time>
      </trkpt>
      <trkpt lat="22.56847" lon="114.032259">
        <ele>21.8</ele>
        <time>2023-07-08T19:16:23.423000+0800</time>
      </trkpt>
      <trkpt lat="22.568379" lon="114.032284">
        <ele>22</ele>
        <time>2023-07-08T19:16:26.446000+0800</time>
      </trkpt>
      <trkpt lat="22.568283" lon="114.032286">
        <ele>22.2</ele>
        <time>2023-07-08T19:16:29.441000+0800</time>
      </trkpt>
      <trkpt lat="22.568177" lon="114.032285">
        <ele>22.4</ele>
        <time>2023-07-08T19:16:32.459000+0800</time>
      </trkpt>
      <trkpt lat="22.568104" lon="114.032196">
        <ele>22.7</ele>
        <time>2023-07-08T19:16:36.457000+0800</time>
      </trkpt>
      <trkpt lat="22.568086" lon="114.032087">
        <ele>22.9</ele>
        <time>2023-07-08T19:16:39.407000+0800</time>
      </trkpt>
      <trkpt lat="22.568069" lon="114.03196">
        <ele>23.2</ele>
        <time>2023-07-08T19:16:42.447000+0800</time>
      </trkpt>
      <trkpt lat="22.568038" lon="114.031843">
        <ele>23.4</ele>
        <time>2023-07-08T19:16:45.459000+0800</time>
      </trkpt>
      <trkpt lat="22.568019" lon="114.03172">
        <ele>23.7</ele>
        <time>2023-07-08T19:16:48.472000+0800</time>
      </trkpt>
      <trkpt lat="22.567994" lon="114.031603">
        <ele>23.9</ele>
        <time>2023-07-08T19:16:51.457000+0800</time>
      </trkpt>
      <trkpt lat="22.567986" lon="114.031485">
        <ele>24.1</ele>
        <time>2023-07-08T19:16:54.395000+0800</time>
      </trkpt>
      <trkpt lat="22.567974" lon="114.031359">
        <ele>24.4</ele>
        <time>2023-07-08T19:16:57.424000+0800</time>
      </trkpt>
      <trkpt lat="22.567953" lon="114.031245">
        <ele>24.6</ele>
        <time>2023-07-08T19:16:59.440000+0800</time>
      </trkpt>
      <trkpt lat="22.567925" lon="114.031113">
        <ele>24.9</ele>
        <time>2023-07-08T19:17:02.452000+0800</time>
      </trkpt>
      <trkpt lat="22.567901" lon="114.030995">
        <ele>25.2</ele>
        <time>2023-07-08T19:17:05.424000+0800</time>
      </trkpt>
      <trkpt lat="22.567876" lon="114.030858">
        <ele>25.5</ele>
        <time>2023-07-08T19:17:08.403000+0800</time>
      </trkpt>
      <trkpt lat="22.56782" lon="114.030769">
        <ele>25.7</ele>
        <time>2023-07-08T19:17:11.426000+0800</time>
      </trkpt>
      <trkpt lat="22.56772" lon="114.030701">
        <ele>26</ele>
        <time>2023-07-08T19:17:14.434000+0800</time>
      </trkpt>
      <trkpt lat="22.567644" lon="114.030624">
        <ele>26.2</ele>
        <time>2023-07-08T19:17:17.432000+0800</time>
      </trkpt>
      <trkpt lat="22.567589" lon="114.030539">
        <ele>26.4</ele>
        <time>2023-07-08T19:17:22.457000+0800</time>
      </trkpt>
      <trkpt lat="22.567566" lon="114.030419">
        <ele>26.7</ele>
        <time>2023-07-08T19:17:27.458000+0800</time>
      </trkpt>
      <trkpt lat="22.567487" lon="114.030356">
        <ele>26.9</ele>
        <time>2023-07-08T19:17:30.468000+0800</time>
      </trkpt>
      <trkpt lat="22.567384" lon="114.030325">
        <ele>27.1</ele>
        <time>2023-07-08T19:17:33.463000+0800</time>
      </trkpt>
      <trkpt lat="22.567277" lon="114.030314">
        <ele>27.4</ele>
        <time>2023-07-08T19:17:36.450000+0800</time>
      </trkpt>
      <trkpt lat="22.567184" lon="114.030266">
        <ele>27.6</ele>
        <time>2023-07-08T19:17:39.409000+0800</time>
      </trkpt>
      <trkpt lat="22.567112" lon="114.030191">
        <ele>27.8</ele>
        <time>2023-07-08T19:17:42.462000+0800</time>
      </trkpt>
      <trkpt lat="22.567028" lon="114.030111">
        <ele>28.1</ele>
        <time>2023-07-08T19:17:45.455000+0800</time>
      </trkpt>
      <trkpt lat="22.566935" lon="114.030032">
        <ele>28.3</ele>
        <time>2023-07-08T19:17:48.465000+0800</time>
      </trkpt>
      <trkpt lat="22.56684" lon="114.029987">
        <ele>28.4</ele>
        <time>2023-07-08T19:17:51.421000+0800</time>
      </trkpt>
      <trkpt lat="22.56677" lon="114.029925">
        <ele>28.5</ele>
        <time>2023-07-08T19:17:54.457000+0800</time>
      </trkpt>
      <trkpt lat="22.566689" lon="114.029877">
        <ele>28.7</ele>
        <time>2023-07-08T19:17:59.409000+0800</time>
      </trkpt>
      <trkpt lat="22.566599" lon="114.029803">
        <ele>28.8</ele>
        <time>2023-07-08T19:18:03.429000+0800</time>
      </trkpt>
      <trkpt lat="22.566492" lon="114.029747">
        <ele>28.9</ele>
        <time>2023-07-08T19:18:07.461000+0800</time>
      </trkpt>
      <trkpt lat="22.566397" lon="114.029706">
        <ele>29.1</ele>
        <time>2023-07-08T19:18:10.414000+0800</time>
      </trkpt>
      <trkpt lat="22.566306" lon="114.029648">
        <ele>29.2</ele>
        <time>2023-07-08T19:18:13.469000+0800</time>
      </trkpt>
      <trkpt lat="22.566233" lon="114.029561">
        <ele>29.3</ele>
        <time>2023-07-08T19:18:17.433000+0800</time>
      </trkpt>
      <trkpt lat="22.566141" lon="114.029544">
        <ele>29.4</ele>
        <time>2023-07-08T19:18:20.448000+0800</time>
      </trkpt>
      <trkpt lat="22.566041" lon="114.029506">
        <ele>29.6</ele>
        <time>2023-07-08T19:18:23.438000+0800</time>
      </trkpt>
      <trkpt lat="22.565943" lon="114.029466">
        <ele>29.7</ele>
        <time>2023-07-08T19:18:26.403000+0800</time>
      </trkpt>
      <trkpt lat="22.565843" lon="114.029434">
        <ele>29.8</ele>
        <time>2023-07-08T19:18:29.450000+0800</time>
      </trkpt>
      <trkpt lat="22.56574" lon="114.029402">
        <ele>30</ele>
        <time>2023-07-08T19:18:32.465000+0800</time>
      </trkpt>
      <trkpt lat="22.565622" lon="114.029382">
        <ele>30.1</ele>
        <time>2023-07-08T19:18:35.445000+0800</time>
      </trkpt>
      <trkpt lat="22.565498" lon="114.029385">
        <ele>30.3</ele>
        <time>2023-07-08T19:18:38.416000+0800</time>
      </trkpt>
      <trkpt lat="22.565391" lon="114.029397">
        <ele>30.4</ele>
        <time>2023-07-08T19:18:41.405000+0800</time>
      </trkpt>
      <trkpt lat="22.565283" lon="114.029418">
        <ele>30.5</ele>
        <time>2023-07-08T19:18:44.457000+0800</time>
      </trkpt>
      <trkpt lat="22.565192" lon="114.029453">
        <ele>30.5</ele>
        <time>2023-07-08T19:18:47.417000+0800</time>
      </trkpt>
      <trkpt lat="22.565101" lon="114.029489">
        <ele>30.5</ele>
        <time>2023-07-08T19:18:50.426000+0800</time>
      </trkpt>
      <trkpt lat="22.564991" lon="114.029508">
        <ele>30.5</ele>
        <time>2023-07-08T19:18:54.446000+0800</time>
      </trkpt>
      <trkpt lat="22.564882" lon="114.029521">
        <ele>30.5</ele>
        <time>2023-07-08T19:18:57.401000+0800</time>
      </trkpt>
      <trkpt lat="22.564787" lon="114.029539">
        <ele>30.5</ele>
        <time>2023-07-08T19:19:00.418000+0800</time>
      </trkpt>
      <trkpt lat="22.564691" lon="114.029559">
        <ele>30.5</ele>
        <time>2023-07-08T19:19:03.455000+0800</time>
      </trkpt>
      <trkpt lat="22.564589" lon="114.029591">
        <ele>30.5</ele>
        <time>2023-07-08T19:19:06.464000+0800</time>
      </trkpt>
      <trkpt lat="22.564481" lon="114.02962">
        <ele>30.5</ele>
        <time>2023-07-08T19:19:09.462000+0800</time>
      </trkpt>
      <trkpt lat="22.564363" lon="114.029627">
        <ele>30.6</ele>
        <time>2023-07-08T19:19:13.452000+0800</time>
      </trkpt>
      <trkpt lat="22.56426" lon="114.029648">
        <ele>30.6</ele>
        <time>2023-07-08T19:19:21.461000+0800</time>
      </trkpt>
      <trkpt lat="22.564155" lon="114.029698">
        <ele>30.6</ele>
        <time>2023-07-08T19:19:25.404000+0800</time>
      </trkpt>
      <trkpt lat="22.564059" lon="114.02972">
        <ele>30.6</ele>
        <time>2023-07-08T19:19:28.398000+0800</time>
      </trkpt>
      <trkpt lat="22.563956" lon="114.029744">
        <ele>30.6</ele>
        <time>2023-07-08T19:19:31.415000+0800</time>
      </trkpt>
      <trkpt lat="22.563837" lon="114.029776">
        <ele>30.6</ele>
        <time>2023-07-08T19:19:34.402000+0800</time>
      </trkpt>
      <trkpt lat="22.563744" lon="114.029794">
        <ele>30.6</ele>
        <time>2023-07-08T19:19:36.470000+0800</time>
      </trkpt>
      <trkpt lat="22.563649" lon="114.029771">
        <ele>30.6</ele>
        <time>2023-07-08T19:19:39.439000+0800</time>
      </trkpt>
      <trkpt lat="22.563572" lon="114.029678">
        <ele>30.8</ele>
        <time>2023-07-08T19:19:42.418000+0800</time>
      </trkpt>
      <trkpt lat="22.563547" lon="114.02955">
        <ele>31</ele>
        <time>2023-07-08T19:19:45.416000+0800</time>
      </trkpt>
      <trkpt lat="22.56355" lon="114.029438">
        <ele>31.3</ele>
        <time>2023-07-08T19:19:48.414000+0800</time>
      </trkpt>
      <trkpt lat="22.563528" lon="114.029339">
        <ele>31.5</ele>
        <time>2023-07-08T19:19:51.456000+0800</time>
      </trkpt>
      <trkpt lat="22.563512" lon="114.029236">
        <ele>31.7</ele>
        <time>2023-07-08T19:19:54.414000+0800</time>
      </trkpt>
      <trkpt lat="22.563496" lon="114.029128">
        <ele>31.9</ele>
        <time>2023-07-08T19:19:57.465000+0800</time>
      </trkpt>
      <trkpt lat="22.563459" lon="114.028998">
        <ele>32.2</ele>
        <time>2023-07-08T19:20:00.431000+0800</time>
      </trkpt>
      <trkpt lat="22.563437" lon="114.028899">
        <ele>32.4</ele>
        <time>2023-07-08T19:20:02.418000+0800</time>
      </trkpt>
      <trkpt lat="22.563424" lon="114.028802">
        <ele>32.7</ele>
        <time>2023-07-08T19:20:04.421000+0800</time>
      </trkpt>
      <trkpt lat="22.563404" lon="114.028703">
        <ele>32.9</ele>
        <time>2023-07-08T19:20:06.468000+0800</time>
      </trkpt>
      <trkpt lat="22.563392" lon="114.028606">
        <ele>33.1</ele>
        <time>2023-07-08T19:20:08.451000+0800</time>
      </trkpt>
      <trkpt lat="22.563364" lon="114.02849">
        <ele>33.3</ele>
        <time>2023-07-08T19:20:12.453000+0800</time>
      </trkpt>
      <trkpt lat="22.563347" lon="114.028382">
        <ele>33.6</ele>
        <time>2023-07-08T19:20:16.436000+0800</time>
      </trkpt>
      <trkpt lat="22.563323" lon="114.028265">
        <ele>33.8</ele>
        <time>2023-07-08T19:20:20.444000+0800</time>
      </trkpt>
      <trkpt lat="22.563308" lon="114.028163">
        <ele>34</ele>
        <time>2023-07-08T19:20:24.492000+0800</time>
      </trkpt>
      <trkpt lat="22.563281" lon="114.028058">
        <ele>34.3</ele>
        <time>2023-07-08T19:20:30.452000+0800</time>
      </trkpt>
      <trkpt lat="22.563263" lon="114.027949">
        <ele>34.5</ele>
        <time>2023-07-08T19:20:34.466000+0800</time>
      </trkpt>
      <trkpt lat="22.563186" lon="114.027862">
        <ele>34.7</ele>
        <time>2023-07-08T19:20:38.452000+0800</time>
      </trkpt>
      <trkpt lat="22.563129" lon="114.027763">
        <ele>34.5</ele>
        <time>2023-07-08T19:20:43.425000+0800</time>
      </trkpt>
      <trkpt lat="22.563103" lon="114.027632">
        <ele>34.2</ele>
        <time>2023-07-08T19:20:47.448000+0800</time>
      </trkpt>
      <trkpt lat="22.563122" lon="114.027509">
        <ele>34</ele>
        <time>2023-07-08T19:20:50.414000+0800</time>
      </trkpt>
      <trkpt lat="22.563127" lon="114.027386">
        <ele>33.7</ele>
        <time>2023-07-08T19:20:53.435000+0800</time>
      </trkpt>
      <trkpt lat="22.563118" lon="114.027239">
        <ele>33.4</ele>
        <time>2023-07-08T19:20:56.427000+0800</time>
      </trkpt>
      <trkpt lat="22.563102" lon="114.027133">
        <ele>33.2</ele>
        <time>2023-07-08T19:20:58.407000+0800</time>
      </trkpt>
      <trkpt lat="22.563075" lon="114.027007">
        <ele>32.9</ele>
        <time>2023-07-08T19:21:00.460000+0800</time>
      </trkpt>
      <trkpt lat="22.563053" lon="114.026885">
        <ele>32.7</ele>
        <time>2023-07-08T19:21:02.430000+0800</time>
      </trkpt>
      <trkpt lat="22.563026" lon="114.026764">
        <ele>32.4</ele>
        <time>2023-07-08T19:21:04.473000+0800</time>
      </trkpt>
      <trkpt lat="22.563" lon="114.026633">
        <ele>32.2</ele>
        <time>2023-07-08T19:21:06.472000+0800</time>
      </trkpt>
      <trkpt lat="22.562984" lon="114.026513">
        <ele>31.9</ele>
        <time>2023-07-08T19:21:08.500000+0800</time>
      </trkpt>
      <trkpt lat="22.562958" lon="114.026383">
        <ele>31.6</ele>
        <time>2023-07-08T19:21:10.513000+0800</time>
      </trkpt>
      <trkpt lat="22.562937" lon="114.026257">
        <ele>31.4</ele>
        <time>2023-07-08T19:21:12.457000+0800</time>
      </trkpt>
      <trkpt lat="22.562923" lon="114.026155">
        <ele>31.2</ele>
        <time>2023-07-08T19:21:14.467000+0800</time>
      </trkpt>
      <trkpt lat="22.562915" lon="114.026057">
        <ele>31</ele>
        <time>2023-07-08T19:21:16.411000+0800</time>
      </trkpt>
      <trkpt lat="22.562888" lon="114.025937">
        <ele>30.8</ele>
        <time>2023-07-08T19:21:18.450000+0800</time>
      </trkpt>
      <trkpt lat="22.562864" lon="114.025824">
        <ele>30.8</ele>
        <time>2023-07-08T19:21:20.413000+0800</time>
      </trkpt>
      <trkpt lat="22.562838" lon="114.025687">
        <ele>30.8</ele>
        <time>2023-07-08T19:21:22.463000+0800</time>
      </trkpt>
      <trkpt lat="22.562805" lon="114.025564">
        <ele>30.8</ele>
        <time>2023-07-08T19:21:24.401000+0800</time>
      </trkpt>
      <trkpt lat="22.562769" lon="114.025437">
        <ele>30.8</ele>
        <time>2023-07-08T19:21:26.469000+0800</time>
      </trkpt>
      <trkpt lat="22.562726" lon="114.025327">
        <ele>30.8</ele>
        <time>2023-07-08T19:21:28.410000+0800</time>
      </trkpt>
      <trkpt lat="22.562702" lon="114.02522">
        <ele>30.8</ele>
        <time>2023-07-08T19:21:30.446000+0800</time>
      </trkpt>
      <trkpt lat="22.562693" lon="114.025116">
        <ele>30.8</ele>
        <time>2023-07-08T19:21:32.411000+0800</time>
      </trkpt>
      <trkpt lat="22.56268" lon="114.025006">
        <ele>30.8</ele>
        <time>2023-07-08T19:21:34.478000+0800</time>
      </trkpt>
      <trkpt lat="22.56265" lon="114.024894">
        <ele>30.8</ele>
        <time>2023-07-08T19:21:36.417000+0800</time>
      </trkpt>
      <trkpt lat="22.562629" lon="114.024795">
        <ele>30.8</ele>
        <time>2023-07-08T19:21:39.460000+0800</time>
      </trkpt>
      <trkpt lat="22.562614" lon="114.024691">
        <ele>30.8</ele>
        <time>2023-07-08T19:21:42.444000+0800</time>
      </trkpt>
      <trkpt lat="22.562601" lon="114.024591">
        <ele>30.8</ele>
        <time>2023-07-08T19:21:45.461000+0800</time>
      </trkpt>
      <trkpt lat="22.562587" lon="114.024476">
        <ele>30.8</ele>
        <time>2023-07-08T19:21:50.415000+0800</time>
      </trkpt>
      <trkpt lat="22.562568" lon="114.024366">
        <ele>30.8</ele>
        <time>2023-07-08T19:21:53.421000+0800</time>
      </trkpt>
      <trkpt lat="22.562543" lon="114.024261">
        <ele>30.8</ele>
        <time>2023-07-08T19:21:57.429000+0800</time>
      </trkpt>
      <trkpt lat="22.562512" lon="114.024216">
        <ele>30.8</ele>
        <time>2023-07-08T19:22:15.252000+0800</time>
      </trkpt>
    </trkseg>
  </trk>
</gpx>