<?xml version="1.0" encoding="UTF-8"?>
<gpx xmlns="http://www.topografix.com/GPX/1/1" xmlns:xsi="http://www.w3.org/2001/XMLSchema-instance" xsi:schemaLocation="http://www.topografix.com/GPX/1/1 http://www.topografix.com/GPX/1/1/gpx.xsd" version="1.1" creator="鹏">
  <metadata>
    <name>Mountain bike ride (Completed)</name>
    <desc>Distance: 2.459km, Estimated duration: 0.26h, Elevation up: 56.16539197248117m, Elevation down: 6.923968561916542m</desc>
    <author>
      <name>鹏</name>
      <link href="https://www.komoot.de/user/3342641231843">
        <text>View 鹏's Profile on Komoot</text>
      </link>
    </author>
    <link href="https://www.komoot.de/tour/1213141241">
      <text>View tour on Komoot</text>
    </link>
  </metadata>
  <trk>
    <name>Mountain bike ride (Completed)</name>
    <desc>Distance: 2.459km, Estimated duration: 0.26h, Elevation up: 56.16539197248117m, Elevation down: 6.923968561916542m</desc>
    <link href="https://www.komoot.de/tour/1213141241">
      <text>View tour on Komoot</text>
    </link>
    <trkseg>
      <trkpt lat="22.561107" lon="113.971376">
        <ele>21.2</ele>
        <time>2023-07-15T17:28:01.267000+0800</time>
      </trkpt>
      <trkpt lat="22.561097" lon="113.971473">
        <ele>21.2</ele>
        <time>2023-07-15T17:28:04.272000+0800</time>
      </trkpt>
      <trkpt lat="22.56106" lon="113.971573">
        <ele>21.2</ele>
        <time>2023-07-15T17:28:07.233000+0800</time>
      </trkpt>
      <trkpt lat="22.561023" lon="113.971674">
        <ele>21.2</ele>
        <time>2023-07-15T17:28:10.282000+0800</time>
      </trkpt>
      <trkpt lat="22.560987" lon="113.971764">
        <ele>21.2</ele>
        <time>2023-07-15T17:28:13.243000+0800</time>
      </trkpt>
      <trkpt lat="22.560958" lon="113.971868">
        <ele>21.2</ele>
        <time>2023-07-15T17:28:16.244000+0800</time>
      </trkpt>
      <trkpt lat="22.560925" lon="113.971973">
        <ele>21.2</ele>
        <time>2023-07-15T17:28:19.241000+0800</time>
      </trkpt>
      <trkpt lat="22.560884" lon="113.972084">
        <ele>21.2</ele>
        <time>2023-07-15T17:28:22.230000+0800</time>
      </trkpt>
      <trkpt lat="22.56085" lon="113.972198">
        <ele>21.2</ele>
        <time>2023-07-15T17:28:25.210000+0800</time>
      </trkpt>
      <trkpt lat="22.560799" lon="113.972313">
        <ele>21.3</ele>
        <time>2023-07-15T17:28:28.231000+0800</time>
      </trkpt>
      <trkpt lat="22.560751" lon="113.972426">
        <ele>21.5</ele>
        <time>2023-07-15T17:28:31.190000+0800</time>
      </trkpt>
      <trkpt lat="22.560716" lon="113.972549">
        <ele>21.8</ele>
        <time>2023-07-15T17:28:34.223000+0800</time>
      </trkpt>
      <trkpt lat="22.560672" lon="113.972653">
        <ele>22</ele>
        <time>2023-07-15T17:28:37.187000+0800</time>
      </trkpt>
      <trkpt lat="22.560629" lon="113.972762">
        <ele>22.3</ele>
        <time>2023-07-15T17:28:40.183000+0800</time>
      </trkpt>
      <trkpt lat="22.560606" lon="113.972877">
        <ele>22.5</ele>
        <time>2023-07-15T17:28:43.222000+0800</time>
      </trkpt>
      <trkpt lat="22.560556" lon="113.972993">
        <ele>22.8</ele>
        <time>2023-07-15T17:28:46.233000+0800</time>
      </trkpt>
      <trkpt lat="22.560506" lon="113.973106">
        <ele>23</ele>
        <time>2023-07-15T17:28:49.211000+0800</time>
      </trkpt>
      <trkpt lat="22.560466" lon="113.973229">
        <ele>23.3</ele>
        <time>2023-07-15T17:28:52.225000+0800</time>
      </trkpt>
      <trkpt lat="22.56043" lon="113.97332">
        <ele>23.5</ele>
        <time>2023-07-15T17:28:54.239000+0800</time>
      </trkpt>
      <trkpt lat="22.560377" lon="113.973438">
        <ele>23.8</ele>
        <time>2023-07-15T17:28:57.193000+0800</time>
      </trkpt>
      <trkpt lat="22.560337" lon="113.973556">
        <ele>24</ele>
        <time>2023-07-15T17:29:00.237000+0800</time>
      </trkpt>
      <trkpt lat="22.56029" lon="113.973682">
        <ele>24.3</ele>
        <time>2023-07-15T17:29:03.211000+0800</time>
      </trkpt>
      <trkpt lat="22.560253" lon="113.973801">
        <ele>24.6</ele>
        <time>2023-07-15T17:29:06.191000+0800</time>
      </trkpt>
      <trkpt lat="22.560212" lon="113.973911">
        <ele>24.8</ele>
        <time>2023-07-15T17:29:09.259000+0800</time>
      </trkpt>
      <trkpt lat="22.560207" lon="113.974037">
        <ele>25.1</ele>
        <time>2023-07-15T17:29:12.188000+0800</time>
      </trkpt>
      <trkpt lat="22.560259" lon="113.974149">
        <ele>25.5</ele>
        <time>2023-07-15T17:29:16.203000+0800</time>
      </trkpt>
      <trkpt lat="22.560374" lon="113.974187">
        <ele>26</ele>
        <time>2023-07-15T17:29:19.206000+0800</time>
      </trkpt>
      <trkpt lat="22.560486" lon="113.974218">
        <ele>26.6</ele>
        <time>2023-07-15T17:29:22.227000+0800</time>
      </trkpt>
      <trkpt lat="22.560579" lon="113.974263">
        <ele>27.1</ele>
        <time>2023-07-15T17:29:25.231000+0800</time>
      </trkpt>
      <trkpt lat="22.560681" lon="113.974287">
        <ele>27.6</ele>
        <time>2023-07-15T17:29:28.217000+0800</time>
      </trkpt>
      <trkpt lat="22.560784" lon="113.974337">
        <ele>28.2</ele>
        <time>2023-07-15T17:29:32.227000+0800</time>
      </trkpt>
      <trkpt lat="22.560872" lon="113.974375">
        <ele>28.6</ele>
        <time>2023-07-15T17:29:35.240000+0800</time>
      </trkpt>
      <trkpt lat="22.560978" lon="113.974421">
        <ele>29.2</ele>
        <time>2023-07-15T17:29:38.237000+0800</time>
      </trkpt>
      <trkpt lat="22.561079" lon="113.974469">
        <ele>29.7</ele>
        <time>2023-07-15T17:29:41.164000+0800</time>
      </trkpt>
      <trkpt lat="22.561171" lon="113.974509">
        <ele>30.2</ele>
        <time>2023-07-15T17:29:44.212000+0800</time>
      </trkpt>
      <trkpt lat="22.56127" lon="113.974536">
        <ele>30.7</ele>
        <time>2023-07-15T17:29:47.184000+0800</time>
      </trkpt>
      <trkpt lat="22.561369" lon="113.97461">
        <ele>31.3</ele>
        <time>2023-07-15T17:29:50.170000+0800</time>
      </trkpt>
      <trkpt lat="22.561467" lon="113.974658">
        <ele>31.8</ele>
        <time>2023-07-15T17:29:53.193000+0800</time>
      </trkpt>
      <trkpt lat="22.561576" lon="113.974694">
        <ele>32.3</ele>
        <time>2023-07-15T17:29:56.203000+0800</time>
      </trkpt>
      <trkpt lat="22.56166" lon="113.974756">
        <ele>32.8</ele>
        <time>2023-07-15T17:29:59.194000+0800</time>
      </trkpt>
      <trkpt lat="22.561762" lon="113.974798">
        <ele>33.4</ele>
        <time>2023-07-15T17:30:02.168000+0800</time>
      </trkpt>
      <trkpt lat="22.561875" lon="113.974862">
        <ele>34</ele>
        <time>2023-07-15T17:30:05.177000+0800</time>
      </trkpt>
      <trkpt lat="22.561988" lon="113.974921">
        <ele>33.7</ele>
        <time>2023-07-15T17:30:08.210000+0800</time>
      </trkpt>
      <trkpt lat="22.562068" lon="113.974973">
        <ele>33.6</ele>
        <time>2023-07-15T17:30:10.198000+0800</time>
      </trkpt>
      <trkpt lat="22.562191" lon="113.975022">
        <ele>33.3</ele>
        <time>2023-07-15T17:30:13.215000+0800</time>
      </trkpt>
      <trkpt lat="22.562304" lon="113.975073">
        <ele>33.1</ele>
        <time>2023-07-15T17:30:16.176000+0800</time>
      </trkpt>
      <trkpt lat="22.562405" lon="113.975101">
        <ele>32.9</ele>
        <time>2023-07-15T17:30:19.181000+0800</time>
      </trkpt>
      <trkpt lat="22.562495" lon="113.975143">
        <ele>32.8</ele>
        <time>2023-07-15T17:30:22.194000+0800</time>
      </trkpt>
      <trkpt lat="22.562561" lon="113.975217">
        <ele>32.6</ele>
        <time>2023-07-15T17:30:30.197000+0800</time>
      </trkpt>
      <trkpt lat="22.562707" lon="113.975355">
        <ele>32.2</ele>
        <time>2023-07-15T17:31:09.230000+0800</time>
      </trkpt>
      <trkpt lat="22.562797" lon="113.975383">
        <ele>32.1</ele>
        <time>2023-07-15T17:31:15.246000+0800</time>
      </trkpt>
      <trkpt lat="22.562878" lon="113.975427">
        <ele>31.9</ele>
        <time>2023-07-15T17:31:19.242000+0800</time>
      </trkpt>
      <trkpt lat="22.562963" lon="113.975472">
        <ele>31.7</ele>
        <time>2023-07-15T17:31:25.221000+0800</time>
      </trkpt>
      <trkpt lat="22.563067" lon="113.975512">
        <ele>31.5</ele>
        <time>2023-07-15T17:31:32.228000+0800</time>
      </trkpt>
      <trkpt lat="22.563135" lon="113.975586">
        <ele>31.4</ele>
        <time>2023-07-15T17:31:40.244000+0800</time>
      </trkpt>
      <trkpt lat="22.563236" lon="113.975638">
        <ele>31.2</ele>
        <time>2023-07-15T17:31:44.210000+0800</time>
      </trkpt>
      <trkpt lat="22.563296" lon="113.975721">
        <ele>31</ele>
        <time>2023-07-15T17:31:47.240000+0800</time>
      </trkpt>
      <trkpt lat="22.563396" lon="113.975712">
        <ele>30.8</ele>
        <time>2023-07-15T17:31:51.233000+0800</time>
      </trkpt>
      <trkpt lat="22.563534" lon="113.975849">
        <ele>31.4</ele>
        <time>2023-07-15T17:33:15.240000+0800</time>
      </trkpt>
      <trkpt lat="22.563824" lon="113.975873">
        <ele>32.6</ele>
        <time>2023-07-15T17:33:41.226000+0800</time>
      </trkpt>
      <trkpt lat="22.563925" lon="113.975881">
        <ele>33</ele>
        <time>2023-07-15T17:33:43.218000+0800</time>
      </trkpt>
      <trkpt lat="22.564016" lon="113.97592">
        <ele>33.5</ele>
        <time>2023-07-15T17:33:45.230000+0800</time>
      </trkpt>
      <trkpt lat="22.564134" lon="113.975976">
        <ele>34</ele>
        <time>2023-07-15T17:33:48.227000+0800</time>
      </trkpt>
      <trkpt lat="22.564225" lon="113.976021">
        <ele>34.4</ele>
        <time>2023-07-15T17:33:50.233000+0800</time>
      </trkpt>
      <trkpt lat="22.564328" lon="113.976062">
        <ele>34.9</ele>
        <time>2023-07-15T17:33:52.239000+0800</time>
      </trkpt>
      <trkpt lat="22.564437" lon="113.976089">
        <ele>35.3</ele>
        <time>2023-07-15T17:33:54.234000+0800</time>
      </trkpt>
      <trkpt lat="22.564535" lon="113.976122">
        <ele>35.8</ele>
        <time>2023-07-15T17:33:56.234000+0800</time>
      </trkpt>
      <trkpt lat="22.564628" lon="113.976168">
        <ele>36.2</ele>
        <time>2023-07-15T17:33:58.229000+0800</time>
      </trkpt>
      <trkpt lat="22.564759" lon="113.97621">
        <ele>36.8</ele>
        <time>2023-07-15T17:34:01.222000+0800</time>
      </trkpt>
      <trkpt lat="22.564877" lon="113.976269">
        <ele>37.3</ele>
        <time>2023-07-15T17:34:04.239000+0800</time>
      </trkpt>
      <trkpt lat="22.564966" lon="113.976313">
        <ele>37.7</ele>
        <time>2023-07-15T17:34:06.195000+0800</time>
      </trkpt>
      <trkpt lat="22.565042" lon="113.976384">
        <ele>38.1</ele>
        <time>2023-07-15T17:34:08.248000+0800</time>
      </trkpt>
      <trkpt lat="22.565149" lon="113.976439">
        <ele>38.2</ele>
        <time>2023-07-15T17:34:11.245000+0800</time>
      </trkpt>
      <trkpt lat="22.565236" lon="113.976489">
        <ele>38.2</ele>
        <time>2023-07-15T17:34:14.258000+0800</time>
      </trkpt>
      <trkpt lat="22.565333" lon="113.976549">
        <ele>38.1</ele>
        <time>2023-07-15T17:34:17.238000+0800</time>
      </trkpt>
      <trkpt lat="22.565433" lon="113.976612">
        <ele>38</ele>
        <time>2023-07-15T17:34:20.198000+0800</time>
      </trkpt>
      <trkpt lat="22.56552" lon="113.976677">
        <ele>37.9</ele>
        <time>2023-07-15T17:34:22.262000+0800</time>
      </trkpt>
      <trkpt lat="22.565579" lon="113.976766">
        <ele>37.8</ele>
        <time>2023-07-15T17:34:24.244000+0800</time>
      </trkpt>
      <trkpt lat="22.565554" lon="113.976901">
        <ele>37.7</ele>
        <time>2023-07-15T17:34:27.249000+0800</time>
      </trkpt>
      <trkpt lat="22.565503" lon="113.977027">
        <ele>37.6</ele>
        <time>2023-07-15T17:34:29.193000+0800</time>
      </trkpt>
      <trkpt lat="22.565481" lon="113.977135">
        <ele>37.5</ele>
        <time>2023-07-15T17:34:31.240000+0800</time>
      </trkpt>
      <trkpt lat="22.565468" lon="113.97727">
        <ele>37.4</ele>
        <time>2023-07-15T17:34:34.177000+0800</time>
      </trkpt>
      <trkpt lat="22.565454" lon="113.977379">
        <ele>37.3</ele>
        <time>2023-07-15T17:34:37.242000+0800</time>
      </trkpt>
      <trkpt lat="22.56541" lon="113.977491">
        <ele>37.2</ele>
        <time>2023-07-15T17:34:40.238000+0800</time>
      </trkpt>
      <trkpt lat="22.565416" lon="113.977625">
        <ele>37.1</ele>
        <time>2023-07-15T17:34:43.260000+0800</time>
      </trkpt>
      <trkpt lat="22.565387" lon="113.977726">
        <ele>37.1</ele>
        <time>2023-07-15T17:34:45.234000+0800</time>
      </trkpt>
      <trkpt lat="22.565344" lon="113.977836">
        <ele>37</ele>
        <time>2023-07-15T17:34:47.234000+0800</time>
      </trkpt>
      <trkpt lat="22.565299" lon="113.977936">
        <ele>36.9</ele>
        <time>2023-07-15T17:34:49.229000+0800</time>
      </trkpt>
      <trkpt lat="22.565267" lon="113.978028">
        <ele>36.9</ele>
        <time>2023-07-15T17:34:51.226000+0800</time>
      </trkpt>
      <trkpt lat="22.565225" lon="113.978133">
        <ele>37</ele>
        <time>2023-07-15T17:34:53.224000+0800</time>
      </trkpt>
      <trkpt lat="22.565187" lon="113.978248">
        <ele>37.1</ele>
        <time>2023-07-15T17:34:55.235000+0800</time>
      </trkpt>
      <trkpt lat="22.56516" lon="113.978344">
        <ele>37.2</ele>
        <time>2023-07-15T17:34:57.259000+0800</time>
      </trkpt>
      <trkpt lat="22.565134" lon="113.97844">
        <ele>37.2</ele>
        <time>2023-07-15T17:34:59.260000+0800</time>
      </trkpt>
      <trkpt lat="22.565093" lon="113.978568">
        <ele>37.3</ele>
        <time>2023-07-15T17:35:02.239000+0800</time>
      </trkpt>
      <trkpt lat="22.565062" lon="113.978693">
        <ele>37.4</ele>
        <time>2023-07-15T17:35:05.241000+0800</time>
      </trkpt>
      <trkpt lat="22.565028" lon="113.978793">
        <ele>37.5</ele>
        <time>2023-07-15T17:35:08.250000+0800</time>
      </trkpt>
      <trkpt lat="22.564982" lon="113.978891">
        <ele>37.6</ele>
        <time>2023-07-15T17:35:12.253000+0800</time>
      </trkpt>
      <trkpt lat="22.564974" lon="113.978995">
        <ele>37.7</ele>
        <time>2023-07-15T17:35:17.242000+0800</time>
      </trkpt>
      <trkpt lat="22.56494" lon="113.979119">
        <ele>37.8</ele>
        <time>2023-07-15T17:35:21.230000+0800</time>
      </trkpt>
      <trkpt lat="22.564909" lon="113.979222">
        <ele>37.9</ele>
        <time>2023-07-15T17:35:24.218000+0800</time>
      </trkpt>
      <trkpt lat="22.564861" lon="113.979324">
        <ele>38</ele>
        <time>2023-07-15T17:35:27.236000+0800</time>
      </trkpt>
      <trkpt lat="22.564828" lon="113.979425">
        <ele>38.1</ele>
        <time>2023-07-15T17:35:31.291000+0800</time>
      </trkpt>
      <trkpt lat="22.564812" lon="113.979523">
        <ele>38.2</ele>
        <time>2023-07-15T17:35:35.306000+0800</time>
      </trkpt>
      <trkpt lat="22.564834" lon="113.979643">
        <ele>38.2</ele>
        <time>2023-07-15T17:35:39.238000+0800</time>
      </trkpt>
      <trkpt lat="22.564796" lon="113.979733">
        <ele>38.3</ele>
        <time>2023-07-15T17:35:42.293000+0800</time>
      </trkpt>
      <trkpt lat="22.564755" lon="113.979861">
        <ele>38.4</ele>
        <time>2023-07-15T17:35:45.282000+0800</time>
      </trkpt>
      <trkpt lat="22.564723" lon="113.979987">
        <ele>38.2</ele>
        <time>2023-07-15T17:35:47.243000+0800</time>
      </trkpt>
      <trkpt lat="22.564692" lon="113.980086">
        <ele>38.1</ele>
        <time>2023-07-15T17:35:49.235000+0800</time>
      </trkpt>
      <trkpt lat="22.564671" lon="113.980185">
        <ele>38</ele>
        <time>2023-07-15T17:35:51.257000+0800</time>
      </trkpt>
      <trkpt lat="22.564646" lon="113.980279">
        <ele>37.9</ele>
        <time>2023-07-15T17:35:53.219000+0800</time>
      </trkpt>
      <trkpt lat="22.564616" lon="113.980375">
        <ele>37.8</ele>
        <time>2023-07-15T17:35:55.234000+0800</time>
      </trkpt>
      <trkpt lat="22.564592" lon="113.980472">
        <ele>37.6</ele>
        <time>2023-07-15T17:35:57.258000+0800</time>
      </trkpt>
      <trkpt lat="22.564579" lon="113.980581">
        <ele>37.5</ele>
        <time>2023-07-15T17:35:59.238000+0800</time>
      </trkpt>
      <trkpt lat="22.564572" lon="113.980708">
        <ele>37.4</ele>
        <time>2023-07-15T17:36:02.208000+0800</time>
      </trkpt>
      <trkpt lat="22.56454" lon="113.980808">
        <ele>37.2</ele>
        <time>2023-07-15T17:36:04.235000+0800</time>
      </trkpt>
      <trkpt lat="22.564513" lon="113.980943">
        <ele>37.1</ele>
        <time>2023-07-15T17:36:07.222000+0800</time>
      </trkpt>
      <trkpt lat="22.564552" lon="113.981073">
        <ele>36.9</ele>
        <time>2023-07-15T17:36:10.254000+0800</time>
      </trkpt>
      <trkpt lat="22.564577" lon="113.981179">
        <ele>36.8</ele>
        <time>2023-07-15T17:36:12.210000+0800</time>
      </trkpt>
      <trkpt lat="22.564542" lon="113.981318">
        <ele>36.6</ele>
        <time>2023-07-15T17:36:15.231000+0800</time>
      </trkpt>
      <trkpt lat="22.564518" lon="113.981412">
        <ele>36.5</ele>
        <time>2023-07-15T17:36:17.231000+0800</time>
      </trkpt>
      <trkpt lat="22.56449" lon="113.981539">
        <ele>36.4</ele>
        <time>2023-07-15T17:36:20.237000+0800</time>
      </trkpt>
      <trkpt lat="22.564465" lon="113.981667">
        <ele>36.2</ele>
        <time>2023-07-15T17:36:23.225000+0800</time>
      </trkpt>
      <trkpt lat="22.564446" lon="113.981769">
        <ele>36.3</ele>
        <time>2023-07-15T17:36:25.239000+0800</time>
      </trkpt>
      <trkpt lat="22.564413" lon="113.981904">
        <ele>36.8</ele>
        <time>2023-07-15T17:36:28.239000+0800</time>
      </trkpt>
      <trkpt lat="22.564385" lon="113.98204">
        <ele>37.3</ele>
        <time>2023-07-15T17:36:31.231000+0800</time>
      </trkpt>
      <trkpt lat="22.564353" lon="113.982181">
        <ele>37.8</ele>
        <time>2023-07-15T17:36:34.242000+0800</time>
      </trkpt>
      <trkpt lat="22.564315" lon="113.982285">
        <ele>38.2</ele>
        <time>2023-07-15T17:36:36.199000+0800</time>
      </trkpt>
      <trkpt lat="22.564276" lon="113.982392">
        <ele>38.6</ele>
        <time>2023-07-15T17:36:38.246000+0800</time>
      </trkpt>
      <trkpt lat="22.564262" lon="113.982514">
        <ele>39</ele>
        <time>2023-07-15T17:36:42.244000+0800</time>
      </trkpt>
      <trkpt lat="22.564241" lon="113.982627">
        <ele>39.4</ele>
        <time>2023-07-15T17:36:45.246000+0800</time>
      </trkpt>
      <trkpt lat="22.564233" lon="113.982748">
        <ele>39.8</ele>
        <time>2023-07-15T17:36:48.203000+0800</time>
      </trkpt>
      <trkpt lat="22.564195" lon="113.982841">
        <ele>40.2</ele>
        <time>2023-07-15T17:36:51.235000+0800</time>
      </trkpt>
      <trkpt lat="22.56416" lon="113.982969">
        <ele>40.7</ele>
        <time>2023-07-15T17:36:54.234000+0800</time>
      </trkpt>
      <trkpt lat="22.564121" lon="113.983075">
        <ele>41</ele>
        <time>2023-07-15T17:36:57.236000+0800</time>
      </trkpt>
      <trkpt lat="22.564082" lon="113.983179">
        <ele>41.4</ele>
        <time>2023-07-15T17:37:00.237000+0800</time>
      </trkpt>
      <trkpt lat="22.564045" lon="113.983277">
        <ele>41.8</ele>
        <time>2023-07-15T17:37:03.221000+0800</time>
      </trkpt>
      <trkpt lat="22.564001" lon="113.98337">
        <ele>42.2</ele>
        <time>2023-07-15T17:37:07.214000+0800</time>
      </trkpt>
      <trkpt lat="22.564013" lon="113.983486">
        <ele>42.6</ele>
        <time>2023-07-15T17:37:13.233000+0800</time>
      </trkpt>
      <trkpt lat="22.56401" lon="113.983597">
        <ele>43</ele>
        <time>2023-07-15T17:37:17.192000+0800</time>
      </trkpt>
      <trkpt lat="22.56397" lon="113.983699">
        <ele>43.6</ele>
        <time>2023-07-15T17:37:21.216000+0800</time>
      </trkpt>
      <trkpt lat="22.563965" lon="113.983814">
        <ele>44.2</ele>
        <time>2023-07-15T17:37:25.257000+0800</time>
      </trkpt>
      <trkpt lat="22.564008" lon="113.983918">
        <ele>44.9</ele>
        <time>2023-07-15T17:37:30.237000+0800</time>
      </trkpt>
      <trkpt lat="22.564067" lon="113.984011">
        <ele>45.5</ele>
        <time>2023-07-15T17:37:36.204000+0800</time>
      </trkpt>
      <trkpt lat="22.564134" lon="113.984133">
        <ele>46.2</ele>
        <time>2023-07-15T17:37:39.232000+0800</time>
      </trkpt>
      <trkpt lat="22.564187" lon="113.984236">
        <ele>46.9</ele>
        <time>2023-07-15T17:37:42.244000+0800</time>
      </trkpt>
      <trkpt lat="22.564267" lon="113.984326">
        <ele>47.6</ele>
        <time>2023-07-15T17:37:45.222000+0800</time>
      </trkpt>
      <trkpt lat="22.564328" lon="113.984408">
        <ele>48.2</ele>
        <time>2023-07-15T17:37:48.247000+0800</time>
      </trkpt>
      <trkpt lat="22.564386" lon="113.984493">
        <ele>48.7</ele>
        <time>2023-07-15T17:37:51.219000+0800</time>
      </trkpt>
      <trkpt lat="22.564444" lon="113.98461">
        <ele>49.5</ele>
        <time>2023-07-15T17:37:55.215000+0800</time>
      </trkpt>
      <trkpt lat="22.564508" lon="113.9847">
        <ele>50.1</ele>
        <time>2023-07-15T17:37:59.239000+0800</time>
      </trkpt>
      <trkpt lat="22.564582" lon="113.984793">
        <ele>50.8</ele>
        <time>2023-07-15T17:38:03.218000+0800</time>
      </trkpt>
      <trkpt lat="22.564647" lon="113.984883">
        <ele>51.4</ele>
        <time>2023-07-15T17:38:07.220000+0800</time>
      </trkpt>
      <trkpt lat="22.564704" lon="113.984978">
        <ele>52</ele>
        <time>2023-07-15T17:38:11.266000+0800</time>
      </trkpt>
      <trkpt lat="22.564759" lon="113.98507">
        <ele>52.6</ele>
        <time>2023-07-15T17:38:15.240000+0800</time>
      </trkpt>
      <trkpt lat="22.56481" lon="113.985157">
        <ele>53.2</ele>
        <time>2023-07-15T17:38:19.209000+0800</time>
      </trkpt>
      <trkpt lat="22.564863" lon="113.985246">
        <ele>53.7</ele>
        <time>2023-07-15T17:38:23.247000+0800</time>
      </trkpt>
      <trkpt lat="22.564924" lon="113.985348">
        <ele>54.4</ele>
        <time>2023-07-15T17:38:28.247000+0800</time>
      </trkpt>
      <trkpt lat="22.564977" lon="113.985434">
        <ele>55</ele>
        <time>2023-07-15T17:38:33.236000+0800</time>
      </trkpt>
      <trkpt lat="22.565034" lon="113.98553">
        <ele>55.6</ele>
        <time>2023-07-15T17:38:38.187000+0800</time>
      </trkpt>
      <trkpt lat="22.565096" lon="113.985625">
        <ele>56.2</ele>
        <time>2023-07-15T17:38:43.250000+0800</time>
      </trkpt>
      <trkpt lat="22.565173" lon="113.985702">
        <ele>56.8</ele>
        <time>2023-07-15T17:38:49.244000+0800</time>
      </trkpt>
      <trkpt lat="22.565262" lon="113.985772">
        <ele>57.4</ele>
        <time>2023-07-15T17:38:53.244000+0800</time>
      </trkpt>
      <trkpt lat="22.56534" lon="113.985833">
        <ele>58</ele>
        <time>2023-07-15T17:38:57.242000+0800</time>
      </trkpt>
      <trkpt lat="22.565402" lon="113.985921">
        <ele>58.6</ele>
        <time>2023-07-15T17:39:02.251000+0800</time>
      </trkpt>
      <trkpt lat="22.565478" lon="113.98599">
        <ele>59.1</ele>
        <time>2023-07-15T17:39:05.196000+0800</time>
      </trkpt>
      <trkpt lat="22.565538" lon="113.986069">
        <ele>59.7</ele>
        <time>2023-07-15T17:39:09.260000+0800</time>
      </trkpt>
      <trkpt lat="22.565615" lon="113.986151">
        <ele>60.3</ele>
        <time>2023-07-15T17:39:13.257000+0800</time>
      </trkpt>
      <trkpt lat="22.565687" lon="113.986252">
        <ele>61</ele>
        <time>2023-07-15T17:39:17.209000+0800</time>
      </trkpt>
      <trkpt lat="22.565745" lon="113.986346">
        <ele>61.6</ele>
        <time>2023-07-15T17:39:20.244000+0800</time>
      </trkpt>
      <trkpt lat="22.565799" lon="113.986436">
        <ele>62.2</ele>
        <time>2023-07-15T17:39:23.244000+0800</time>
      </trkpt>
      <trkpt lat="22.565855" lon="113.986519">
        <ele>62.7</ele>
        <time>2023-07-15T17:39:26.242000+0800</time>
      </trkpt>
      <trkpt lat="22.565909" lon="113.986606">
        <ele>63.3</ele>
        <time>2023-07-15T17:39:29.231000+0800</time>
      </trkpt>
      <trkpt lat="22.565963" lon="113.9867">
        <ele>63.9</ele>
        <time>2023-07-15T17:39:32.229000+0800</time>
      </trkpt>
      <trkpt lat="22.566054" lon="113.986808">
        <ele>64.4</ele>
        <time>2023-07-15T17:39:35.242000+0800</time>
      </trkpt>
      <trkpt lat="22.566146" lon="113.986864">
        <ele>64.8</ele>
        <time>2023-07-15T17:39:37.254000+0800</time>
      </trkpt>
      <trkpt lat="22.566244" lon="113.986931">
        <ele>65.2</ele>
        <time>2023-07-15T17:39:39.190000+0800</time>
      </trkpt>
      <trkpt lat="22.566336" lon="113.986994">
        <ele>65.6</ele>
        <time>2023-07-15T17:39:41.249000+0800</time>
      </trkpt>
      <trkpt lat="22.566437" lon="113.987049">
        <ele>66</ele>
        <time>2023-07-15T17:39:43.253000+0800</time>
      </trkpt>
      <trkpt lat="22.566541" lon="113.987095">
        <ele>66.4</ele>
        <time>2023-07-15T17:39:45.237000+0800</time>
      </trkpt>
      <trkpt lat="22.566643" lon="113.987116">
        <ele>66.8</ele>
        <time>2023-07-15T17:39:47.226000+0800</time>
      </trkpt>
      <trkpt lat="22.566741" lon="113.987153">
        <ele>67.2</ele>
        <time>2023-07-15T17:39:49.196000+0800</time>
      </trkpt>
      <trkpt lat="22.566865" lon="113.987208">
        <ele>67.6</ele>
        <time>2023-07-15T17:39:52.248000+0800</time>
      </trkpt>
      <trkpt lat="22.566969" lon="113.987254">
        <ele>68</ele>
        <time>2023-07-15T17:39:55.167000+0800</time>
      </trkpt>
      <trkpt lat="22.567052" lon="113.987306">
        <ele>68.4</ele>
        <time>2023-07-15T17:39:57.264000+0800</time>
      </trkpt>
      <trkpt lat="22.567148" lon="113.987365">
        <ele>68.8</ele>
        <time>2023-07-15T17:40:00.238000+0800</time>
      </trkpt>
      <trkpt lat="22.567291" lon="113.98736">
        <ele>69.3</ele>
        <time>2023-07-15T17:40:35.265000+0800</time>
      </trkpt>
      <trkpt lat="22.567377" lon="113.987322">
        <ele>69.6</ele>
        <time>2023-07-15T17:40:39.220000+0800</time>
      </trkpt>
      <trkpt lat="22.567469" lon="113.987302">
        <ele>70</ele>
        <time>2023-07-15T17:40:43.233000+0800</time>
      </trkpt>
      <trkpt lat="22.567564" lon="113.987295">
        <ele>70.3</ele>
        <time>2023-07-15T17:40:47.206000+0800</time>
      </trkpt>
      <trkpt lat="22.567668" lon="113.987298">
        <ele>70.5</ele>
        <time>2023-07-15T17:40:51.244000+0800</time>
      </trkpt>
      <trkpt lat="22.567983" lon="113.987275">
        <ele>70.5</ele>
        <time>2023-07-15T17:42:07.228000+0800</time>
      </trkpt>
      <trkpt lat="22.568084" lon="113.987258">
        <ele>70.5</ele>
        <time>2023-07-15T17:42:10.269000+0800</time>
      </trkpt>
      <trkpt lat="22.568183" lon="113.987202">
        <ele>70.5</ele>
        <time>2023-07-15T17:42:13.267000+0800</time>
      </trkpt>
      <trkpt lat="22.568264" lon="113.987096">
        <ele>70.5</ele>
        <time>2023-07-15T17:42:16.274000+0800</time>
      </trkpt>
      <trkpt lat="22.568311" lon="113.987007">
        <ele>70.5</ele>
        <time>2023-07-15T17:42:19.255000+0800</time>
      </trkpt>
      <trkpt lat="22.568359" lon="113.986914">
        <ele>70.5</ele>
        <time>2023-07-15T17:42:22.262000+0800</time>
      </trkpt>
      <trkpt lat="22.568416" lon="113.986838">
        <ele>70.5</ele>
        <time>2023-07-15T17:42:25.233000+0800</time>
      </trkpt>
      <trkpt lat="22.568471" lon="113.986755">
        <ele>70.5</ele>
        <time>2023-07-15T17:42:29.250000+0800</time>
      </trkpt>
      <trkpt lat="22.568409" lon="113.986861">
        <ele>70.5</ele>
        <time>2023-07-15T17:42:40.232000+0800</time>
      </trkpt>
      <trkpt lat="22.568317" lon="113.986827">
        <ele>70.5</ele>
        <time>2023-07-15T17:42:43.241000+0800</time>
      </trkpt>
      <trkpt lat="22.56822" lon="113.98684">
        <ele>70.5</ele>
        <time>2023-07-15T17:42:48.244000+0800</time>
      </trkpt>
      <trkpt lat="22.56824" lon="113.98684">
        <ele>70.5</ele>
        <time>2023-07-15T17:43:48.729000+0800</time>
      </trkpt>
    </trkseg>
  </trk>
</gpx>