<?xml version="1.0" encoding="UTF-8"?>
<gpx xmlns="http://www.topografix.com/GPX/1/1" xmlns:xsi="http://www.w3.org/2001/XMLSchema-instance" xsi:schemaLocation="http://www.topografix.com/GPX/1/1 http://www.topografix.com/GPX/1/1/gpx.xsd" version="1.1" creator="鹏">
  <metadata>
    <name>Hike (Completed)</name>
    <desc>Distance: 1.555km, Estimated duration: 0.73h, Elevation up: 273.24340907563897m, Elevation down: 0.0m</desc>
    <author>
      <name>鹏</name>
      <link href="https://www.komoot.de/user/3342641231843">
        <text>View 鹏's Profile on Komoot</text>
      </link>
    </author>
    <link href="https://www.komoot.de/tour/1226445851">
      <text>View tour on Komoot</text>
    </link>
  </metadata>
  <trk>
    <name>Hike (Completed)</name>
    <desc>Distance: 1.555km, Estimated duration: 0.73h, Elevation up: 273.24340907563897m, Elevation down: 0.0m</desc>
    <link href="https://www.komoot.de/tour/1226445851">
      <text>View tour on Komoot</text>
    </link>
    <trkseg>
      <trkpt lat="22.567803" lon="113.978272">
        <ele>118.4</ele>
        <time>2023-07-23T17:56:08.831000+0800</time>
      </trkpt>
      <trkpt lat="22.567904" lon="113.978303">
        <ele>118.4</ele>
        <time>2023-07-23T17:56:29.556000+0800</time>
      </trkpt>
      <trkpt lat="22.568037" lon="113.978268">
        <ele>118.4</ele>
        <time>2023-07-23T17:57:13.471000+0800</time>
      </trkpt>
      <trkpt lat="22.568126" lon="113.978241">
        <ele>118.4</ele>
        <time>2023-07-23T17:57:45.486000+0800</time>
      </trkpt>
      <trkpt lat="22.568211" lon="113.9782">
        <ele>118.4</ele>
        <time>2023-07-23T17:58:09.480000+0800</time>
      </trkpt>
      <trkpt lat="22.568293" lon="113.978158">
        <ele>118.4</ele>
        <time>2023-07-23T17:58:32.507000+0800</time>
      </trkpt>
      <trkpt lat="22.568386" lon="113.978137">
        <ele>118.4</ele>
        <time>2023-07-23T17:58:49.482000+0800</time>
      </trkpt>
      <trkpt lat="22.568473" lon="113.978108">
        <ele>118.4</ele>
        <time>2023-07-23T17:58:58.474000+0800</time>
      </trkpt>
      <trkpt lat="22.568564" lon="113.978121">
        <ele>118.4</ele>
        <time>2023-07-23T17:59:27.513000+0800</time>
      </trkpt>
      <trkpt lat="22.568658" lon="113.978104">
        <ele>118.4</ele>
        <time>2023-07-23T17:59:46.482000+0800</time>
      </trkpt>
      <trkpt lat="22.568749" lon="113.978118">
        <ele>120.4</ele>
        <time>2023-07-23T18:00:04.487000+0800</time>
      </trkpt>
      <trkpt lat="22.568827" lon="113.978055">
        <ele>122.6</ele>
        <time>2023-07-23T18:00:21.514000+0800</time>
      </trkpt>
      <trkpt lat="22.568843" lon="113.977951">
        <ele>124.8</ele>
        <time>2023-07-23T18:00:30.499000+0800</time>
      </trkpt>
      <trkpt lat="22.568868" lon="113.977853">
        <ele>127</ele>
        <time>2023-07-23T18:00:37.467000+0800</time>
      </trkpt>
      <trkpt lat="22.568951" lon="113.977808">
        <ele>129.1</ele>
        <time>2023-07-23T18:00:46.424000+0800</time>
      </trkpt>
      <trkpt lat="22.569028" lon="113.977743">
        <ele>131.4</ele>
        <time>2023-07-23T18:00:56.471000+0800</time>
      </trkpt>
      <trkpt lat="22.569109" lon="113.977684">
        <ele>133.6</ele>
        <time>2023-07-23T18:01:04.475000+0800</time>
      </trkpt>
      <trkpt lat="22.569193" lon="113.977628">
        <ele>135.9</ele>
        <time>2023-07-23T18:01:13.463000+0800</time>
      </trkpt>
      <trkpt lat="22.569244" lon="113.977544">
        <ele>138</ele>
        <time>2023-07-23T18:01:21.496000+0800</time>
      </trkpt>
      <trkpt lat="22.569294" lon="113.977458">
        <ele>140.2</ele>
        <time>2023-07-23T18:01:29.515000+0800</time>
      </trkpt>
      <trkpt lat="22.569362" lon="113.977373">
        <ele>142.6</ele>
        <time>2023-07-23T18:01:35.474000+0800</time>
      </trkpt>
      <trkpt lat="22.569452" lon="113.977349">
        <ele>144.7</ele>
        <time>2023-07-23T18:01:45.484000+0800</time>
      </trkpt>
      <trkpt lat="22.569542" lon="113.977373">
        <ele>146.8</ele>
        <time>2023-07-23T18:01:52.513000+0800</time>
      </trkpt>
      <trkpt lat="22.56963" lon="113.977419">
        <ele>149.1</ele>
        <time>2023-07-23T18:02:02.488000+0800</time>
      </trkpt>
      <trkpt lat="22.569724" lon="113.977456">
        <ele>151.4</ele>
        <time>2023-07-23T18:02:14.562000+0800</time>
      </trkpt>
      <trkpt lat="22.569823" lon="113.977444">
        <ele>153.7</ele>
        <time>2023-07-23T18:02:22.503000+0800</time>
      </trkpt>
      <trkpt lat="22.569873" lon="113.977526">
        <ele>155.8</ele>
        <time>2023-07-23T18:02:37.548000+0800</time>
      </trkpt>
      <trkpt lat="22.569921" lon="113.97761">
        <ele>157.8</ele>
        <time>2023-07-23T18:02:47.554000+0800</time>
      </trkpt>
      <trkpt lat="22.569985" lon="113.977685">
        <ele>160</ele>
        <time>2023-07-23T18:02:58.578000+0800</time>
      </trkpt>
      <trkpt lat="22.570014" lon="113.977784">
        <ele>162.5</ele>
        <time>2023-07-23T18:03:11.557000+0800</time>
      </trkpt>
      <trkpt lat="22.570034" lon="113.97788">
        <ele>164.8</ele>
        <time>2023-07-23T18:03:22.553000+0800</time>
      </trkpt>
      <trkpt lat="22.570017" lon="113.977991">
        <ele>167.4</ele>
        <time>2023-07-23T18:03:32.549000+0800</time>
      </trkpt>
      <trkpt lat="22.570079" lon="113.978066">
        <ele>169.7</ele>
        <time>2023-07-23T18:03:46.505000+0800</time>
      </trkpt>
      <trkpt lat="22.57016" lon="113.978115">
        <ele>172.1</ele>
        <time>2023-07-23T18:04:00.545000+0800</time>
      </trkpt>
      <trkpt lat="22.570127" lon="113.97821">
        <ele>174.4</ele>
        <time>2023-07-23T18:04:14.547000+0800</time>
      </trkpt>
      <trkpt lat="22.570135" lon="113.97831">
        <ele>176.8</ele>
        <time>2023-07-23T18:04:23.546000+0800</time>
      </trkpt>
      <trkpt lat="22.570166" lon="113.978403">
        <ele>179.1</ele>
        <time>2023-07-23T18:04:34.481000+0800</time>
      </trkpt>
      <trkpt lat="22.570202" lon="113.978496">
        <ele>181.4</ele>
        <time>2023-07-23T18:04:47.543000+0800</time>
      </trkpt>
      <trkpt lat="22.570199" lon="113.978594">
        <ele>183.7</ele>
        <time>2023-07-23T18:05:00.564000+0800</time>
      </trkpt>
      <trkpt lat="22.57022" lon="113.978696">
        <ele>186.1</ele>
        <time>2023-07-23T18:05:14.579000+0800</time>
      </trkpt>
      <trkpt lat="22.570266" lon="113.978784">
        <ele>188.5</ele>
        <time>2023-07-23T18:05:24.523000+0800</time>
      </trkpt>
      <trkpt lat="22.570276" lon="113.978885">
        <ele>190.9</ele>
        <time>2023-07-23T18:05:34.546000+0800</time>
      </trkpt>
      <trkpt lat="22.570274" lon="113.978989">
        <ele>193.3</ele>
        <time>2023-07-23T18:05:46.550000+0800</time>
      </trkpt>
      <trkpt lat="22.570198" lon="113.979048">
        <ele>195.7</ele>
        <time>2023-07-23T18:05:57.542000+0800</time>
      </trkpt>
      <trkpt lat="22.570169" lon="113.979143">
        <ele>198</ele>
        <time>2023-07-23T18:06:07.517000+0800</time>
      </trkpt>
      <trkpt lat="22.570134" lon="113.97924">
        <ele>200.4</ele>
        <time>2023-07-23T18:06:16.503000+0800</time>
      </trkpt>
      <trkpt lat="22.570213" lon="113.979312">
        <ele>203</ele>
        <time>2023-07-23T18:06:26.507000+0800</time>
      </trkpt>
      <trkpt lat="22.570292" lon="113.97937">
        <ele>205.4</ele>
        <time>2023-07-23T18:06:37.558000+0800</time>
      </trkpt>
      <trkpt lat="22.570388" lon="113.979381">
        <ele>207.2</ele>
        <time>2023-07-23T18:06:47.523000+0800</time>
      </trkpt>
      <trkpt lat="22.570465" lon="113.979447">
        <ele>209.1</ele>
        <time>2023-07-23T18:06:55.574000+0800</time>
      </trkpt>
      <trkpt lat="22.570547" lon="113.979492">
        <ele>210.9</ele>
        <time>2023-07-23T18:07:03.550000+0800</time>
      </trkpt>
      <trkpt lat="22.570625" lon="113.979544">
        <ele>212.7</ele>
        <time>2023-07-23T18:07:12.508000+0800</time>
      </trkpt>
      <trkpt lat="22.570709" lon="113.979593">
        <ele>214.5</ele>
        <time>2023-07-23T18:07:25.556000+0800</time>
      </trkpt>
      <trkpt lat="22.570798" lon="113.979634">
        <ele>216.4</ele>
        <time>2023-07-23T18:07:35.559000+0800</time>
      </trkpt>
      <trkpt lat="22.570862" lon="113.979703">
        <ele>218.1</ele>
        <time>2023-07-23T18:07:47.560000+0800</time>
      </trkpt>
      <trkpt lat="22.570928" lon="113.979777">
        <ele>220</ele>
        <time>2023-07-23T18:07:52.521000+0800</time>
      </trkpt>
      <trkpt lat="22.570925" lon="113.979875">
        <ele>221.7</ele>
        <time>2023-07-23T18:07:58.515000+0800</time>
      </trkpt>
      <trkpt lat="22.570966" lon="113.979968">
        <ele>223.6</ele>
        <time>2023-07-23T18:08:08.436000+0800</time>
      </trkpt>
      <trkpt lat="22.570998" lon="113.980067">
        <ele>225.5</ele>
        <time>2023-07-23T18:08:21.524000+0800</time>
      </trkpt>
      <trkpt lat="22.571057" lon="113.980153">
        <ele>227.4</ele>
        <time>2023-07-23T18:08:32.542000+0800</time>
      </trkpt>
      <trkpt lat="22.571115" lon="113.980241">
        <ele>229.3</ele>
        <time>2023-07-23T18:08:44.524000+0800</time>
      </trkpt>
      <trkpt lat="22.571204" lon="113.980285">
        <ele>231.2</ele>
        <time>2023-07-23T18:08:52.580000+0800</time>
      </trkpt>
      <trkpt lat="22.571276" lon="113.98035">
        <ele>233</ele>
        <time>2023-07-23T18:08:59.559000+0800</time>
      </trkpt>
      <trkpt lat="22.571371" lon="113.980369">
        <ele>234.9</ele>
        <time>2023-07-23T18:09:07.559000+0800</time>
      </trkpt>
      <trkpt lat="22.571468" lon="113.980359">
        <ele>236.8</ele>
        <time>2023-07-23T18:09:21.510000+0800</time>
      </trkpt>
      <trkpt lat="22.571511" lon="113.980445">
        <ele>238.5</ele>
        <time>2023-07-23T18:09:36.533000+0800</time>
      </trkpt>
      <trkpt lat="22.571433" lon="113.980507">
        <ele>240.6</ele>
        <time>2023-07-23T18:10:03.524000+0800</time>
      </trkpt>
      <trkpt lat="22.571356" lon="113.980566">
        <ele>243.4</ele>
        <time>2023-07-23T18:10:15.546000+0800</time>
      </trkpt>
      <trkpt lat="22.57133" lon="113.980688">
        <ele>246.9</ele>
        <time>2023-07-23T18:10:24.561000+0800</time>
      </trkpt>
      <trkpt lat="22.571357" lon="113.980785">
        <ele>249.7</ele>
        <time>2023-07-23T18:10:32.550000+0800</time>
      </trkpt>
      <trkpt lat="22.571416" lon="113.980865">
        <ele>252.6</ele>
        <time>2023-07-23T18:10:44.549000+0800</time>
      </trkpt>
      <trkpt lat="22.571505" lon="113.980896">
        <ele>255.4</ele>
        <time>2023-07-23T18:10:52.585000+0800</time>
      </trkpt>
      <trkpt lat="22.571587" lon="113.98085">
        <ele>258.2</ele>
        <time>2023-07-23T18:11:02.528000+0800</time>
      </trkpt>
      <trkpt lat="22.571674" lon="113.980799">
        <ele>261.2</ele>
        <time>2023-07-23T18:11:12.476000+0800</time>
      </trkpt>
      <trkpt lat="22.571763" lon="113.980775">
        <ele>264</ele>
        <time>2023-07-23T18:11:21.502000+0800</time>
      </trkpt>
      <trkpt lat="22.571856" lon="113.98073">
        <ele>267</ele>
        <time>2023-07-23T18:11:33.539000+0800</time>
      </trkpt>
      <trkpt lat="22.571949" lon="113.980718">
        <ele>269.9</ele>
        <time>2023-07-23T18:11:49.516000+0800</time>
      </trkpt>
      <trkpt lat="22.572268" lon="113.980821">
        <ele>279.9</ele>
        <time>2023-07-23T18:13:13.542000+0800</time>
      </trkpt>
      <trkpt lat="22.572358" lon="113.98082">
        <ele>282.6</ele>
        <time>2023-07-23T18:13:46.548000+0800</time>
      </trkpt>
      <trkpt lat="22.57245" lon="113.9808">
        <ele>285.4</ele>
        <time>2023-07-23T18:13:54.560000+0800</time>
      </trkpt>
      <trkpt lat="22.572545" lon="113.980784">
        <ele>288.3</ele>
        <time>2023-07-23T18:14:07.559000+0800</time>
      </trkpt>
      <trkpt lat="22.572633" lon="113.980758">
        <ele>291.1</ele>
        <time>2023-07-23T18:14:26.567000+0800</time>
      </trkpt>
      <trkpt lat="22.572731" lon="113.980753">
        <ele>294</ele>
        <time>2023-07-23T18:14:45.567000+0800</time>
      </trkpt>
      <trkpt lat="22.572815" lon="113.980717">
        <ele>297.8</ele>
        <time>2023-07-23T18:15:03.568000+0800</time>
      </trkpt>
      <trkpt lat="22.572942" lon="113.980687">
        <ele>303.3</ele>
        <time>2023-07-23T18:15:40.590000+0800</time>
      </trkpt>
      <trkpt lat="22.573144" lon="113.980652">
        <ele>311.9</ele>
        <time>2023-07-23T18:16:56.587000+0800</time>
      </trkpt>
      <trkpt lat="22.573224" lon="113.980699">
        <ele>315.8</ele>
        <time>2023-07-23T18:17:14.573000+0800</time>
      </trkpt>
      <trkpt lat="22.573293" lon="113.980762">
        <ele>319.6</ele>
        <time>2023-07-23T18:17:39.576000+0800</time>
      </trkpt>
      <trkpt lat="22.573371" lon="113.980819">
        <ele>323.5</ele>
        <time>2023-07-23T18:18:06.561000+0800</time>
      </trkpt>
      <trkpt lat="22.573459" lon="113.980872">
        <ele>327.8</ele>
        <time>2023-07-23T18:18:33.603000+0800</time>
      </trkpt>
      <trkpt lat="22.573524" lon="113.98096">
        <ele>332.2</ele>
        <time>2023-07-23T18:19:13.588000+0800</time>
      </trkpt>
      <trkpt lat="22.57361" lon="113.980998">
        <ele>336.1</ele>
        <time>2023-07-23T18:19:38.548000+0800</time>
      </trkpt>
      <trkpt lat="22.573589" lon="113.980892">
        <ele>340.3</ele>
        <time>2023-07-23T18:20:11.536000+0800</time>
      </trkpt>
      <trkpt lat="22.573552" lon="113.980795">
        <ele>344.4</ele>
        <time>2023-07-23T18:20:20.549000+0800</time>
      </trkpt>
      <trkpt lat="22.573636" lon="113.98076">
        <ele>348.2</ele>
        <time>2023-07-23T18:20:44.531000+0800</time>
      </trkpt>
      <trkpt lat="22.573721" lon="113.980718">
        <ele>352.2</ele>
        <time>2023-07-23T18:21:11.566000+0800</time>
      </trkpt>
      <trkpt lat="22.57379" lon="113.98065">
        <ele>356.1</ele>
        <time>2023-07-23T18:21:25.579000+0800</time>
      </trkpt>
      <trkpt lat="22.57384" lon="113.980569">
        <ele>359.9</ele>
        <time>2023-07-23T18:21:41.574000+0800</time>
      </trkpt>
      <trkpt lat="22.573912" lon="113.980502">
        <ele>363.9</ele>
        <time>2023-07-23T18:22:15.553000+0800</time>
      </trkpt>
      <trkpt lat="22.573978" lon="113.980434">
        <ele>367.8</ele>
        <time>2023-07-23T18:22:28.548000+0800</time>
      </trkpt>
      <trkpt lat="22.574067" lon="113.980398">
        <ele>370.6</ele>
        <time>2023-07-23T18:22:40.571000+0800</time>
      </trkpt>
      <trkpt lat="22.574146" lon="113.980337">
        <ele>371.8</ele>
        <time>2023-07-23T18:22:50.585000+0800</time>
      </trkpt>
      <trkpt lat="22.574181" lon="113.980246">
        <ele>372.9</ele>
        <time>2023-07-23T18:22:59.519000+0800</time>
      </trkpt>
      <trkpt lat="22.574241" lon="113.980163">
        <ele>374</ele>
        <time>2023-07-23T18:23:11.595000+0800</time>
      </trkpt>
      <trkpt lat="22.57431" lon="113.980092">
        <ele>375.2</ele>
        <time>2023-07-23T18:23:21.588000+0800</time>
      </trkpt>
      <trkpt lat="22.574387" lon="113.980037">
        <ele>376.3</ele>
        <time>2023-07-23T18:23:31.511000+0800</time>
      </trkpt>
      <trkpt lat="22.574473" lon="113.980006">
        <ele>377.4</ele>
        <time>2023-07-23T18:23:39.492000+0800</time>
      </trkpt>
      <trkpt lat="22.574551" lon="113.979957">
        <ele>378.5</ele>
        <time>2023-07-23T18:23:54.510000+0800</time>
      </trkpt>
      <trkpt lat="22.57464" lon="113.979936">
        <ele>379.5</ele>
        <time>2023-07-23T18:24:12.489000+0800</time>
      </trkpt>
      <trkpt lat="22.57473" lon="113.979911">
        <ele>380.7</ele>
        <time>2023-07-23T18:24:47.510000+0800</time>
      </trkpt>
      <trkpt lat="22.574831" lon="113.979885">
        <ele>381.9</ele>
        <time>2023-07-23T18:25:13.528000+0800</time>
      </trkpt>
      <trkpt lat="22.574979" lon="113.979866">
        <ele>383.7</ele>
        <time>2023-07-23T18:25:37.556000+0800</time>
      </trkpt>
      <trkpt lat="22.575049" lon="113.979794">
        <ele>384.8</ele>
        <time>2023-07-23T18:25:45.498000+0800</time>
      </trkpt>
      <trkpt lat="22.575135" lon="113.979762">
        <ele>385.9</ele>
        <time>2023-07-23T18:25:55.540000+0800</time>
      </trkpt>
      <trkpt lat="22.575211" lon="113.979696">
        <ele>387.1</ele>
        <time>2023-07-23T18:26:14.539000+0800</time>
      </trkpt>
      <trkpt lat="22.575226" lon="113.979595">
        <ele>388.2</ele>
        <time>2023-07-23T18:26:37.518000+0800</time>
      </trkpt>
      <trkpt lat="22.575236" lon="113.979489">
        <ele>389.4</ele>
        <time>2023-07-23T18:26:47.567000+0800</time>
      </trkpt>
      <trkpt lat="22.575327" lon="113.979515">
        <ele>390.5</ele>
        <time>2023-07-23T18:27:10.496000+0800</time>
      </trkpt>
      <trkpt lat="22.575504" lon="113.97962">
        <ele>391.7</ele>
        <time>2023-07-23T18:27:51.551000+0800</time>
      </trkpt>
      <trkpt lat="22.57557" lon="113.979704">
        <ele>391.7</ele>
        <time>2023-07-23T18:27:58.569000+0800</time>
      </trkpt>
      <trkpt lat="22.575607" lon="113.979795">
        <ele>391.7</ele>
        <time>2023-07-23T18:28:12.511000+0800</time>
      </trkpt>
      <trkpt lat="22.575661" lon="113.979882">
        <ele>391.7</ele>
        <time>2023-07-23T18:28:26.551000+0800</time>
      </trkpt>
      <trkpt lat="22.575742" lon="113.979944">
        <ele>391.7</ele>
        <time>2023-07-23T18:28:45.569000+0800</time>
      </trkpt>
      <trkpt lat="22.575783" lon="113.980034">
        <ele>391.7</ele>
        <time>2023-07-23T18:29:03.598000+0800</time>
      </trkpt>
      <trkpt lat="22.575816" lon="113.980127">
        <ele>391.7</ele>
        <time>2023-07-23T18:29:18.584000+0800</time>
      </trkpt>
      <trkpt lat="22.575831" lon="113.980232">
        <ele>391.7</ele>
        <time>2023-07-23T18:29:30.602000+0800</time>
      </trkpt>
      <trkpt lat="22.575846" lon="113.980332">
        <ele>391.7</ele>
        <time>2023-07-23T18:29:41.518000+0800</time>
      </trkpt>
      <trkpt lat="22.575862" lon="113.98043">
        <ele>391.7</ele>
        <time>2023-07-23T18:30:06.594000+0800</time>
      </trkpt>
      <trkpt lat="22.575908" lon="113.980516">
        <ele>391.7</ele>
        <time>2023-07-23T18:30:37.512000+0800</time>
      </trkpt>
      <trkpt lat="22.575896" lon="113.980614">
        <ele>391.7</ele>
        <time>2023-07-23T18:31:03.554000+0800</time>
      </trkpt>
      <trkpt lat="22.575934" lon="113.980704">
        <ele>391.7</ele>
        <time>2023-07-23T18:31:13.585000+0800</time>
      </trkpt>
      <trkpt lat="22.575967" lon="113.980796">
        <ele>391.7</ele>
        <time>2023-07-23T18:31:21.594000+0800</time>
      </trkpt>
      <trkpt lat="22.576009" lon="113.980893">
        <ele>391.7</ele>
        <time>2023-07-23T18:31:28.579000+0800</time>
      </trkpt>
      <trkpt lat="22.57606" lon="113.980981">
        <ele>391.7</ele>
        <time>2023-07-23T18:31:36.593000+0800</time>
      </trkpt>
      <trkpt lat="22.576129" lon="113.981048">
        <ele>391.7</ele>
        <time>2023-07-23T18:31:44.584000+0800</time>
      </trkpt>
      <trkpt lat="22.576182" lon="113.981131">
        <ele>391.7</ele>
        <time>2023-07-23T18:31:57.497000+0800</time>
      </trkpt>
      <trkpt lat="22.576182" lon="113.981216">
        <ele>391.7</ele>
        <time>2023-07-23T18:32:07.524000+0800</time>
      </trkpt>
      <trkpt lat="22.576367" lon="113.981164">
        <ele>391.7</ele>
        <time>2023-07-23T18:39:40.491000+0800</time>
      </trkpt>
      <trkpt lat="22.576373" lon="113.981165">
        <ele>391.7</ele>
        <time>2023-07-23T18:39:53.948000+0800</time>
      </trkpt>
    </trkseg>
  </trk>
</gpx>