<?xml version="1.0" encoding="UTF-8"?>
<gpx xmlns="http://www.topografix.com/GPX/1/1" xmlns:xsi="http://www.w3.org/2001/XMLSchema-instance" xsi:schemaLocation="http://www.topografix.com/GPX/1/1 http://www.topografix.com/GPX/1/1/gpx.xsd" version="1.1" creator="鹏">
  <metadata>
    <name>Cycling (Completed)</name>
    <desc>Distance: 3.833km, Estimated duration: 0.17h, Elevation up: 5.0m, Elevation down: 3.0m</desc>
    <author>
      <name>鹏</name>
      <link href="https://www.komoot.de/user/3342641231843">
        <text>View 鹏's Profile on Komoot</text>
      </link>
    </author>
    <link href="https://www.komoot.de/tour/1238287945">
      <text>View tour on Komoot</text>
    </link>
  </metadata>
  <trk>
    <name>Cycling (Completed)</name>
    <desc>Distance: 3.833km, Estimated duration: 0.17h, Elevation up: 5.0m, Elevation down: 3.0m</desc>
    <link href="https://www.komoot.de/tour/1238287945">
      <text>View tour on Komoot</text>
    </link>
    <trkseg>
      <trkpt lat="22.529755" lon="113.950981">
        <ele>23.4</ele>
        <time>2023-07-31T10:43:55Z</time>
      </trkpt>
      <trkpt lat="22.529816" lon="113.950985">
        <ele>23.4</ele>
        <time>2023-07-31T10:44:16Z</time>
      </trkpt>
      <trkpt lat="22.529878" lon="113.950988">
        <ele>23.4</ele>
        <time>2023-07-31T10:44:17Z</time>
      </trkpt>
      <trkpt lat="22.529939" lon="113.950989">
        <ele>23.4</ele>
        <time>2023-07-31T10:44:18Z</time>
      </trkpt>
      <trkpt lat="22.529996" lon="113.950989">
        <ele>23.4</ele>
        <time>2023-07-31T10:44:19Z</time>
      </trkpt>
      <trkpt lat="22.530056" lon="113.950996">
        <ele>23.4</ele>
        <time>2023-07-31T10:44:20Z</time>
      </trkpt>
      <trkpt lat="22.530112" lon="113.951004">
        <ele>23.4</ele>
        <time>2023-07-31T10:44:21Z</time>
      </trkpt>
      <trkpt lat="22.530169" lon="113.950997">
        <ele>23.4</ele>
        <time>2023-07-31T10:44:22Z</time>
      </trkpt>
      <trkpt lat="22.530231" lon="113.951003">
        <ele>23.4</ele>
        <time>2023-07-31T10:44:23Z</time>
      </trkpt>
      <trkpt lat="22.530297" lon="113.951011">
        <ele>23.4</ele>
        <time>2023-07-31T10:44:24Z</time>
      </trkpt>
      <trkpt lat="22.530363" lon="113.951012">
        <ele>23.4</ele>
        <time>2023-07-31T10:44:25Z</time>
      </trkpt>
      <trkpt lat="22.530433" lon="113.951012">
        <ele>23.4</ele>
        <time>2023-07-31T10:44:26Z</time>
      </trkpt>
      <trkpt lat="22.530504" lon="113.951019">
        <ele>23.4</ele>
        <time>2023-07-31T10:44:27Z</time>
      </trkpt>
      <trkpt lat="22.530572" lon="113.951026">
        <ele>23.4</ele>
        <time>2023-07-31T10:44:28Z</time>
      </trkpt>
      <trkpt lat="22.530642" lon="113.951027">
        <ele>23.4</ele>
        <time>2023-07-31T10:44:29Z</time>
      </trkpt>
      <trkpt lat="22.530715" lon="113.951034">
        <ele>23.4</ele>
        <time>2023-07-31T10:44:30Z</time>
      </trkpt>
      <trkpt lat="22.530788" lon="113.951035">
        <ele>23.4</ele>
        <time>2023-07-31T10:44:31Z</time>
      </trkpt>
      <trkpt lat="22.530859" lon="113.951042">
        <ele>23.4</ele>
        <time>2023-07-31T10:44:32Z</time>
      </trkpt>
      <trkpt lat="22.530931" lon="113.951049">
        <ele>23.4</ele>
        <time>2023-07-31T10:44:33Z</time>
      </trkpt>
      <trkpt lat="22.531004" lon="113.951057">
        <ele>23.4</ele>
        <time>2023-07-31T10:44:34Z</time>
      </trkpt>
      <trkpt lat="22.531071" lon="113.951064">
        <ele>23.4</ele>
        <time>2023-07-31T10:44:35Z</time>
      </trkpt>
      <trkpt lat="22.531151" lon="113.951072">
        <ele>23.4</ele>
        <time>2023-07-31T10:44:36Z</time>
      </trkpt>
      <trkpt lat="22.531228" lon="113.95108">
        <ele>23.4</ele>
        <time>2023-07-31T10:44:37Z</time>
      </trkpt>
      <trkpt lat="22.531306" lon="113.951087">
        <ele>23.4</ele>
        <time>2023-07-31T10:44:38Z</time>
      </trkpt>
      <trkpt lat="22.531383" lon="113.951095">
        <ele>23.4</ele>
        <time>2023-07-31T10:44:39Z</time>
      </trkpt>
      <trkpt lat="22.531459" lon="113.951096">
        <ele>23.4</ele>
        <time>2023-07-31T10:44:40Z</time>
      </trkpt>
      <trkpt lat="22.531536" lon="113.951103">
        <ele>23.4</ele>
        <time>2023-07-31T10:44:41Z</time>
      </trkpt>
      <trkpt lat="22.53161" lon="113.951103">
        <ele>23.4</ele>
        <time>2023-07-31T10:44:42Z</time>
      </trkpt>
      <trkpt lat="22.531688" lon="113.95111">
        <ele>23.4</ele>
        <time>2023-07-31T10:44:43Z</time>
      </trkpt>
      <trkpt lat="22.531762" lon="113.951111">
        <ele>23.4</ele>
        <time>2023-07-31T10:44:44Z</time>
      </trkpt>
      <trkpt lat="22.531842" lon="113.951118">
        <ele>23.4</ele>
        <time>2023-07-31T10:44:45Z</time>
      </trkpt>
      <trkpt lat="22.531907" lon="113.951126">
        <ele>23.4</ele>
        <time>2023-07-31T10:44:46Z</time>
      </trkpt>
      <trkpt lat="22.531981" lon="113.951126">
        <ele>23.4</ele>
        <time>2023-07-31T10:44:47Z</time>
      </trkpt>
      <trkpt lat="22.532052" lon="113.951126">
        <ele>23.4</ele>
        <time>2023-07-31T10:44:48Z</time>
      </trkpt>
      <trkpt lat="22.532125" lon="113.951126">
        <ele>23.4</ele>
        <time>2023-07-31T10:44:49Z</time>
      </trkpt>
      <trkpt lat="22.5322" lon="113.951133">
        <ele>23.4</ele>
        <time>2023-07-31T10:44:50Z</time>
      </trkpt>
      <trkpt lat="22.532275" lon="113.951148">
        <ele>23.4</ele>
        <time>2023-07-31T10:44:51Z</time>
      </trkpt>
      <trkpt lat="22.532353" lon="113.951164">
        <ele>23.4</ele>
        <time>2023-07-31T10:44:52Z</time>
      </trkpt>
      <trkpt lat="22.532424" lon="113.951171">
        <ele>23.4</ele>
        <time>2023-07-31T10:44:53Z</time>
      </trkpt>
      <trkpt lat="22.532496" lon="113.951172">
        <ele>23.4</ele>
        <time>2023-07-31T10:44:54Z</time>
      </trkpt>
      <trkpt lat="22.532568" lon="113.951172">
        <ele>23.4</ele>
        <time>2023-07-31T10:44:55Z</time>
      </trkpt>
      <trkpt lat="22.532634" lon="113.951179">
        <ele>23.4</ele>
        <time>2023-07-31T10:44:56Z</time>
      </trkpt>
      <trkpt lat="22.53271" lon="113.95118">
        <ele>23.4</ele>
        <time>2023-07-31T10:44:57Z</time>
      </trkpt>
      <trkpt lat="22.532782" lon="113.95118">
        <ele>23.4</ele>
        <time>2023-07-31T10:44:58Z</time>
      </trkpt>
      <trkpt lat="22.532855" lon="113.951187">
        <ele>23.4</ele>
        <time>2023-07-31T10:44:59Z</time>
      </trkpt>
      <trkpt lat="22.532917" lon="113.951187">
        <ele>23.4</ele>
        <time>2023-07-31T10:45:00Z</time>
      </trkpt>
      <trkpt lat="22.532982" lon="113.951194">
        <ele>23.4</ele>
        <time>2023-07-31T10:45:01Z</time>
      </trkpt>
      <trkpt lat="22.533041" lon="113.951202">
        <ele>23.3</ele>
        <time>2023-07-31T10:45:02Z</time>
      </trkpt>
      <trkpt lat="22.533096" lon="113.95121">
        <ele>23.3</ele>
        <time>2023-07-31T10:45:03Z</time>
      </trkpt>
      <trkpt lat="22.533161" lon="113.951218">
        <ele>23.3</ele>
        <time>2023-07-31T10:45:04Z</time>
      </trkpt>
      <trkpt lat="22.533223" lon="113.951218">
        <ele>23.3</ele>
        <time>2023-07-31T10:45:05Z</time>
      </trkpt>
      <trkpt lat="22.533284" lon="113.951225">
        <ele>23.3</ele>
        <time>2023-07-31T10:45:06Z</time>
      </trkpt>
      <trkpt lat="22.533345" lon="113.951225">
        <ele>23.3</ele>
        <time>2023-07-31T10:45:07Z</time>
      </trkpt>
      <trkpt lat="22.533412" lon="113.951225">
        <ele>23.3</ele>
        <time>2023-07-31T10:45:08Z</time>
      </trkpt>
      <trkpt lat="22.533476" lon="113.951233">
        <ele>23.3</ele>
        <time>2023-07-31T10:45:09Z</time>
      </trkpt>
      <trkpt lat="22.533534" lon="113.95124">
        <ele>23.3</ele>
        <time>2023-07-31T10:45:10Z</time>
      </trkpt>
      <trkpt lat="22.533594" lon="113.951241">
        <ele>23.3</ele>
        <time>2023-07-31T10:45:11Z</time>
      </trkpt>
      <trkpt lat="22.533659" lon="113.951248">
        <ele>23.3</ele>
        <time>2023-07-31T10:45:12Z</time>
      </trkpt>
      <trkpt lat="22.533719" lon="113.951256">
        <ele>23.3</ele>
        <time>2023-07-31T10:45:13Z</time>
      </trkpt>
      <trkpt lat="22.533777" lon="113.951249">
        <ele>23.3</ele>
        <time>2023-07-31T10:45:14Z</time>
      </trkpt>
      <trkpt lat="22.533844" lon="113.951248">
        <ele>23.3</ele>
        <time>2023-07-31T10:45:15Z</time>
      </trkpt>
      <trkpt lat="22.533911" lon="113.951241">
        <ele>23.3</ele>
        <time>2023-07-31T10:45:16Z</time>
      </trkpt>
      <trkpt lat="22.533981" lon="113.951241">
        <ele>23.3</ele>
        <time>2023-07-31T10:45:17Z</time>
      </trkpt>
      <trkpt lat="22.53405" lon="113.951241">
        <ele>23.3</ele>
        <time>2023-07-31T10:45:18Z</time>
      </trkpt>
      <trkpt lat="22.534116" lon="113.951241">
        <ele>23.2</ele>
        <time>2023-07-31T10:45:19Z</time>
      </trkpt>
      <trkpt lat="22.53418" lon="113.951241">
        <ele>23.2</ele>
        <time>2023-07-31T10:45:20Z</time>
      </trkpt>
      <trkpt lat="22.53424" lon="113.951233">
        <ele>23.2</ele>
        <time>2023-07-31T10:45:21Z</time>
      </trkpt>
      <trkpt lat="22.534303" lon="113.951226">
        <ele>23.2</ele>
        <time>2023-07-31T10:45:22Z</time>
      </trkpt>
      <trkpt lat="22.534358" lon="113.951225">
        <ele>23.2</ele>
        <time>2023-07-31T10:45:23Z</time>
      </trkpt>
      <trkpt lat="22.534421" lon="113.951232">
        <ele>23.1</ele>
        <time>2023-07-31T10:45:24Z</time>
      </trkpt>
      <trkpt lat="22.534481" lon="113.951248">
        <ele>23.1</ele>
        <time>2023-07-31T10:45:25Z</time>
      </trkpt>
      <trkpt lat="22.534533" lon="113.951263">
        <ele>23</ele>
        <time>2023-07-31T10:45:26Z</time>
      </trkpt>
      <trkpt lat="22.534583" lon="113.951278">
        <ele>23</ele>
        <time>2023-07-31T10:45:27Z</time>
      </trkpt>
      <trkpt lat="22.534632" lon="113.951293">
        <ele>23</ele>
        <time>2023-07-31T10:45:28Z</time>
      </trkpt>
      <trkpt lat="22.534684" lon="113.951309">
        <ele>22.9</ele>
        <time>2023-07-31T10:45:29Z</time>
      </trkpt>
      <trkpt lat="22.534732" lon="113.951316">
        <ele>22.9</ele>
        <time>2023-07-31T10:45:30Z</time>
      </trkpt>
      <trkpt lat="22.534778" lon="113.951324">
        <ele>22.9</ele>
        <time>2023-07-31T10:45:31Z</time>
      </trkpt>
      <trkpt lat="22.534821" lon="113.951324">
        <ele>22.8</ele>
        <time>2023-07-31T10:45:32Z</time>
      </trkpt>
      <trkpt lat="22.534871" lon="113.951324">
        <ele>22.8</ele>
        <time>2023-07-31T10:45:33Z</time>
      </trkpt>
      <trkpt lat="22.534917" lon="113.951332">
        <ele>22.8</ele>
        <time>2023-07-31T10:45:34Z</time>
      </trkpt>
      <trkpt lat="22.534961" lon="113.951339">
        <ele>22.7</ele>
        <time>2023-07-31T10:45:35Z</time>
      </trkpt>
      <trkpt lat="22.535012" lon="113.951347">
        <ele>22.7</ele>
        <time>2023-07-31T10:45:36Z</time>
      </trkpt>
      <trkpt lat="22.535061" lon="113.951354">
        <ele>22.7</ele>
        <time>2023-07-31T10:45:37Z</time>
      </trkpt>
      <trkpt lat="22.535116" lon="113.951355">
        <ele>22.6</ele>
        <time>2023-07-31T10:45:38Z</time>
      </trkpt>
      <trkpt lat="22.535166" lon="113.951369">
        <ele>22.6</ele>
        <time>2023-07-31T10:45:39Z</time>
      </trkpt>
      <trkpt lat="22.535226" lon="113.951385">
        <ele>22.6</ele>
        <time>2023-07-31T10:45:40Z</time>
      </trkpt>
      <trkpt lat="22.53528" lon="113.951407">
        <ele>22.5</ele>
        <time>2023-07-31T10:45:41Z</time>
      </trkpt>
      <trkpt lat="22.535338" lon="113.95143">
        <ele>22.5</ele>
        <time>2023-07-31T10:45:42Z</time>
      </trkpt>
      <trkpt lat="22.535396" lon="113.951453">
        <ele>22.4</ele>
        <time>2023-07-31T10:45:43Z</time>
      </trkpt>
      <trkpt lat="22.535452" lon="113.951483">
        <ele>22.4</ele>
        <time>2023-07-31T10:45:44Z</time>
      </trkpt>
      <trkpt lat="22.535511" lon="113.951506">
        <ele>22.4</ele>
        <time>2023-07-31T10:45:45Z</time>
      </trkpt>
      <trkpt lat="22.535567" lon="113.951536">
        <ele>22.3</ele>
        <time>2023-07-31T10:45:46Z</time>
      </trkpt>
      <trkpt lat="22.535614" lon="113.951565">
        <ele>22.3</ele>
        <time>2023-07-31T10:45:47Z</time>
      </trkpt>
      <trkpt lat="22.535674" lon="113.951596">
        <ele>22.2</ele>
        <time>2023-07-31T10:45:48Z</time>
      </trkpt>
      <trkpt lat="22.535732" lon="113.951628">
        <ele>22.2</ele>
        <time>2023-07-31T10:45:49Z</time>
      </trkpt>
      <trkpt lat="22.535799" lon="113.951655">
        <ele>22.1</ele>
        <time>2023-07-31T10:45:50Z</time>
      </trkpt>
      <trkpt lat="22.535867" lon="113.951681">
        <ele>22.1</ele>
        <time>2023-07-31T10:45:51Z</time>
      </trkpt>
      <trkpt lat="22.535942" lon="113.951731">
        <ele>22</ele>
        <time>2023-07-31T10:45:52Z</time>
      </trkpt>
      <trkpt lat="22.535999" lon="113.951764">
        <ele>22</ele>
        <time>2023-07-31T10:45:53Z</time>
      </trkpt>
      <trkpt lat="22.536028" lon="113.951796">
        <ele>22</ele>
        <time>2023-07-31T10:45:54Z</time>
      </trkpt>
      <trkpt lat="22.53606" lon="113.951825">
        <ele>22</ele>
        <time>2023-07-31T10:45:55Z</time>
      </trkpt>
      <trkpt lat="22.536099" lon="113.951857">
        <ele>22</ele>
        <time>2023-07-31T10:45:56Z</time>
      </trkpt>
      <trkpt lat="22.53614" lon="113.951881">
        <ele>22</ele>
        <time>2023-07-31T10:45:57Z</time>
      </trkpt>
      <trkpt lat="22.536179" lon="113.951903">
        <ele>22.1</ele>
        <time>2023-07-31T10:45:58Z</time>
      </trkpt>
      <trkpt lat="22.536227" lon="113.951926">
        <ele>22.1</ele>
        <time>2023-07-31T10:45:59Z</time>
      </trkpt>
      <trkpt lat="22.536278" lon="113.951949">
        <ele>22.1</ele>
        <time>2023-07-31T10:46:00Z</time>
      </trkpt>
      <trkpt lat="22.536321" lon="113.951973">
        <ele>22.1</ele>
        <time>2023-07-31T10:46:01Z</time>
      </trkpt>
      <trkpt lat="22.536362" lon="113.951994">
        <ele>22.1</ele>
        <time>2023-07-31T10:46:02Z</time>
      </trkpt>
      <trkpt lat="22.536405" lon="113.952018">
        <ele>22.1</ele>
        <time>2023-07-31T10:46:03Z</time>
      </trkpt>
      <trkpt lat="22.536442" lon="113.952055">
        <ele>22.1</ele>
        <time>2023-07-31T10:46:04Z</time>
      </trkpt>
      <trkpt lat="22.536478" lon="113.952102">
        <ele>22.1</ele>
        <time>2023-07-31T10:46:05Z</time>
      </trkpt>
      <trkpt lat="22.53651" lon="113.952146">
        <ele>22.1</ele>
        <time>2023-07-31T10:46:06Z</time>
      </trkpt>
      <trkpt lat="22.536549" lon="113.952185">
        <ele>22.1</ele>
        <time>2023-07-31T10:46:07Z</time>
      </trkpt>
      <trkpt lat="22.536595" lon="113.952209">
        <ele>22.1</ele>
        <time>2023-07-31T10:46:08Z</time>
      </trkpt>
      <trkpt lat="22.536645" lon="113.952238">
        <ele>22.1</ele>
        <time>2023-07-31T10:46:09Z</time>
      </trkpt>
      <trkpt lat="22.536704" lon="113.952255">
        <ele>22.1</ele>
        <time>2023-07-31T10:46:10Z</time>
      </trkpt>
      <trkpt lat="22.53676" lon="113.952286">
        <ele>22.1</ele>
        <time>2023-07-31T10:46:11Z</time>
      </trkpt>
      <trkpt lat="22.536813" lon="113.952316">
        <ele>22.1</ele>
        <time>2023-07-31T10:46:12Z</time>
      </trkpt>
      <trkpt lat="22.536865" lon="113.952353">
        <ele>22.1</ele>
        <time>2023-07-31T10:46:13Z</time>
      </trkpt>
      <trkpt lat="22.536917" lon="113.95239">
        <ele>22.1</ele>
        <time>2023-07-31T10:46:14Z</time>
      </trkpt>
      <trkpt lat="22.536975" lon="113.952422">
        <ele>22.1</ele>
        <time>2023-07-31T10:46:15Z</time>
      </trkpt>
      <trkpt lat="22.537038" lon="113.952461">
        <ele>22.1</ele>
        <time>2023-07-31T10:46:16Z</time>
      </trkpt>
      <trkpt lat="22.537094" lon="113.952497">
        <ele>22.1</ele>
        <time>2023-07-31T10:46:17Z</time>
      </trkpt>
      <trkpt lat="22.537149" lon="113.952535">
        <ele>22.1</ele>
        <time>2023-07-31T10:46:18Z</time>
      </trkpt>
      <trkpt lat="22.537208" lon="113.952575">
        <ele>22.1</ele>
        <time>2023-07-31T10:46:19Z</time>
      </trkpt>
      <trkpt lat="22.537262" lon="113.952612">
        <ele>22.1</ele>
        <time>2023-07-31T10:46:20Z</time>
      </trkpt>
      <trkpt lat="22.537313" lon="113.952649">
        <ele>22.1</ele>
        <time>2023-07-31T10:46:21Z</time>
      </trkpt>
      <trkpt lat="22.537371" lon="113.952689">
        <ele>22.2</ele>
        <time>2023-07-31T10:46:22Z</time>
      </trkpt>
      <trkpt lat="22.53743" lon="113.952728">
        <ele>22.2</ele>
        <time>2023-07-31T10:46:23Z</time>
      </trkpt>
      <trkpt lat="22.537489" lon="113.952764">
        <ele>22.2</ele>
        <time>2023-07-31T10:46:24Z</time>
      </trkpt>
      <trkpt lat="22.537557" lon="113.952804">
        <ele>22.2</ele>
        <time>2023-07-31T10:46:25Z</time>
      </trkpt>
      <trkpt lat="22.537619" lon="113.952835">
        <ele>22.2</ele>
        <time>2023-07-31T10:46:26Z</time>
      </trkpt>
      <trkpt lat="22.537672" lon="113.95287">
        <ele>22.2</ele>
        <time>2023-07-31T10:46:27Z</time>
      </trkpt>
      <trkpt lat="22.537732" lon="113.952903">
        <ele>22.2</ele>
        <time>2023-07-31T10:46:28Z</time>
      </trkpt>
      <trkpt lat="22.537785" lon="113.952933">
        <ele>22.2</ele>
        <time>2023-07-31T10:46:29Z</time>
      </trkpt>
      <trkpt lat="22.537841" lon="113.952972">
        <ele>22.2</ele>
        <time>2023-07-31T10:46:30Z</time>
      </trkpt>
      <trkpt lat="22.53789" lon="113.953002">
        <ele>22.2</ele>
        <time>2023-07-31T10:46:31Z</time>
      </trkpt>
      <trkpt lat="22.537948" lon="113.953033">
        <ele>22.2</ele>
        <time>2023-07-31T10:46:32Z</time>
      </trkpt>
      <trkpt lat="22.538003" lon="113.953064">
        <ele>22.2</ele>
        <time>2023-07-31T10:46:33Z</time>
      </trkpt>
      <trkpt lat="22.538063" lon="113.953101">
        <ele>22.2</ele>
        <time>2023-07-31T10:46:34Z</time>
      </trkpt>
      <trkpt lat="22.538123" lon="113.953137">
        <ele>22.2</ele>
        <time>2023-07-31T10:46:35Z</time>
      </trkpt>
      <trkpt lat="22.538181" lon="113.953169">
        <ele>22.2</ele>
        <time>2023-07-31T10:46:36Z</time>
      </trkpt>
      <trkpt lat="22.538242" lon="113.953201">
        <ele>22.2</ele>
        <time>2023-07-31T10:46:37Z</time>
      </trkpt>
      <trkpt lat="22.538296" lon="113.953237">
        <ele>22.2</ele>
        <time>2023-07-31T10:46:38Z</time>
      </trkpt>
      <trkpt lat="22.538349" lon="113.953268">
        <ele>22.2</ele>
        <time>2023-07-31T10:46:39Z</time>
      </trkpt>
      <trkpt lat="22.538409" lon="113.953308">
        <ele>22.2</ele>
        <time>2023-07-31T10:46:40Z</time>
      </trkpt>
      <trkpt lat="22.538467" lon="113.953338">
        <ele>22.2</ele>
        <time>2023-07-31T10:46:41Z</time>
      </trkpt>
      <trkpt lat="22.538526" lon="113.953368">
        <ele>22.2</ele>
        <time>2023-07-31T10:46:42Z</time>
      </trkpt>
      <trkpt lat="22.538586" lon="113.953406">
        <ele>22.2</ele>
        <time>2023-07-31T10:46:43Z</time>
      </trkpt>
      <trkpt lat="22.538646" lon="113.953438">
        <ele>22.2</ele>
        <time>2023-07-31T10:46:44Z</time>
      </trkpt>
      <trkpt lat="22.538698" lon="113.953466">
        <ele>22.2</ele>
        <time>2023-07-31T10:46:45Z</time>
      </trkpt>
      <trkpt lat="22.538763" lon="113.95349">
        <ele>22.2</ele>
        <time>2023-07-31T10:46:46Z</time>
      </trkpt>
      <trkpt lat="22.538823" lon="113.953513">
        <ele>22.2</ele>
        <time>2023-07-31T10:46:47Z</time>
      </trkpt>
      <trkpt lat="22.538885" lon="113.953544">
        <ele>22.2</ele>
        <time>2023-07-31T10:46:48Z</time>
      </trkpt>
      <trkpt lat="22.538954" lon="113.953574">
        <ele>22.2</ele>
        <time>2023-07-31T10:46:49Z</time>
      </trkpt>
      <trkpt lat="22.539015" lon="113.953605">
        <ele>22.2</ele>
        <time>2023-07-31T10:46:50Z</time>
      </trkpt>
      <trkpt lat="22.539072" lon="113.953642">
        <ele>22.2</ele>
        <time>2023-07-31T10:46:51Z</time>
      </trkpt>
      <trkpt lat="22.539134" lon="113.953681">
        <ele>22.2</ele>
        <time>2023-07-31T10:46:52Z</time>
      </trkpt>
      <trkpt lat="22.539192" lon="113.953717">
        <ele>22.2</ele>
        <time>2023-07-31T10:46:53Z</time>
      </trkpt>
      <trkpt lat="22.53925" lon="113.953755">
        <ele>22.2</ele>
        <time>2023-07-31T10:46:54Z</time>
      </trkpt>
      <trkpt lat="22.539316" lon="113.953797">
        <ele>22.2</ele>
        <time>2023-07-31T10:46:55Z</time>
      </trkpt>
      <trkpt lat="22.539371" lon="113.953827">
        <ele>22.2</ele>
        <time>2023-07-31T10:46:56Z</time>
      </trkpt>
      <trkpt lat="22.539427" lon="113.953856">
        <ele>22.2</ele>
        <time>2023-07-31T10:46:57Z</time>
      </trkpt>
      <trkpt lat="22.539486" lon="113.953887">
        <ele>22.2</ele>
        <time>2023-07-31T10:46:58Z</time>
      </trkpt>
      <trkpt lat="22.539546" lon="113.953926">
        <ele>22.2</ele>
        <time>2023-07-31T10:46:59Z</time>
      </trkpt>
      <trkpt lat="22.5396" lon="113.953955">
        <ele>22.2</ele>
        <time>2023-07-31T10:47:00Z</time>
      </trkpt>
      <trkpt lat="22.539651" lon="113.953985">
        <ele>22.2</ele>
        <time>2023-07-31T10:47:01Z</time>
      </trkpt>
      <trkpt lat="22.539702" lon="113.954008">
        <ele>22.2</ele>
        <time>2023-07-31T10:47:02Z</time>
      </trkpt>
      <trkpt lat="22.539754" lon="113.95404">
        <ele>22.2</ele>
        <time>2023-07-31T10:47:03Z</time>
      </trkpt>
      <trkpt lat="22.539803" lon="113.954069">
        <ele>22.2</ele>
        <time>2023-07-31T10:47:04Z</time>
      </trkpt>
      <trkpt lat="22.539853" lon="113.954099">
        <ele>22.2</ele>
        <time>2023-07-31T10:47:05Z</time>
      </trkpt>
      <trkpt lat="22.539908" lon="113.954139">
        <ele>22.2</ele>
        <time>2023-07-31T10:47:06Z</time>
      </trkpt>
      <trkpt lat="22.539964" lon="113.954175">
        <ele>22.2</ele>
        <time>2023-07-31T10:47:07Z</time>
      </trkpt>
      <trkpt lat="22.540019" lon="113.954207">
        <ele>22.2</ele>
        <time>2023-07-31T10:47:08Z</time>
      </trkpt>
      <trkpt lat="22.540076" lon="113.954237">
        <ele>22.2</ele>
        <time>2023-07-31T10:47:09Z</time>
      </trkpt>
      <trkpt lat="22.540129" lon="113.954269">
        <ele>22.2</ele>
        <time>2023-07-31T10:47:10Z</time>
      </trkpt>
      <trkpt lat="22.540184" lon="113.954298">
        <ele>22.2</ele>
        <time>2023-07-31T10:47:11Z</time>
      </trkpt>
      <trkpt lat="22.540241" lon="113.954328">
        <ele>22.2</ele>
        <time>2023-07-31T10:47:12Z</time>
      </trkpt>
      <trkpt lat="22.540302" lon="113.954361">
        <ele>22.2</ele>
        <time>2023-07-31T10:47:13Z</time>
      </trkpt>
      <trkpt lat="22.540355" lon="113.954389">
        <ele>22.2</ele>
        <time>2023-07-31T10:47:14Z</time>
      </trkpt>
      <trkpt lat="22.540414" lon="113.954412">
        <ele>22.2</ele>
        <time>2023-07-31T10:47:15Z</time>
      </trkpt>
      <trkpt lat="22.540467" lon="113.954443">
        <ele>22.2</ele>
        <time>2023-07-31T10:47:16Z</time>
      </trkpt>
      <trkpt lat="22.540519" lon="113.954467">
        <ele>22.2</ele>
        <time>2023-07-31T10:47:17Z</time>
      </trkpt>
      <trkpt lat="22.540571" lon="113.954497">
        <ele>22.2</ele>
        <time>2023-07-31T10:47:18Z</time>
      </trkpt>
      <trkpt lat="22.540628" lon="113.954527">
        <ele>22.2</ele>
        <time>2023-07-31T10:47:19Z</time>
      </trkpt>
      <trkpt lat="22.540683" lon="113.954558">
        <ele>22.2</ele>
        <time>2023-07-31T10:47:20Z</time>
      </trkpt>
      <trkpt lat="22.540734" lon="113.954589">
        <ele>22.2</ele>
        <time>2023-07-31T10:47:21Z</time>
      </trkpt>
      <trkpt lat="22.540779" lon="113.954619">
        <ele>22.2</ele>
        <time>2023-07-31T10:47:22Z</time>
      </trkpt>
      <trkpt lat="22.540828" lon="113.954649">
        <ele>22.2</ele>
        <time>2023-07-31T10:47:23Z</time>
      </trkpt>
      <trkpt lat="22.540885" lon="113.954681">
        <ele>22.2</ele>
        <time>2023-07-31T10:47:24Z</time>
      </trkpt>
      <trkpt lat="22.540939" lon="113.954711">
        <ele>22.2</ele>
        <time>2023-07-31T10:47:25Z</time>
      </trkpt>
      <trkpt lat="22.540993" lon="113.954733">
        <ele>22.2</ele>
        <time>2023-07-31T10:47:26Z</time>
      </trkpt>
      <trkpt lat="22.541049" lon="113.954765">
        <ele>22.2</ele>
        <time>2023-07-31T10:47:27Z</time>
      </trkpt>
      <trkpt lat="22.541101" lon="113.954787">
        <ele>22.2</ele>
        <time>2023-07-31T10:47:28Z</time>
      </trkpt>
      <trkpt lat="22.541157" lon="113.954803">
        <ele>22.2</ele>
        <time>2023-07-31T10:47:29Z</time>
      </trkpt>
      <trkpt lat="22.541208" lon="113.954825">
        <ele>22.2</ele>
        <time>2023-07-31T10:47:30Z</time>
      </trkpt>
      <trkpt lat="22.54126" lon="113.954848">
        <ele>22.2</ele>
        <time>2023-07-31T10:47:31Z</time>
      </trkpt>
      <trkpt lat="22.541313" lon="113.954856">
        <ele>22.2</ele>
        <time>2023-07-31T10:47:32Z</time>
      </trkpt>
      <trkpt lat="22.541365" lon="113.954878">
        <ele>22.2</ele>
        <time>2023-07-31T10:47:33Z</time>
      </trkpt>
      <trkpt lat="22.541418" lon="113.954903">
        <ele>22.2</ele>
        <time>2023-07-31T10:47:34Z</time>
      </trkpt>
      <trkpt lat="22.541469" lon="113.954932">
        <ele>22.2</ele>
        <time>2023-07-31T10:47:35Z</time>
      </trkpt>
      <trkpt lat="22.541525" lon="113.954955">
        <ele>22.2</ele>
        <time>2023-07-31T10:47:36Z</time>
      </trkpt>
      <trkpt lat="22.541585" lon="113.954978">
        <ele>22.2</ele>
        <time>2023-07-31T10:47:37Z</time>
      </trkpt>
      <trkpt lat="22.541639" lon="113.954993">
        <ele>22.2</ele>
        <time>2023-07-31T10:47:38Z</time>
      </trkpt>
      <trkpt lat="22.541695" lon="113.955001">
        <ele>22.2</ele>
        <time>2023-07-31T10:47:39Z</time>
      </trkpt>
      <trkpt lat="22.541752" lon="113.955016">
        <ele>22.2</ele>
        <time>2023-07-31T10:47:40Z</time>
      </trkpt>
      <trkpt lat="22.541809" lon="113.955031">
        <ele>22.2</ele>
        <time>2023-07-31T10:47:41Z</time>
      </trkpt>
      <trkpt lat="22.541862" lon="113.955039">
        <ele>22.2</ele>
        <time>2023-07-31T10:47:42Z</time>
      </trkpt>
      <trkpt lat="22.541923" lon="113.955054">
        <ele>22.2</ele>
        <time>2023-07-31T10:47:43Z</time>
      </trkpt>
      <trkpt lat="22.541977" lon="113.95507">
        <ele>22.2</ele>
        <time>2023-07-31T10:47:44Z</time>
      </trkpt>
      <trkpt lat="22.542032" lon="113.955078">
        <ele>22.2</ele>
        <time>2023-07-31T10:47:45Z</time>
      </trkpt>
      <trkpt lat="22.542093" lon="113.955093">
        <ele>22.2</ele>
        <time>2023-07-31T10:47:46Z</time>
      </trkpt>
      <trkpt lat="22.542149" lon="113.955101">
        <ele>22.2</ele>
        <time>2023-07-31T10:47:47Z</time>
      </trkpt>
      <trkpt lat="22.5422" lon="113.955108">
        <ele>22.2</ele>
        <time>2023-07-31T10:47:48Z</time>
      </trkpt>
      <trkpt lat="22.542255" lon="113.955116">
        <ele>22.2</ele>
        <time>2023-07-31T10:47:49Z</time>
      </trkpt>
      <trkpt lat="22.542311" lon="113.955131">
        <ele>22.2</ele>
        <time>2023-07-31T10:47:50Z</time>
      </trkpt>
      <trkpt lat="22.542367" lon="113.955139">
        <ele>22.2</ele>
        <time>2023-07-31T10:47:51Z</time>
      </trkpt>
      <trkpt lat="22.542425" lon="113.955139">
        <ele>22.2</ele>
        <time>2023-07-31T10:47:52Z</time>
      </trkpt>
      <trkpt lat="22.54248" lon="113.955146">
        <ele>22.2</ele>
        <time>2023-07-31T10:47:53Z</time>
      </trkpt>
      <trkpt lat="22.542537" lon="113.955147">
        <ele>22.3</ele>
        <time>2023-07-31T10:47:54Z</time>
      </trkpt>
      <trkpt lat="22.542589" lon="113.955154">
        <ele>22.3</ele>
        <time>2023-07-31T10:47:55Z</time>
      </trkpt>
      <trkpt lat="22.542642" lon="113.955162">
        <ele>22.3</ele>
        <time>2023-07-31T10:47:56Z</time>
      </trkpt>
      <trkpt lat="22.542696" lon="113.955162">
        <ele>22.3</ele>
        <time>2023-07-31T10:47:57Z</time>
      </trkpt>
      <trkpt lat="22.542752" lon="113.95517">
        <ele>22.3</ele>
        <time>2023-07-31T10:47:58Z</time>
      </trkpt>
      <trkpt lat="22.5428" lon="113.955177">
        <ele>22.4</ele>
        <time>2023-07-31T10:47:59Z</time>
      </trkpt>
      <trkpt lat="22.542849" lon="113.955199">
        <ele>22.4</ele>
        <time>2023-07-31T10:48:00Z</time>
      </trkpt>
      <trkpt lat="22.542898" lon="113.955221">
        <ele>22.4</ele>
        <time>2023-07-31T10:48:01Z</time>
      </trkpt>
      <trkpt lat="22.542953" lon="113.955238">
        <ele>22.4</ele>
        <time>2023-07-31T10:48:02Z</time>
      </trkpt>
      <trkpt lat="22.542994" lon="113.955253">
        <ele>22.5</ele>
        <time>2023-07-31T10:48:03Z</time>
      </trkpt>
      <trkpt lat="22.543041" lon="113.955268">
        <ele>22.5</ele>
        <time>2023-07-31T10:48:04Z</time>
      </trkpt>
      <trkpt lat="22.543072" lon="113.955262">
        <ele>22.5</ele>
        <time>2023-07-31T10:48:05Z</time>
      </trkpt>
      <trkpt lat="22.543117" lon="113.955246">
        <ele>22.5</ele>
        <time>2023-07-31T10:48:06Z</time>
      </trkpt>
      <trkpt lat="22.543165" lon="113.955218">
        <ele>22.5</ele>
        <time>2023-07-31T10:48:07Z</time>
      </trkpt>
      <trkpt lat="22.543213" lon="113.955187">
        <ele>22.6</ele>
        <time>2023-07-31T10:48:08Z</time>
      </trkpt>
      <trkpt lat="22.543264" lon="113.955164">
        <ele>22.6</ele>
        <time>2023-07-31T10:48:09Z</time>
      </trkpt>
      <trkpt lat="22.543344" lon="113.955147">
        <ele>22.6</ele>
        <time>2023-07-31T10:48:10Z</time>
      </trkpt>
      <trkpt lat="22.543412" lon="113.955147">
        <ele>22.6</ele>
        <time>2023-07-31T10:48:11Z</time>
      </trkpt>
      <trkpt lat="22.543461" lon="113.955147">
        <ele>22.7</ele>
        <time>2023-07-31T10:48:12Z</time>
      </trkpt>
      <trkpt lat="22.543496" lon="113.955154">
        <ele>22.7</ele>
        <time>2023-07-31T10:48:13Z</time>
      </trkpt>
      <trkpt lat="22.543538" lon="113.955154">
        <ele>22.7</ele>
        <time>2023-07-31T10:48:14Z</time>
      </trkpt>
      <trkpt lat="22.543603" lon="113.955147">
        <ele>22.7</ele>
        <time>2023-07-31T10:48:15Z</time>
      </trkpt>
      <trkpt lat="22.543651" lon="113.95514">
        <ele>22.7</ele>
        <time>2023-07-31T10:48:16Z</time>
      </trkpt>
      <trkpt lat="22.543714" lon="113.955147">
        <ele>22.8</ele>
        <time>2023-07-31T10:48:17Z</time>
      </trkpt>
      <trkpt lat="22.54376" lon="113.955161">
        <ele>22.8</ele>
        <time>2023-07-31T10:48:18Z</time>
      </trkpt>
      <trkpt lat="22.543813" lon="113.955148">
        <ele>22.8</ele>
        <time>2023-07-31T10:48:19Z</time>
      </trkpt>
      <trkpt lat="22.543856" lon="113.955168">
        <ele>22.8</ele>
        <time>2023-07-31T10:48:20Z</time>
      </trkpt>
      <trkpt lat="22.543886" lon="113.955191">
        <ele>22.9</ele>
        <time>2023-07-31T10:48:21Z</time>
      </trkpt>
      <trkpt lat="22.543914" lon="113.955213">
        <ele>22.9</ele>
        <time>2023-07-31T10:48:22Z</time>
      </trkpt>
      <trkpt lat="22.543941" lon="113.955215">
        <ele>22.9</ele>
        <time>2023-07-31T10:48:23Z</time>
      </trkpt>
      <trkpt lat="22.543957" lon="113.955222">
        <ele>22.9</ele>
        <time>2023-07-31T10:48:24Z</time>
      </trkpt>
      <trkpt lat="22.543977" lon="113.955237">
        <ele>22.9</ele>
        <time>2023-07-31T10:48:25Z</time>
      </trkpt>
      <trkpt lat="22.543991" lon="113.955245">
        <ele>22.9</ele>
        <time>2023-07-31T10:48:26Z</time>
      </trkpt>
      <trkpt lat="22.544015" lon="113.955253">
        <ele>22.9</ele>
        <time>2023-07-31T10:48:27Z</time>
      </trkpt>
      <trkpt lat="22.544054" lon="113.955261">
        <ele>22.9</ele>
        <time>2023-07-31T10:48:28Z</time>
      </trkpt>
      <trkpt lat="22.544089" lon="113.955268">
        <ele>22.9</ele>
        <time>2023-07-31T10:48:29Z</time>
      </trkpt>
      <trkpt lat="22.544124" lon="113.955282">
        <ele>23</ele>
        <time>2023-07-31T10:48:30Z</time>
      </trkpt>
      <trkpt lat="22.544164" lon="113.955291">
        <ele>23</ele>
        <time>2023-07-31T10:48:31Z</time>
      </trkpt>
      <trkpt lat="22.544207" lon="113.955307">
        <ele>23</ele>
        <time>2023-07-31T10:48:32Z</time>
      </trkpt>
      <trkpt lat="22.544246" lon="113.955314">
        <ele>23</ele>
        <time>2023-07-31T10:48:33Z</time>
      </trkpt>
      <trkpt lat="22.544286" lon="113.955315">
        <ele>23</ele>
        <time>2023-07-31T10:48:34Z</time>
      </trkpt>
      <trkpt lat="22.544331" lon="113.955315">
        <ele>23.1</ele>
        <time>2023-07-31T10:48:35Z</time>
      </trkpt>
      <trkpt lat="22.544368" lon="113.955315">
        <ele>23.1</ele>
        <time>2023-07-31T10:48:36Z</time>
      </trkpt>
      <trkpt lat="22.544416" lon="113.955322">
        <ele>23.1</ele>
        <time>2023-07-31T10:48:37Z</time>
      </trkpt>
      <trkpt lat="22.544471" lon="113.95533">
        <ele>23.1</ele>
        <time>2023-07-31T10:48:38Z</time>
      </trkpt>
      <trkpt lat="22.544521" lon="113.95533">
        <ele>23.2</ele>
        <time>2023-07-31T10:48:39Z</time>
      </trkpt>
      <trkpt lat="22.544573" lon="113.95533">
        <ele>23.2</ele>
        <time>2023-07-31T10:48:40Z</time>
      </trkpt>
      <trkpt lat="22.544624" lon="113.955337">
        <ele>23.2</ele>
        <time>2023-07-31T10:48:41Z</time>
      </trkpt>
      <trkpt lat="22.544678" lon="113.955338">
        <ele>23.2</ele>
        <time>2023-07-31T10:48:42Z</time>
      </trkpt>
      <trkpt lat="22.544729" lon="113.955338">
        <ele>23.3</ele>
        <time>2023-07-31T10:48:43Z</time>
      </trkpt>
      <trkpt lat="22.544789" lon="113.955338">
        <ele>23.3</ele>
        <time>2023-07-31T10:48:44Z</time>
      </trkpt>
      <trkpt lat="22.544846" lon="113.955345">
        <ele>23.3</ele>
        <time>2023-07-31T10:48:45Z</time>
      </trkpt>
      <trkpt lat="22.544908" lon="113.955345">
        <ele>23.3</ele>
        <time>2023-07-31T10:48:46Z</time>
      </trkpt>
      <trkpt lat="22.544962" lon="113.955353">
        <ele>23.4</ele>
        <time>2023-07-31T10:48:47Z</time>
      </trkpt>
      <trkpt lat="22.545014" lon="113.955367">
        <ele>23.4</ele>
        <time>2023-07-31T10:48:48Z</time>
      </trkpt>
      <trkpt lat="22.545069" lon="113.955382">
        <ele>23.4</ele>
        <time>2023-07-31T10:48:49Z</time>
      </trkpt>
      <trkpt lat="22.545131" lon="113.955398">
        <ele>23.5</ele>
        <time>2023-07-31T10:48:50Z</time>
      </trkpt>
      <trkpt lat="22.545187" lon="113.955413">
        <ele>23.5</ele>
        <time>2023-07-31T10:48:51Z</time>
      </trkpt>
      <trkpt lat="22.545248" lon="113.955421">
        <ele>23.5</ele>
        <time>2023-07-31T10:48:52Z</time>
      </trkpt>
      <trkpt lat="22.54531" lon="113.955437">
        <ele>23.5</ele>
        <time>2023-07-31T10:48:53Z</time>
      </trkpt>
      <trkpt lat="22.54536" lon="113.955444">
        <ele>23.6</ele>
        <time>2023-07-31T10:48:54Z</time>
      </trkpt>
      <trkpt lat="22.545414" lon="113.955458">
        <ele>23.6</ele>
        <time>2023-07-31T10:48:55Z</time>
      </trkpt>
      <trkpt lat="22.54547" lon="113.955475">
        <ele>23.6</ele>
        <time>2023-07-31T10:48:56Z</time>
      </trkpt>
      <trkpt lat="22.545523" lon="113.955489">
        <ele>23.7</ele>
        <time>2023-07-31T10:48:57Z</time>
      </trkpt>
      <trkpt lat="22.54558" lon="113.955505">
        <ele>23.7</ele>
        <time>2023-07-31T10:48:58Z</time>
      </trkpt>
      <trkpt lat="22.545636" lon="113.95552">
        <ele>23.7</ele>
        <time>2023-07-31T10:48:59Z</time>
      </trkpt>
      <trkpt lat="22.54569" lon="113.955542">
        <ele>23.7</ele>
        <time>2023-07-31T10:49:00Z</time>
      </trkpt>
      <trkpt lat="22.545745" lon="113.955558">
        <ele>23.8</ele>
        <time>2023-07-31T10:49:01Z</time>
      </trkpt>
      <trkpt lat="22.545803" lon="113.955559">
        <ele>23.8</ele>
        <time>2023-07-31T10:49:02Z</time>
      </trkpt>
      <trkpt lat="22.545861" lon="113.955566">
        <ele>23.8</ele>
        <time>2023-07-31T10:49:03Z</time>
      </trkpt>
      <trkpt lat="22.54592" lon="113.955581">
        <ele>23.8</ele>
        <time>2023-07-31T10:49:04Z</time>
      </trkpt>
      <trkpt lat="22.545982" lon="113.955611">
        <ele>23.8</ele>
        <time>2023-07-31T10:49:05Z</time>
      </trkpt>
      <trkpt lat="22.546042" lon="113.955642">
        <ele>23.9</ele>
        <time>2023-07-31T10:49:06Z</time>
      </trkpt>
      <trkpt lat="22.5461" lon="113.955658">
        <ele>23.9</ele>
        <time>2023-07-31T10:49:07Z</time>
      </trkpt>
      <trkpt lat="22.546158" lon="113.95568">
        <ele>23.9</ele>
        <time>2023-07-31T10:49:08Z</time>
      </trkpt>
      <trkpt lat="22.546224" lon="113.955696">
        <ele>23.9</ele>
        <time>2023-07-31T10:49:09Z</time>
      </trkpt>
      <trkpt lat="22.546291" lon="113.955711">
        <ele>23.9</ele>
        <time>2023-07-31T10:49:10Z</time>
      </trkpt>
      <trkpt lat="22.546352" lon="113.955727">
        <ele>23.9</ele>
        <time>2023-07-31T10:49:11Z</time>
      </trkpt>
      <trkpt lat="22.546412" lon="113.955746">
        <ele>23.9</ele>
        <time>2023-07-31T10:49:12Z</time>
      </trkpt>
      <trkpt lat="22.546472" lon="113.955765">
        <ele>23.9</ele>
        <time>2023-07-31T10:49:13Z</time>
      </trkpt>
      <trkpt lat="22.546529" lon="113.955779">
        <ele>24</ele>
        <time>2023-07-31T10:49:14Z</time>
      </trkpt>
      <trkpt lat="22.546588" lon="113.955795">
        <ele>24</ele>
        <time>2023-07-31T10:49:15Z</time>
      </trkpt>
      <trkpt lat="22.546649" lon="113.955817">
        <ele>24</ele>
        <time>2023-07-31T10:49:16Z</time>
      </trkpt>
      <trkpt lat="22.54671" lon="113.955841">
        <ele>24</ele>
        <time>2023-07-31T10:49:17Z</time>
      </trkpt>
      <trkpt lat="22.546774" lon="113.955857">
        <ele>24</ele>
        <time>2023-07-31T10:49:18Z</time>
      </trkpt>
      <trkpt lat="22.546839" lon="113.955879">
        <ele>24</ele>
        <time>2023-07-31T10:49:19Z</time>
      </trkpt>
      <trkpt lat="22.5469" lon="113.955887">
        <ele>24</ele>
        <time>2023-07-31T10:49:20Z</time>
      </trkpt>
      <trkpt lat="22.546962" lon="113.955908">
        <ele>24</ele>
        <time>2023-07-31T10:49:21Z</time>
      </trkpt>
      <trkpt lat="22.547029" lon="113.955924">
        <ele>24.1</ele>
        <time>2023-07-31T10:49:22Z</time>
      </trkpt>
      <trkpt lat="22.547092" lon="113.955939">
        <ele>24.1</ele>
        <time>2023-07-31T10:49:23Z</time>
      </trkpt>
      <trkpt lat="22.54716" lon="113.955961">
        <ele>24.1</ele>
        <time>2023-07-31T10:49:24Z</time>
      </trkpt>
      <trkpt lat="22.547223" lon="113.955977">
        <ele>24.1</ele>
        <time>2023-07-31T10:49:25Z</time>
      </trkpt>
      <trkpt lat="22.54729" lon="113.955993">
        <ele>24.1</ele>
        <time>2023-07-31T10:49:26Z</time>
      </trkpt>
      <trkpt lat="22.547357" lon="113.956012">
        <ele>24.1</ele>
        <time>2023-07-31T10:49:27Z</time>
      </trkpt>
      <trkpt lat="22.547424" lon="113.956032">
        <ele>24.1</ele>
        <time>2023-07-31T10:49:28Z</time>
      </trkpt>
      <trkpt lat="22.547482" lon="113.956053">
        <ele>24.2</ele>
        <time>2023-07-31T10:49:29Z</time>
      </trkpt>
      <trkpt lat="22.547548" lon="113.956076">
        <ele>24.2</ele>
        <time>2023-07-31T10:49:30Z</time>
      </trkpt>
      <trkpt lat="22.547619" lon="113.956101">
        <ele>24.2</ele>
        <time>2023-07-31T10:49:31Z</time>
      </trkpt>
      <trkpt lat="22.547679" lon="113.956114">
        <ele>24.2</ele>
        <time>2023-07-31T10:49:32Z</time>
      </trkpt>
      <trkpt lat="22.547749" lon="113.956133">
        <ele>24.2</ele>
        <time>2023-07-31T10:49:33Z</time>
      </trkpt>
      <trkpt lat="22.54782" lon="113.956153">
        <ele>24.2</ele>
        <time>2023-07-31T10:49:34Z</time>
      </trkpt>
      <trkpt lat="22.547886" lon="113.956169">
        <ele>24.2</ele>
        <time>2023-07-31T10:49:35Z</time>
      </trkpt>
      <trkpt lat="22.547942" lon="113.956183">
        <ele>24.2</ele>
        <time>2023-07-31T10:49:36Z</time>
      </trkpt>
      <trkpt lat="22.548008" lon="113.956202">
        <ele>24.2</ele>
        <time>2023-07-31T10:49:37Z</time>
      </trkpt>
      <trkpt lat="22.548076" lon="113.956222">
        <ele>24.2</ele>
        <time>2023-07-31T10:49:38Z</time>
      </trkpt>
      <trkpt lat="22.548139" lon="113.956237">
        <ele>24.2</ele>
        <time>2023-07-31T10:49:39Z</time>
      </trkpt>
      <trkpt lat="22.548202" lon="113.956259">
        <ele>24.2</ele>
        <time>2023-07-31T10:49:40Z</time>
      </trkpt>
      <trkpt lat="22.548268" lon="113.956276">
        <ele>24.2</ele>
        <time>2023-07-31T10:49:41Z</time>
      </trkpt>
      <trkpt lat="22.548337" lon="113.956298">
        <ele>24.2</ele>
        <time>2023-07-31T10:49:42Z</time>
      </trkpt>
      <trkpt lat="22.5484" lon="113.956313">
        <ele>24.2</ele>
        <time>2023-07-31T10:49:43Z</time>
      </trkpt>
      <trkpt lat="22.548463" lon="113.956335">
        <ele>24.2</ele>
        <time>2023-07-31T10:49:44Z</time>
      </trkpt>
      <trkpt lat="22.548531" lon="113.956352">
        <ele>24.2</ele>
        <time>2023-07-31T10:49:45Z</time>
      </trkpt>
      <trkpt lat="22.548591" lon="113.956366">
        <ele>24.2</ele>
        <time>2023-07-31T10:49:46Z</time>
      </trkpt>
      <trkpt lat="22.548656" lon="113.956389">
        <ele>24.2</ele>
        <time>2023-07-31T10:49:47Z</time>
      </trkpt>
      <trkpt lat="22.548721" lon="113.956405">
        <ele>24.2</ele>
        <time>2023-07-31T10:49:48Z</time>
      </trkpt>
      <trkpt lat="22.548782" lon="113.956428">
        <ele>24.2</ele>
        <time>2023-07-31T10:49:49Z</time>
      </trkpt>
      <trkpt lat="22.54884" lon="113.956443">
        <ele>24.2</ele>
        <time>2023-07-31T10:49:50Z</time>
      </trkpt>
      <trkpt lat="22.5489" lon="113.956458">
        <ele>24.2</ele>
        <time>2023-07-31T10:49:51Z</time>
      </trkpt>
      <trkpt lat="22.548956" lon="113.956474">
        <ele>24.2</ele>
        <time>2023-07-31T10:49:52Z</time>
      </trkpt>
      <trkpt lat="22.549004" lon="113.956481">
        <ele>24.2</ele>
        <time>2023-07-31T10:49:53Z</time>
      </trkpt>
      <trkpt lat="22.549048" lon="113.956489">
        <ele>24.2</ele>
        <time>2023-07-31T10:49:54Z</time>
      </trkpt>
      <trkpt lat="22.549089" lon="113.956497">
        <ele>24.2</ele>
        <time>2023-07-31T10:49:55Z</time>
      </trkpt>
      <trkpt lat="22.549125" lon="113.956505">
        <ele>24.2</ele>
        <time>2023-07-31T10:49:56Z</time>
      </trkpt>
      <trkpt lat="22.549156" lon="113.956519">
        <ele>24.2</ele>
        <time>2023-07-31T10:49:57Z</time>
      </trkpt>
      <trkpt lat="22.549192" lon="113.956527">
        <ele>24.2</ele>
        <time>2023-07-31T10:49:58Z</time>
      </trkpt>
      <trkpt lat="22.549237" lon="113.956543">
        <ele>24.2</ele>
        <time>2023-07-31T10:49:59Z</time>
      </trkpt>
      <trkpt lat="22.549281" lon="113.95655">
        <ele>24.2</ele>
        <time>2023-07-31T10:50:00Z</time>
      </trkpt>
      <trkpt lat="22.54933" lon="113.956558">
        <ele>24.2</ele>
        <time>2023-07-31T10:50:01Z</time>
      </trkpt>
      <trkpt lat="22.54938" lon="113.956565">
        <ele>24.2</ele>
        <time>2023-07-31T10:50:02Z</time>
      </trkpt>
      <trkpt lat="22.549435" lon="113.956574">
        <ele>24.2</ele>
        <time>2023-07-31T10:50:03Z</time>
      </trkpt>
      <trkpt lat="22.549486" lon="113.956581">
        <ele>24.2</ele>
        <time>2023-07-31T10:50:04Z</time>
      </trkpt>
      <trkpt lat="22.549538" lon="113.956588">
        <ele>24.2</ele>
        <time>2023-07-31T10:50:05Z</time>
      </trkpt>
      <trkpt lat="22.54959" lon="113.956596">
        <ele>24.2</ele>
        <time>2023-07-31T10:50:06Z</time>
      </trkpt>
      <trkpt lat="22.54964" lon="113.956596">
        <ele>24.2</ele>
        <time>2023-07-31T10:50:07Z</time>
      </trkpt>
      <trkpt lat="22.549698" lon="113.956604">
        <ele>24.2</ele>
        <time>2023-07-31T10:50:08Z</time>
      </trkpt>
      <trkpt lat="22.54976" lon="113.956611">
        <ele>24.2</ele>
        <time>2023-07-31T10:50:09Z</time>
      </trkpt>
      <trkpt lat="22.549816" lon="113.956619">
        <ele>24.3</ele>
        <time>2023-07-31T10:50:10Z</time>
      </trkpt>
      <trkpt lat="22.54987" lon="113.956612">
        <ele>24.3</ele>
        <time>2023-07-31T10:50:11Z</time>
      </trkpt>
      <trkpt lat="22.549926" lon="113.956612">
        <ele>24.3</ele>
        <time>2023-07-31T10:50:12Z</time>
      </trkpt>
      <trkpt lat="22.549983" lon="113.956604">
        <ele>24.3</ele>
        <time>2023-07-31T10:50:13Z</time>
      </trkpt>
      <trkpt lat="22.55004" lon="113.956604">
        <ele>24.3</ele>
        <time>2023-07-31T10:50:14Z</time>
      </trkpt>
      <trkpt lat="22.550099" lon="113.956611">
        <ele>24.3</ele>
        <time>2023-07-31T10:50:15Z</time>
      </trkpt>
      <trkpt lat="22.550159" lon="113.956619">
        <ele>24.3</ele>
        <time>2023-07-31T10:50:16Z</time>
      </trkpt>
      <trkpt lat="22.550217" lon="113.956619">
        <ele>24.3</ele>
        <time>2023-07-31T10:50:17Z</time>
      </trkpt>
      <trkpt lat="22.550274" lon="113.956619">
        <ele>24.3</ele>
        <time>2023-07-31T10:50:18Z</time>
      </trkpt>
      <trkpt lat="22.550329" lon="113.956619">
        <ele>24.3</ele>
        <time>2023-07-31T10:50:19Z</time>
      </trkpt>
      <trkpt lat="22.550394" lon="113.956619">
        <ele>24.3</ele>
        <time>2023-07-31T10:50:20Z</time>
      </trkpt>
      <trkpt lat="22.550447" lon="113.956619">
        <ele>24.3</ele>
        <time>2023-07-31T10:50:21Z</time>
      </trkpt>
      <trkpt lat="22.550508" lon="113.956619">
        <ele>24.3</ele>
        <time>2023-07-31T10:50:22Z</time>
      </trkpt>
      <trkpt lat="22.550566" lon="113.956612">
        <ele>24.3</ele>
        <time>2023-07-31T10:50:23Z</time>
      </trkpt>
      <trkpt lat="22.550622" lon="113.956612">
        <ele>24.4</ele>
        <time>2023-07-31T10:50:24Z</time>
      </trkpt>
      <trkpt lat="22.550679" lon="113.956605">
        <ele>24.4</ele>
        <time>2023-07-31T10:50:25Z</time>
      </trkpt>
      <trkpt lat="22.550737" lon="113.956604">
        <ele>24.4</ele>
        <time>2023-07-31T10:50:26Z</time>
      </trkpt>
      <trkpt lat="22.550799" lon="113.956597">
        <ele>24.4</ele>
        <time>2023-07-31T10:50:27Z</time>
      </trkpt>
      <trkpt lat="22.550854" lon="113.956582">
        <ele>24.4</ele>
        <time>2023-07-31T10:50:28Z</time>
      </trkpt>
      <trkpt lat="22.550911" lon="113.956574">
        <ele>24.4</ele>
        <time>2023-07-31T10:50:29Z</time>
      </trkpt>
      <trkpt lat="22.550968" lon="113.956566">
        <ele>24.4</ele>
        <time>2023-07-31T10:50:30Z</time>
      </trkpt>
      <trkpt lat="22.551028" lon="113.956558">
        <ele>24.4</ele>
        <time>2023-07-31T10:50:31Z</time>
      </trkpt>
      <trkpt lat="22.551081" lon="113.956544">
        <ele>24.4</ele>
        <time>2023-07-31T10:50:32Z</time>
      </trkpt>
      <trkpt lat="22.551141" lon="113.956529">
        <ele>24.4</ele>
        <time>2023-07-31T10:50:33Z</time>
      </trkpt>
      <trkpt lat="22.551198" lon="113.956513">
        <ele>24.4</ele>
        <time>2023-07-31T10:50:34Z</time>
      </trkpt>
      <trkpt lat="22.551259" lon="113.956497">
        <ele>24.5</ele>
        <time>2023-07-31T10:50:35Z</time>
      </trkpt>
      <trkpt lat="22.551311" lon="113.956483">
        <ele>24.5</ele>
        <time>2023-07-31T10:50:36Z</time>
      </trkpt>
      <trkpt lat="22.551369" lon="113.956468">
        <ele>24.5</ele>
        <time>2023-07-31T10:50:37Z</time>
      </trkpt>
      <trkpt lat="22.551426" lon="113.956444">
        <ele>24.5</ele>
        <time>2023-07-31T10:50:38Z</time>
      </trkpt>
      <trkpt lat="22.551483" lon="113.95643">
        <ele>24.5</ele>
        <time>2023-07-31T10:50:39Z</time>
      </trkpt>
      <trkpt lat="22.551541" lon="113.956421">
        <ele>24.5</ele>
        <time>2023-07-31T10:50:40Z</time>
      </trkpt>
      <trkpt lat="22.551599" lon="113.956407">
        <ele>24.5</ele>
        <time>2023-07-31T10:50:41Z</time>
      </trkpt>
      <trkpt lat="22.551663" lon="113.956383">
        <ele>24.6</ele>
        <time>2023-07-31T10:50:42Z</time>
      </trkpt>
      <trkpt lat="22.551723" lon="113.956369">
        <ele>24.6</ele>
        <time>2023-07-31T10:50:43Z</time>
      </trkpt>
      <trkpt lat="22.551781" lon="113.956347">
        <ele>24.6</ele>
        <time>2023-07-31T10:50:44Z</time>
      </trkpt>
      <trkpt lat="22.551837" lon="113.956323">
        <ele>24.6</ele>
        <time>2023-07-31T10:50:45Z</time>
      </trkpt>
      <trkpt lat="22.551896" lon="113.956299">
        <ele>24.6</ele>
        <time>2023-07-31T10:50:46Z</time>
      </trkpt>
      <trkpt lat="22.551949" lon="113.956278">
        <ele>24.6</ele>
        <time>2023-07-31T10:50:47Z</time>
      </trkpt>
      <trkpt lat="22.552009" lon="113.956248">
        <ele>24.7</ele>
        <time>2023-07-31T10:50:48Z</time>
      </trkpt>
      <trkpt lat="22.552071" lon="113.956223">
        <ele>24.7</ele>
        <time>2023-07-31T10:50:49Z</time>
      </trkpt>
      <trkpt lat="22.552127" lon="113.956201">
        <ele>24.7</ele>
        <time>2023-07-31T10:50:50Z</time>
      </trkpt>
      <trkpt lat="22.552184" lon="113.956178">
        <ele>24.7</ele>
        <time>2023-07-31T10:50:51Z</time>
      </trkpt>
      <trkpt lat="22.552242" lon="113.956154">
        <ele>24.7</ele>
        <time>2023-07-31T10:50:52Z</time>
      </trkpt>
      <trkpt lat="22.5523" lon="113.956132">
        <ele>24.7</ele>
        <time>2023-07-31T10:50:53Z</time>
      </trkpt>
      <trkpt lat="22.552351" lon="113.956103">
        <ele>24.7</ele>
        <time>2023-07-31T10:50:54Z</time>
      </trkpt>
      <trkpt lat="22.552404" lon="113.956073">
        <ele>24.8</ele>
        <time>2023-07-31T10:50:55Z</time>
      </trkpt>
      <trkpt lat="22.552457" lon="113.956032">
        <ele>24.8</ele>
        <time>2023-07-31T10:50:56Z</time>
      </trkpt>
      <trkpt lat="22.552499" lon="113.955996">
        <ele>24.8</ele>
        <time>2023-07-31T10:50:57Z</time>
      </trkpt>
      <trkpt lat="22.552543" lon="113.955965">
        <ele>24.8</ele>
        <time>2023-07-31T10:50:58Z</time>
      </trkpt>
      <trkpt lat="22.55259" lon="113.955941">
        <ele>24.8</ele>
        <time>2023-07-31T10:50:59Z</time>
      </trkpt>
      <trkpt lat="22.552631" lon="113.955919">
        <ele>24.8</ele>
        <time>2023-07-31T10:51:00Z</time>
      </trkpt>
      <trkpt lat="22.55266" lon="113.955896">
        <ele>24.8</ele>
        <time>2023-07-31T10:51:01Z</time>
      </trkpt>
      <trkpt lat="22.552687" lon="113.95588">
        <ele>24.8</ele>
        <time>2023-07-31T10:51:02Z</time>
      </trkpt>
      <trkpt lat="22.552713" lon="113.955872">
        <ele>24.9</ele>
        <time>2023-07-31T10:51:03Z</time>
      </trkpt>
      <trkpt lat="22.552735" lon="113.955857">
        <ele>24.9</ele>
        <time>2023-07-31T10:51:04Z</time>
      </trkpt>
      <trkpt lat="22.552763" lon="113.955849">
        <ele>24.9</ele>
        <time>2023-07-31T10:51:05Z</time>
      </trkpt>
      <trkpt lat="22.552786" lon="113.955834">
        <ele>24.9</ele>
        <time>2023-07-31T10:51:06Z</time>
      </trkpt>
      <trkpt lat="22.552812" lon="113.955819">
        <ele>24.9</ele>
        <time>2023-07-31T10:51:07Z</time>
      </trkpt>
      <trkpt lat="22.552833" lon="113.955804">
        <ele>24.9</ele>
        <time>2023-07-31T10:51:08Z</time>
      </trkpt>
      <trkpt lat="22.552856" lon="113.955788">
        <ele>24.9</ele>
        <time>2023-07-31T10:51:09Z</time>
      </trkpt>
      <trkpt lat="22.552881" lon="113.955772">
        <ele>24.9</ele>
        <time>2023-07-31T10:51:10Z</time>
      </trkpt>
      <trkpt lat="22.552909" lon="113.955757">
        <ele>24.9</ele>
        <time>2023-07-31T10:51:11Z</time>
      </trkpt>
      <trkpt lat="22.552931" lon="113.955743">
        <ele>24.9</ele>
        <time>2023-07-31T10:51:12Z</time>
      </trkpt>
      <trkpt lat="22.552962" lon="113.955727">
        <ele>24.9</ele>
        <time>2023-07-31T10:51:13Z</time>
      </trkpt>
      <trkpt lat="22.552989" lon="113.955704">
        <ele>24.9</ele>
        <time>2023-07-31T10:51:14Z</time>
      </trkpt>
      <trkpt lat="22.553019" lon="113.955688">
        <ele>24.9</ele>
        <time>2023-07-31T10:51:15Z</time>
      </trkpt>
      <trkpt lat="22.553042" lon="113.955667">
        <ele>24.9</ele>
        <time>2023-07-31T10:51:16Z</time>
      </trkpt>
      <trkpt lat="22.55307" lon="113.955651">
        <ele>24.9</ele>
        <time>2023-07-31T10:51:17Z</time>
      </trkpt>
      <trkpt lat="22.553101" lon="113.955628">
        <ele>24.9</ele>
        <time>2023-07-31T10:51:18Z</time>
      </trkpt>
      <trkpt lat="22.553133" lon="113.955599">
        <ele>24.9</ele>
        <time>2023-07-31T10:51:19Z</time>
      </trkpt>
      <trkpt lat="22.553162" lon="113.955568">
        <ele>24.9</ele>
        <time>2023-07-31T10:51:20Z</time>
      </trkpt>
      <trkpt lat="22.553191" lon="113.95553">
        <ele>24.9</ele>
        <time>2023-07-31T10:51:21Z</time>
      </trkpt>
      <trkpt lat="22.55322" lon="113.955506">
        <ele>24.9</ele>
        <time>2023-07-31T10:51:22Z</time>
      </trkpt>
      <trkpt lat="22.553252" lon="113.955484">
        <ele>24.9</ele>
        <time>2023-07-31T10:51:23Z</time>
      </trkpt>
      <trkpt lat="22.553275" lon="113.955461">
        <ele>24.9</ele>
        <time>2023-07-31T10:51:24Z</time>
      </trkpt>
      <trkpt lat="22.553292" lon="113.955431">
        <ele>24.9</ele>
        <time>2023-07-31T10:51:25Z</time>
      </trkpt>
      <trkpt lat="22.553312" lon="113.955402">
        <ele>24.9</ele>
        <time>2023-07-31T10:51:26Z</time>
      </trkpt>
      <trkpt lat="22.553344" lon="113.955376">
        <ele>24.9</ele>
        <time>2023-07-31T10:51:27Z</time>
      </trkpt>
      <trkpt lat="22.553377" lon="113.955347">
        <ele>24.9</ele>
        <time>2023-07-31T10:51:28Z</time>
      </trkpt>
      <trkpt lat="22.553411" lon="113.955317">
        <ele>24.9</ele>
        <time>2023-07-31T10:51:29Z</time>
      </trkpt>
      <trkpt lat="22.553449" lon="113.955285">
        <ele>24.9</ele>
        <time>2023-07-31T10:51:30Z</time>
      </trkpt>
      <trkpt lat="22.553485" lon="113.955248">
        <ele>24.9</ele>
        <time>2023-07-31T10:51:31Z</time>
      </trkpt>
      <trkpt lat="22.553524" lon="113.95521">
        <ele>24.9</ele>
        <time>2023-07-31T10:51:32Z</time>
      </trkpt>
      <trkpt lat="22.553563" lon="113.95517">
        <ele>24.9</ele>
        <time>2023-07-31T10:51:33Z</time>
      </trkpt>
      <trkpt lat="22.5536" lon="113.955134">
        <ele>24.9</ele>
        <time>2023-07-31T10:51:34Z</time>
      </trkpt>
      <trkpt lat="22.55364" lon="113.955096">
        <ele>24.9</ele>
        <time>2023-07-31T10:51:35Z</time>
      </trkpt>
      <trkpt lat="22.553678" lon="113.955058">
        <ele>24.9</ele>
        <time>2023-07-31T10:51:36Z</time>
      </trkpt>
      <trkpt lat="22.553723" lon="113.955018">
        <ele>24.9</ele>
        <time>2023-07-31T10:51:37Z</time>
      </trkpt>
      <trkpt lat="22.553769" lon="113.954981">
        <ele>24.9</ele>
        <time>2023-07-31T10:51:38Z</time>
      </trkpt>
      <trkpt lat="22.553813" lon="113.95495">
        <ele>24.9</ele>
        <time>2023-07-31T10:51:39Z</time>
      </trkpt>
      <trkpt lat="22.553859" lon="113.954912">
        <ele>24.9</ele>
        <time>2023-07-31T10:51:40Z</time>
      </trkpt>
      <trkpt lat="22.553902" lon="113.954874">
        <ele>24.9</ele>
        <time>2023-07-31T10:51:41Z</time>
      </trkpt>
      <trkpt lat="22.553946" lon="113.954837">
        <ele>24.9</ele>
        <time>2023-07-31T10:51:42Z</time>
      </trkpt>
      <trkpt lat="22.553986" lon="113.954792">
        <ele>24.9</ele>
        <time>2023-07-31T10:51:43Z</time>
      </trkpt>
      <trkpt lat="22.554032" lon="113.954751">
        <ele>24.9</ele>
        <time>2023-07-31T10:51:44Z</time>
      </trkpt>
      <trkpt lat="22.554078" lon="113.954715">
        <ele>24.9</ele>
        <time>2023-07-31T10:51:45Z</time>
      </trkpt>
      <trkpt lat="22.554126" lon="113.954676">
        <ele>24.9</ele>
        <time>2023-07-31T10:51:46Z</time>
      </trkpt>
      <trkpt lat="22.554177" lon="113.95463">
        <ele>24.9</ele>
        <time>2023-07-31T10:51:47Z</time>
      </trkpt>
      <trkpt lat="22.554221" lon="113.954593">
        <ele>24.9</ele>
        <time>2023-07-31T10:51:48Z</time>
      </trkpt>
      <trkpt lat="22.554263" lon="113.954555">
        <ele>24.9</ele>
        <time>2023-07-31T10:51:49Z</time>
      </trkpt>
      <trkpt lat="22.554316" lon="113.954506">
        <ele>24.9</ele>
        <time>2023-07-31T10:51:50Z</time>
      </trkpt>
      <trkpt lat="22.554361" lon="113.954471">
        <ele>24.9</ele>
        <time>2023-07-31T10:51:51Z</time>
      </trkpt>
      <trkpt lat="22.554414" lon="113.954438">
        <ele>24.9</ele>
        <time>2023-07-31T10:51:52Z</time>
      </trkpt>
      <trkpt lat="22.554466" lon="113.954409">
        <ele>24.9</ele>
        <time>2023-07-31T10:51:53Z</time>
      </trkpt>
      <trkpt lat="22.554521" lon="113.954372">
        <ele>24.9</ele>
        <time>2023-07-31T10:51:54Z</time>
      </trkpt>
      <trkpt lat="22.554571" lon="113.954339">
        <ele>24.9</ele>
        <time>2023-07-31T10:51:55Z</time>
      </trkpt>
      <trkpt lat="22.554616" lon="113.954302">
        <ele>24.9</ele>
        <time>2023-07-31T10:51:56Z</time>
      </trkpt>
      <trkpt lat="22.554662" lon="113.95427">
        <ele>24.9</ele>
        <time>2023-07-31T10:51:57Z</time>
      </trkpt>
      <trkpt lat="22.554708" lon="113.954233">
        <ele>24.9</ele>
        <time>2023-07-31T10:51:58Z</time>
      </trkpt>
      <trkpt lat="22.55476" lon="113.954195">
        <ele>24.9</ele>
        <time>2023-07-31T10:51:59Z</time>
      </trkpt>
      <trkpt lat="22.55483" lon="113.954164">
        <ele>24.9</ele>
        <time>2023-07-31T10:52:00Z</time>
      </trkpt>
      <trkpt lat="22.554893" lon="113.954141">
        <ele>24.9</ele>
        <time>2023-07-31T10:52:01Z</time>
      </trkpt>
      <trkpt lat="22.554948" lon="113.954125">
        <ele>24.9</ele>
        <time>2023-07-31T10:52:02Z</time>
      </trkpt>
      <trkpt lat="22.554988" lon="113.954103">
        <ele>24.9</ele>
        <time>2023-07-31T10:52:03Z</time>
      </trkpt>
      <trkpt lat="22.555041" lon="113.954087">
        <ele>24.9</ele>
        <time>2023-07-31T10:52:04Z</time>
      </trkpt>
      <trkpt lat="22.555092" lon="113.954064">
        <ele>24.9</ele>
        <time>2023-07-31T10:52:05Z</time>
      </trkpt>
      <trkpt lat="22.555147" lon="113.954041">
        <ele>24.9</ele>
        <time>2023-07-31T10:52:06Z</time>
      </trkpt>
      <trkpt lat="22.555196" lon="113.954027">
        <ele>24.9</ele>
        <time>2023-07-31T10:52:07Z</time>
      </trkpt>
      <trkpt lat="22.555268" lon="113.953997">
        <ele>24.9</ele>
        <time>2023-07-31T10:52:08Z</time>
      </trkpt>
      <trkpt lat="22.555362" lon="113.953957">
        <ele>24.9</ele>
        <time>2023-07-31T10:52:09Z</time>
      </trkpt>
      <trkpt lat="22.555451" lon="113.953921">
        <ele>24.9</ele>
        <time>2023-07-31T10:52:10Z</time>
      </trkpt>
      <trkpt lat="22.555519" lon="113.953911">
        <ele>24.9</ele>
        <time>2023-07-31T10:52:11Z</time>
      </trkpt>
      <trkpt lat="22.555582" lon="113.953896">
        <ele>24.9</ele>
        <time>2023-07-31T10:52:12Z</time>
      </trkpt>
      <trkpt lat="22.555644" lon="113.953888">
        <ele>24.9</ele>
        <time>2023-07-31T10:52:13Z</time>
      </trkpt>
      <trkpt lat="22.555694" lon="113.953881">
        <ele>24.9</ele>
        <time>2023-07-31T10:52:14Z</time>
      </trkpt>
      <trkpt lat="22.555748" lon="113.953859">
        <ele>24.9</ele>
        <time>2023-07-31T10:52:15Z</time>
      </trkpt>
      <trkpt lat="22.555804" lon="113.953842">
        <ele>25</ele>
        <time>2023-07-31T10:52:16Z</time>
      </trkpt>
      <trkpt lat="22.555859" lon="113.953828">
        <ele>25</ele>
        <time>2023-07-31T10:52:17Z</time>
      </trkpt>
      <trkpt lat="22.555921" lon="113.95382">
        <ele>25</ele>
        <time>2023-07-31T10:52:18Z</time>
      </trkpt>
      <trkpt lat="22.555981" lon="113.953819">
        <ele>25</ele>
        <time>2023-07-31T10:52:19Z</time>
      </trkpt>
      <trkpt lat="22.556031" lon="113.953826">
        <ele>25</ele>
        <time>2023-07-31T10:52:20Z</time>
      </trkpt>
      <trkpt lat="22.556079" lon="113.953827">
        <ele>25</ele>
        <time>2023-07-31T10:52:21Z</time>
      </trkpt>
      <trkpt lat="22.556118" lon="113.953827">
        <ele>25</ele>
        <time>2023-07-31T10:52:22Z</time>
      </trkpt>
      <trkpt lat="22.556174" lon="113.953827">
        <ele>25</ele>
        <time>2023-07-31T10:52:23Z</time>
      </trkpt>
      <trkpt lat="22.556226" lon="113.953827">
        <ele>25</ele>
        <time>2023-07-31T10:52:24Z</time>
      </trkpt>
      <trkpt lat="22.556288" lon="113.953827">
        <ele>25</ele>
        <time>2023-07-31T10:52:25Z</time>
      </trkpt>
      <trkpt lat="22.556356" lon="113.953816">
        <ele>25</ele>
        <time>2023-07-31T10:52:26Z</time>
      </trkpt>
      <trkpt lat="22.556424" lon="113.953805">
        <ele>25</ele>
        <time>2023-07-31T10:52:27Z</time>
      </trkpt>
      <trkpt lat="22.556493" lon="113.953793">
        <ele>25</ele>
        <time>2023-07-31T10:52:28Z</time>
      </trkpt>
      <trkpt lat="22.556561" lon="113.953782">
        <ele>25</ele>
        <time>2023-07-31T10:52:29Z</time>
      </trkpt>
      <trkpt lat="22.556627" lon="113.953781">
        <ele>25</ele>
        <time>2023-07-31T10:52:30Z</time>
      </trkpt>
      <trkpt lat="22.556745" lon="113.95376">
        <ele>25</ele>
        <time>2023-07-31T10:52:31Z</time>
      </trkpt>
      <trkpt lat="22.556784" lon="113.953778">
        <ele>25</ele>
        <time>2023-07-31T10:52:32Z</time>
      </trkpt>
      <trkpt lat="22.556852" lon="113.953781">
        <ele>25.1</ele>
        <time>2023-07-31T10:52:33Z</time>
      </trkpt>
      <trkpt lat="22.556919" lon="113.953788">
        <ele>25.1</ele>
        <time>2023-07-31T10:52:34Z</time>
      </trkpt>
      <trkpt lat="22.556988" lon="113.953789">
        <ele>25.1</ele>
        <time>2023-07-31T10:52:35Z</time>
      </trkpt>
      <trkpt lat="22.557054" lon="113.953789">
        <ele>25.1</ele>
        <time>2023-07-31T10:52:36Z</time>
      </trkpt>
      <trkpt lat="22.557116" lon="113.953782">
        <ele>25.1</ele>
        <time>2023-07-31T10:52:37Z</time>
      </trkpt>
      <trkpt lat="22.557184" lon="113.953788">
        <ele>25.1</ele>
        <time>2023-07-31T10:52:38Z</time>
      </trkpt>
      <trkpt lat="22.557239" lon="113.953789">
        <ele>25.1</ele>
        <time>2023-07-31T10:52:39Z</time>
      </trkpt>
      <trkpt lat="22.557294" lon="113.953796">
        <ele>25.1</ele>
        <time>2023-07-31T10:52:40Z</time>
      </trkpt>
      <trkpt lat="22.557353" lon="113.953789">
        <ele>25.1</ele>
        <time>2023-07-31T10:52:41Z</time>
      </trkpt>
      <trkpt lat="22.557427" lon="113.953781">
        <ele>25.1</ele>
        <time>2023-07-31T10:52:42Z</time>
      </trkpt>
      <trkpt lat="22.557489" lon="113.953788">
        <ele>25.1</ele>
        <time>2023-07-31T10:52:43Z</time>
      </trkpt>
      <trkpt lat="22.557551" lon="113.953782">
        <ele>25.1</ele>
        <time>2023-07-31T10:52:44Z</time>
      </trkpt>
      <trkpt lat="22.557609" lon="113.953781">
        <ele>25.1</ele>
        <time>2023-07-31T10:52:45Z</time>
      </trkpt>
      <trkpt lat="22.557673" lon="113.953789">
        <ele>25.1</ele>
        <time>2023-07-31T10:52:46Z</time>
      </trkpt>
      <trkpt lat="22.557732" lon="113.953796">
        <ele>25.1</ele>
        <time>2023-07-31T10:52:47Z</time>
      </trkpt>
      <trkpt lat="22.557795" lon="113.953803">
        <ele>25.1</ele>
        <time>2023-07-31T10:52:48Z</time>
      </trkpt>
      <trkpt lat="22.557861" lon="113.953819">
        <ele>25.1</ele>
        <time>2023-07-31T10:52:49Z</time>
      </trkpt>
      <trkpt lat="22.557924" lon="113.953826">
        <ele>25.1</ele>
        <time>2023-07-31T10:52:50Z</time>
      </trkpt>
      <trkpt lat="22.557988" lon="113.953841">
        <ele>25.1</ele>
        <time>2023-07-31T10:52:51Z</time>
      </trkpt>
      <trkpt lat="22.558048" lon="113.953873">
        <ele>25.1</ele>
        <time>2023-07-31T10:52:52Z</time>
      </trkpt>
      <trkpt lat="22.5581" lon="113.953901">
        <ele>25.1</ele>
        <time>2023-07-31T10:52:53Z</time>
      </trkpt>
      <trkpt lat="22.558157" lon="113.953917">
        <ele>25.1</ele>
        <time>2023-07-31T10:52:54Z</time>
      </trkpt>
      <trkpt lat="22.558219" lon="113.953933">
        <ele>25.1</ele>
        <time>2023-07-31T10:52:55Z</time>
      </trkpt>
      <trkpt lat="22.558286" lon="113.953941">
        <ele>25.1</ele>
        <time>2023-07-31T10:52:56Z</time>
      </trkpt>
      <trkpt lat="22.558346" lon="113.953941">
        <ele>25.1</ele>
        <time>2023-07-31T10:52:57Z</time>
      </trkpt>
      <trkpt lat="22.558404" lon="113.953934">
        <ele>25.1</ele>
        <time>2023-07-31T10:52:58Z</time>
      </trkpt>
      <trkpt lat="22.55847" lon="113.953934">
        <ele>25.1</ele>
        <time>2023-07-31T10:52:59Z</time>
      </trkpt>
      <trkpt lat="22.558539" lon="113.953934">
        <ele>25.1</ele>
        <time>2023-07-31T10:53:00Z</time>
      </trkpt>
      <trkpt lat="22.558598" lon="113.953941">
        <ele>25.1</ele>
        <time>2023-07-31T10:53:01Z</time>
      </trkpt>
      <trkpt lat="22.55867" lon="113.953948">
        <ele>25.1</ele>
        <time>2023-07-31T10:53:02Z</time>
      </trkpt>
      <trkpt lat="22.558745" lon="113.953949">
        <ele>25.1</ele>
        <time>2023-07-31T10:53:03Z</time>
      </trkpt>
      <trkpt lat="22.55881" lon="113.953949">
        <ele>25.1</ele>
        <time>2023-07-31T10:53:04Z</time>
      </trkpt>
      <trkpt lat="22.558877" lon="113.953956">
        <ele>25.1</ele>
        <time>2023-07-31T10:53:05Z</time>
      </trkpt>
      <trkpt lat="22.558942" lon="113.953957">
        <ele>25.1</ele>
        <time>2023-07-31T10:53:06Z</time>
      </trkpt>
      <trkpt lat="22.559004" lon="113.953957">
        <ele>25.1</ele>
        <time>2023-07-31T10:53:07Z</time>
      </trkpt>
      <trkpt lat="22.559064" lon="113.953957">
        <ele>25.1</ele>
        <time>2023-07-31T10:53:08Z</time>
      </trkpt>
      <trkpt lat="22.559137" lon="113.953964">
        <ele>25.1</ele>
        <time>2023-07-31T10:53:09Z</time>
      </trkpt>
      <trkpt lat="22.559199" lon="113.953971">
        <ele>25.1</ele>
        <time>2023-07-31T10:53:10Z</time>
      </trkpt>
      <trkpt lat="22.559269" lon="113.953972">
        <ele>25.1</ele>
        <time>2023-07-31T10:53:11Z</time>
      </trkpt>
      <trkpt lat="22.55933" lon="113.953972">
        <ele>25.1</ele>
        <time>2023-07-31T10:53:12Z</time>
      </trkpt>
      <trkpt lat="22.559399" lon="113.953979">
        <ele>25.2</ele>
        <time>2023-07-31T10:53:13Z</time>
      </trkpt>
      <trkpt lat="22.559459" lon="113.953979">
        <ele>25.2</ele>
        <time>2023-07-31T10:53:14Z</time>
      </trkpt>
      <trkpt lat="22.559517" lon="113.953979">
        <ele>25.2</ele>
        <time>2023-07-31T10:53:15Z</time>
      </trkpt>
      <trkpt lat="22.559579" lon="113.953972">
        <ele>25.2</ele>
        <time>2023-07-31T10:53:16Z</time>
      </trkpt>
      <trkpt lat="22.55964" lon="113.953972">
        <ele>25.2</ele>
        <time>2023-07-31T10:53:17Z</time>
      </trkpt>
      <trkpt lat="22.5597" lon="113.953979">
        <ele>25.2</ele>
        <time>2023-07-31T10:53:18Z</time>
      </trkpt>
      <trkpt lat="22.559761" lon="113.953987">
        <ele>25.2</ele>
        <time>2023-07-31T10:53:19Z</time>
      </trkpt>
      <trkpt lat="22.559826" lon="113.953995">
        <ele>25.2</ele>
        <time>2023-07-31T10:53:20Z</time>
      </trkpt>
      <trkpt lat="22.559881" lon="113.953995">
        <ele>25.2</ele>
        <time>2023-07-31T10:53:21Z</time>
      </trkpt>
      <trkpt lat="22.559947" lon="113.953995">
        <ele>25.2</ele>
        <time>2023-07-31T10:53:22Z</time>
      </trkpt>
      <trkpt lat="22.560011" lon="113.953995">
        <ele>25.2</ele>
        <time>2023-07-31T10:53:23Z</time>
      </trkpt>
      <trkpt lat="22.560078" lon="113.954002">
        <ele>25.2</ele>
        <time>2023-07-31T10:53:24Z</time>
      </trkpt>
      <trkpt lat="22.560142" lon="113.95401">
        <ele>25.2</ele>
        <time>2023-07-31T10:53:25Z</time>
      </trkpt>
      <trkpt lat="22.560208" lon="113.954021">
        <ele>25.2</ele>
        <time>2023-07-31T10:53:26Z</time>
      </trkpt>
      <trkpt lat="22.560273" lon="113.954033">
        <ele>25.2</ele>
        <time>2023-07-31T10:53:27Z</time>
      </trkpt>
      <trkpt lat="22.560336" lon="113.954033">
        <ele>25.2</ele>
        <time>2023-07-31T10:53:28Z</time>
      </trkpt>
      <trkpt lat="22.5604" lon="113.954033">
        <ele>25.2</ele>
        <time>2023-07-31T10:53:29Z</time>
      </trkpt>
      <trkpt lat="22.560465" lon="113.954033">
        <ele>25.3</ele>
        <time>2023-07-31T10:53:30Z</time>
      </trkpt>
      <trkpt lat="22.560529" lon="113.954033">
        <ele>25.3</ele>
        <time>2023-07-31T10:53:31Z</time>
      </trkpt>
      <trkpt lat="22.560591" lon="113.954033">
        <ele>25.3</ele>
        <time>2023-07-31T10:53:32Z</time>
      </trkpt>
      <trkpt lat="22.560659" lon="113.954026">
        <ele>25.3</ele>
        <time>2023-07-31T10:53:33Z</time>
      </trkpt>
      <trkpt lat="22.560727" lon="113.954018">
        <ele>25.3</ele>
        <time>2023-07-31T10:53:34Z</time>
      </trkpt>
      <trkpt lat="22.560789" lon="113.954018">
        <ele>25.3</ele>
        <time>2023-07-31T10:53:35Z</time>
      </trkpt>
      <trkpt lat="22.560852" lon="113.954018">
        <ele>25.3</ele>
        <time>2023-07-31T10:53:36Z</time>
      </trkpt>
      <trkpt lat="22.560918" lon="113.954018">
        <ele>25.3</ele>
        <time>2023-07-31T10:53:37Z</time>
      </trkpt>
      <trkpt lat="22.560981" lon="113.954025">
        <ele>25.3</ele>
        <time>2023-07-31T10:53:38Z</time>
      </trkpt>
      <trkpt lat="22.561044" lon="113.954025">
        <ele>25.3</ele>
        <time>2023-07-31T10:53:39Z</time>
      </trkpt>
      <trkpt lat="22.561107" lon="113.954025">
        <ele>25.3</ele>
        <time>2023-07-31T10:53:40Z</time>
      </trkpt>
      <trkpt lat="22.561172" lon="113.954025">
        <ele>25.3</ele>
        <time>2023-07-31T10:53:41Z</time>
      </trkpt>
      <trkpt lat="22.561232" lon="113.954025">
        <ele>25.3</ele>
        <time>2023-07-31T10:53:42Z</time>
      </trkpt>
      <trkpt lat="22.561285" lon="113.954025">
        <ele>25.3</ele>
        <time>2023-07-31T10:53:43Z</time>
      </trkpt>
      <trkpt lat="22.561342" lon="113.954029">
        <ele>25.3</ele>
        <time>2023-07-31T10:53:44Z</time>
      </trkpt>
      <trkpt lat="22.5614" lon="113.954033">
        <ele>25.3</ele>
        <time>2023-07-31T10:53:45Z</time>
      </trkpt>
      <trkpt lat="22.561454" lon="113.95404">
        <ele>25.3</ele>
        <time>2023-07-31T10:53:46Z</time>
      </trkpt>
      <trkpt lat="22.561514" lon="113.954041">
        <ele>25.3</ele>
        <time>2023-07-31T10:53:47Z</time>
      </trkpt>
      <trkpt lat="22.561571" lon="113.954041">
        <ele>25.3</ele>
        <time>2023-07-31T10:53:48Z</time>
      </trkpt>
      <trkpt lat="22.561636" lon="113.954041">
        <ele>25.3</ele>
        <time>2023-07-31T10:53:49Z</time>
      </trkpt>
      <trkpt lat="22.561695" lon="113.954041">
        <ele>25.3</ele>
        <time>2023-07-31T10:53:50Z</time>
      </trkpt>
      <trkpt lat="22.561754" lon="113.954041">
        <ele>25.3</ele>
        <time>2023-07-31T10:53:51Z</time>
      </trkpt>
      <trkpt lat="22.561813" lon="113.954048">
        <ele>25.3</ele>
        <time>2023-07-31T10:53:52Z</time>
      </trkpt>
      <trkpt lat="22.561867" lon="113.954048">
        <ele>25.3</ele>
        <time>2023-07-31T10:53:53Z</time>
      </trkpt>
      <trkpt lat="22.561927" lon="113.954048">
        <ele>25.3</ele>
        <time>2023-07-31T10:53:54Z</time>
      </trkpt>
      <trkpt lat="22.561987" lon="113.954056">
        <ele>25.3</ele>
        <time>2023-07-31T10:53:55Z</time>
      </trkpt>
      <trkpt lat="22.562041" lon="113.954056">
        <ele>25.3</ele>
        <time>2023-07-31T10:53:56Z</time>
      </trkpt>
      <trkpt lat="22.562098" lon="113.954056">
        <ele>25.3</ele>
        <time>2023-07-31T10:53:57Z</time>
      </trkpt>
      <trkpt lat="22.56215" lon="113.954056">
        <ele>25.3</ele>
        <time>2023-07-31T10:53:58Z</time>
      </trkpt>
      <trkpt lat="22.562202" lon="113.954048">
        <ele>25.3</ele>
        <time>2023-07-31T10:53:59Z</time>
      </trkpt>
      <trkpt lat="22.562248" lon="113.954055">
        <ele>25.3</ele>
        <time>2023-07-31T10:54:00Z</time>
      </trkpt>
      <trkpt lat="22.562301" lon="113.954063">
        <ele>25.3</ele>
        <time>2023-07-31T10:54:01Z</time>
      </trkpt>
      <trkpt lat="22.562352" lon="113.954078">
        <ele>25.3</ele>
        <time>2023-07-31T10:54:02Z</time>
      </trkpt>
    </trkseg>
  </trk>
</gpx>