<?xml version="1.0" encoding="UTF-8"?>
<gpx xmlns="http://www.topografix.com/GPX/1/1" xmlns:xsi="http://www.w3.org/2001/XMLSchema-instance" xsi:schemaLocation="http://www.topografix.com/GPX/1/1 http://www.topografix.com/GPX/1/1/gpx.xsd" version="1.1" creator="鹏">
  <metadata>
    <name>Cycling (Completed)</name>
    <desc>Distance: 4.331km, Estimated duration: 0.18h, Elevation up: 9.0m, Elevation down: 2.601329101810734m</desc>
    <author>
      <name>鹏</name>
      <link href="https://www.komoot.de/user/3342641231843">
        <text>View 鹏's Profile on Komoot</text>
      </link>
    </author>
    <link href="https://www.komoot.de/tour/1239540914">
      <text>View tour on Komoot</text>
    </link>
  </metadata>
  <trk>
    <name>Cycling (Completed)</name>
    <desc>Distance: 4.331km, Estimated duration: 0.18h, Elevation up: 9.0m, Elevation down: 2.601329101810734m</desc>
    <link href="https://www.komoot.de/tour/1239540914">
      <text>View tour on Komoot</text>
    </link>
    <trkseg>
      <trkpt lat="22.524883" lon="113.950623">
        <ele>20.6</ele>
        <time>2023-08-01T10:26:13Z</time>
      </trkpt>
      <trkpt lat="22.524903" lon="113.950623">
        <ele>20.6</ele>
        <time>2023-08-01T10:26:21Z</time>
      </trkpt>
      <trkpt lat="22.524942" lon="113.950625">
        <ele>20.6</ele>
        <time>2023-08-01T10:26:22Z</time>
      </trkpt>
      <trkpt lat="22.525015" lon="113.950628">
        <ele>20.6</ele>
        <time>2023-08-01T10:26:23Z</time>
      </trkpt>
      <trkpt lat="22.525073" lon="113.95062">
        <ele>20.6</ele>
        <time>2023-08-01T10:26:24Z</time>
      </trkpt>
      <trkpt lat="22.525128" lon="113.95061">
        <ele>20.6</ele>
        <time>2023-08-01T10:26:25Z</time>
      </trkpt>
      <trkpt lat="22.525178" lon="113.950607">
        <ele>20.6</ele>
        <time>2023-08-01T10:26:26Z</time>
      </trkpt>
      <trkpt lat="22.525229" lon="113.950605">
        <ele>20.6</ele>
        <time>2023-08-01T10:26:27Z</time>
      </trkpt>
      <trkpt lat="22.52528" lon="113.950601">
        <ele>20.6</ele>
        <time>2023-08-01T10:26:28Z</time>
      </trkpt>
      <trkpt lat="22.525337" lon="113.950604">
        <ele>20.6</ele>
        <time>2023-08-01T10:26:29Z</time>
      </trkpt>
      <trkpt lat="22.525395" lon="113.950617">
        <ele>20.6</ele>
        <time>2023-08-01T10:26:30Z</time>
      </trkpt>
      <trkpt lat="22.525454" lon="113.950632">
        <ele>20.6</ele>
        <time>2023-08-01T10:26:31Z</time>
      </trkpt>
      <trkpt lat="22.525516" lon="113.950657">
        <ele>20.6</ele>
        <time>2023-08-01T10:26:32Z</time>
      </trkpt>
      <trkpt lat="22.525578" lon="113.950683">
        <ele>20.6</ele>
        <time>2023-08-01T10:26:33Z</time>
      </trkpt>
      <trkpt lat="22.525641" lon="113.950696">
        <ele>20.6</ele>
        <time>2023-08-01T10:26:34Z</time>
      </trkpt>
      <trkpt lat="22.525707" lon="113.950699">
        <ele>20.6</ele>
        <time>2023-08-01T10:26:35Z</time>
      </trkpt>
      <trkpt lat="22.525771" lon="113.950704">
        <ele>20.6</ele>
        <time>2023-08-01T10:26:36Z</time>
      </trkpt>
      <trkpt lat="22.525836" lon="113.950711">
        <ele>20.6</ele>
        <time>2023-08-01T10:26:37Z</time>
      </trkpt>
      <trkpt lat="22.525901" lon="113.950709">
        <ele>20.6</ele>
        <time>2023-08-01T10:26:38Z</time>
      </trkpt>
      <trkpt lat="22.525966" lon="113.950706">
        <ele>20.6</ele>
        <time>2023-08-01T10:26:39Z</time>
      </trkpt>
      <trkpt lat="22.526031" lon="113.950706">
        <ele>20.6</ele>
        <time>2023-08-01T10:26:40Z</time>
      </trkpt>
      <trkpt lat="22.526096" lon="113.950711">
        <ele>20.6</ele>
        <time>2023-08-01T10:26:41Z</time>
      </trkpt>
      <trkpt lat="22.526164" lon="113.950714">
        <ele>20.6</ele>
        <time>2023-08-01T10:26:42Z</time>
      </trkpt>
      <trkpt lat="22.526231" lon="113.950719">
        <ele>20.6</ele>
        <time>2023-08-01T10:26:43Z</time>
      </trkpt>
      <trkpt lat="22.526301" lon="113.950722">
        <ele>20.6</ele>
        <time>2023-08-01T10:26:44Z</time>
      </trkpt>
      <trkpt lat="22.526371" lon="113.950727">
        <ele>20.6</ele>
        <time>2023-08-01T10:26:45Z</time>
      </trkpt>
      <trkpt lat="22.526444" lon="113.950734">
        <ele>20.6</ele>
        <time>2023-08-01T10:26:46Z</time>
      </trkpt>
      <trkpt lat="22.526515" lon="113.950737">
        <ele>20.6</ele>
        <time>2023-08-01T10:26:47Z</time>
      </trkpt>
      <trkpt lat="22.526587" lon="113.950737">
        <ele>20.6</ele>
        <time>2023-08-01T10:26:48Z</time>
      </trkpt>
      <trkpt lat="22.526659" lon="113.950742">
        <ele>20.6</ele>
        <time>2023-08-01T10:26:49Z</time>
      </trkpt>
      <trkpt lat="22.526727" lon="113.950745">
        <ele>20.6</ele>
        <time>2023-08-01T10:26:50Z</time>
      </trkpt>
      <trkpt lat="22.526796" lon="113.95075">
        <ele>20.6</ele>
        <time>2023-08-01T10:26:51Z</time>
      </trkpt>
      <trkpt lat="22.526865" lon="113.950752">
        <ele>20.6</ele>
        <time>2023-08-01T10:26:52Z</time>
      </trkpt>
      <trkpt lat="22.526933" lon="113.950757">
        <ele>20.6</ele>
        <time>2023-08-01T10:26:53Z</time>
      </trkpt>
      <trkpt lat="22.526999" lon="113.95076">
        <ele>20.6</ele>
        <time>2023-08-01T10:26:54Z</time>
      </trkpt>
      <trkpt lat="22.527064" lon="113.950765">
        <ele>20.6</ele>
        <time>2023-08-01T10:26:55Z</time>
      </trkpt>
      <trkpt lat="22.527129" lon="113.950772">
        <ele>20.6</ele>
        <time>2023-08-01T10:26:56Z</time>
      </trkpt>
      <trkpt lat="22.527195" lon="113.95078">
        <ele>20.6</ele>
        <time>2023-08-01T10:26:57Z</time>
      </trkpt>
      <trkpt lat="22.52726" lon="113.950788">
        <ele>20.6</ele>
        <time>2023-08-01T10:26:58Z</time>
      </trkpt>
      <trkpt lat="22.527326" lon="113.950801">
        <ele>20.6</ele>
        <time>2023-08-01T10:26:59Z</time>
      </trkpt>
      <trkpt lat="22.52739" lon="113.950811">
        <ele>20.6</ele>
        <time>2023-08-01T10:27:00Z</time>
      </trkpt>
      <trkpt lat="22.52745" lon="113.950819">
        <ele>20.6</ele>
        <time>2023-08-01T10:27:01Z</time>
      </trkpt>
      <trkpt lat="22.527513" lon="113.950826">
        <ele>20.6</ele>
        <time>2023-08-01T10:27:02Z</time>
      </trkpt>
      <trkpt lat="22.527576" lon="113.950829">
        <ele>20.6</ele>
        <time>2023-08-01T10:27:03Z</time>
      </trkpt>
      <trkpt lat="22.527637" lon="113.950829">
        <ele>20.6</ele>
        <time>2023-08-01T10:27:04Z</time>
      </trkpt>
      <trkpt lat="22.527702" lon="113.950834">
        <ele>20.6</ele>
        <time>2023-08-01T10:27:05Z</time>
      </trkpt>
      <trkpt lat="22.527769" lon="113.950842">
        <ele>20.6</ele>
        <time>2023-08-01T10:27:06Z</time>
      </trkpt>
      <trkpt lat="22.527835" lon="113.950855">
        <ele>20.6</ele>
        <time>2023-08-01T10:27:07Z</time>
      </trkpt>
      <trkpt lat="22.527904" lon="113.950864">
        <ele>20.6</ele>
        <time>2023-08-01T10:27:08Z</time>
      </trkpt>
      <trkpt lat="22.527974" lon="113.950872">
        <ele>20.6</ele>
        <time>2023-08-01T10:27:09Z</time>
      </trkpt>
      <trkpt lat="22.528046" lon="113.95088">
        <ele>20.6</ele>
        <time>2023-08-01T10:27:10Z</time>
      </trkpt>
      <trkpt lat="22.528116" lon="113.950882">
        <ele>20.6</ele>
        <time>2023-08-01T10:27:11Z</time>
      </trkpt>
      <trkpt lat="22.528183" lon="113.950887">
        <ele>20.6</ele>
        <time>2023-08-01T10:27:12Z</time>
      </trkpt>
      <trkpt lat="22.528252" lon="113.950884">
        <ele>20.6</ele>
        <time>2023-08-01T10:27:13Z</time>
      </trkpt>
      <trkpt lat="22.528319" lon="113.950882">
        <ele>20.6</ele>
        <time>2023-08-01T10:27:14Z</time>
      </trkpt>
      <trkpt lat="22.528392" lon="113.950893">
        <ele>20.6</ele>
        <time>2023-08-01T10:27:15Z</time>
      </trkpt>
      <trkpt lat="22.528467" lon="113.950902">
        <ele>20.6</ele>
        <time>2023-08-01T10:27:16Z</time>
      </trkpt>
      <trkpt lat="22.528541" lon="113.95091">
        <ele>20.7</ele>
        <time>2023-08-01T10:27:17Z</time>
      </trkpt>
      <trkpt lat="22.528614" lon="113.950912">
        <ele>20.7</ele>
        <time>2023-08-01T10:27:18Z</time>
      </trkpt>
      <trkpt lat="22.528688" lon="113.950912">
        <ele>20.7</ele>
        <time>2023-08-01T10:27:19Z</time>
      </trkpt>
      <trkpt lat="22.52876" lon="113.950918">
        <ele>20.7</ele>
        <time>2023-08-01T10:27:20Z</time>
      </trkpt>
      <trkpt lat="22.528833" lon="113.950931">
        <ele>20.7</ele>
        <time>2023-08-01T10:27:21Z</time>
      </trkpt>
      <trkpt lat="22.528909" lon="113.950946">
        <ele>20.7</ele>
        <time>2023-08-01T10:27:22Z</time>
      </trkpt>
      <trkpt lat="22.528988" lon="113.950951">
        <ele>20.7</ele>
        <time>2023-08-01T10:27:23Z</time>
      </trkpt>
      <trkpt lat="22.529063" lon="113.950956">
        <ele>20.7</ele>
        <time>2023-08-01T10:27:24Z</time>
      </trkpt>
      <trkpt lat="22.529135" lon="113.950958">
        <ele>20.7</ele>
        <time>2023-08-01T10:27:25Z</time>
      </trkpt>
      <trkpt lat="22.529209" lon="113.950958">
        <ele>20.7</ele>
        <time>2023-08-01T10:27:26Z</time>
      </trkpt>
      <trkpt lat="22.529283" lon="113.950958">
        <ele>20.7</ele>
        <time>2023-08-01T10:27:27Z</time>
      </trkpt>
      <trkpt lat="22.529358" lon="113.950964">
        <ele>20.7</ele>
        <time>2023-08-01T10:27:28Z</time>
      </trkpt>
      <trkpt lat="22.52943" lon="113.950966">
        <ele>20.7</ele>
        <time>2023-08-01T10:27:29Z</time>
      </trkpt>
      <trkpt lat="22.529503" lon="113.950971">
        <ele>20.7</ele>
        <time>2023-08-01T10:27:30Z</time>
      </trkpt>
      <trkpt lat="22.529579" lon="113.950973">
        <ele>20.7</ele>
        <time>2023-08-01T10:27:31Z</time>
      </trkpt>
      <trkpt lat="22.529659" lon="113.950979">
        <ele>20.7</ele>
        <time>2023-08-01T10:27:32Z</time>
      </trkpt>
      <trkpt lat="22.529735" lon="113.950981">
        <ele>20.7</ele>
        <time>2023-08-01T10:27:33Z</time>
      </trkpt>
      <trkpt lat="22.529811" lon="113.950986">
        <ele>20.7</ele>
        <time>2023-08-01T10:27:34Z</time>
      </trkpt>
      <trkpt lat="22.529887" lon="113.950989">
        <ele>20.7</ele>
        <time>2023-08-01T10:27:35Z</time>
      </trkpt>
      <trkpt lat="22.529965" lon="113.950994">
        <ele>20.7</ele>
        <time>2023-08-01T10:27:36Z</time>
      </trkpt>
      <trkpt lat="22.530045" lon="113.951002">
        <ele>20.7</ele>
        <time>2023-08-01T10:27:37Z</time>
      </trkpt>
      <trkpt lat="22.530122" lon="113.951009">
        <ele>20.7</ele>
        <time>2023-08-01T10:27:38Z</time>
      </trkpt>
      <trkpt lat="22.530197" lon="113.951012">
        <ele>20.7</ele>
        <time>2023-08-01T10:27:39Z</time>
      </trkpt>
      <trkpt lat="22.530275" lon="113.951022">
        <ele>20.7</ele>
        <time>2023-08-01T10:27:40Z</time>
      </trkpt>
      <trkpt lat="22.530356" lon="113.951032">
        <ele>20.7</ele>
        <time>2023-08-01T10:27:41Z</time>
      </trkpt>
      <trkpt lat="22.530438" lon="113.95104">
        <ele>20.7</ele>
        <time>2023-08-01T10:27:42Z</time>
      </trkpt>
      <trkpt lat="22.530517" lon="113.951048">
        <ele>20.7</ele>
        <time>2023-08-01T10:27:43Z</time>
      </trkpt>
      <trkpt lat="22.530595" lon="113.951055">
        <ele>20.7</ele>
        <time>2023-08-01T10:27:44Z</time>
      </trkpt>
      <trkpt lat="22.530671" lon="113.951063">
        <ele>20.7</ele>
        <time>2023-08-01T10:27:45Z</time>
      </trkpt>
      <trkpt lat="22.530748" lon="113.95107">
        <ele>20.7</ele>
        <time>2023-08-01T10:27:46Z</time>
      </trkpt>
      <trkpt lat="22.530826" lon="113.951073">
        <ele>20.7</ele>
        <time>2023-08-01T10:27:47Z</time>
      </trkpt>
      <trkpt lat="22.530908" lon="113.951078">
        <ele>20.7</ele>
        <time>2023-08-01T10:27:48Z</time>
      </trkpt>
      <trkpt lat="22.530987" lon="113.951085">
        <ele>20.7</ele>
        <time>2023-08-01T10:27:49Z</time>
      </trkpt>
      <trkpt lat="22.531062" lon="113.951093">
        <ele>20.7</ele>
        <time>2023-08-01T10:27:50Z</time>
      </trkpt>
      <trkpt lat="22.531135" lon="113.951096">
        <ele>20.7</ele>
        <time>2023-08-01T10:27:51Z</time>
      </trkpt>
      <trkpt lat="22.531214" lon="113.951101">
        <ele>20.7</ele>
        <time>2023-08-01T10:27:52Z</time>
      </trkpt>
      <trkpt lat="22.531294" lon="113.951103">
        <ele>20.7</ele>
        <time>2023-08-01T10:27:53Z</time>
      </trkpt>
      <trkpt lat="22.531374" lon="113.951108">
        <ele>20.7</ele>
        <time>2023-08-01T10:27:54Z</time>
      </trkpt>
      <trkpt lat="22.531454" lon="113.951116">
        <ele>20.7</ele>
        <time>2023-08-01T10:27:55Z</time>
      </trkpt>
      <trkpt lat="22.531533" lon="113.951118">
        <ele>20.7</ele>
        <time>2023-08-01T10:27:56Z</time>
      </trkpt>
      <trkpt lat="22.531608" lon="113.951118">
        <ele>20.7</ele>
        <time>2023-08-01T10:27:57Z</time>
      </trkpt>
      <trkpt lat="22.531685" lon="113.951124">
        <ele>20.7</ele>
        <time>2023-08-01T10:27:58Z</time>
      </trkpt>
      <trkpt lat="22.531767" lon="113.951126">
        <ele>20.7</ele>
        <time>2023-08-01T10:27:59Z</time>
      </trkpt>
      <trkpt lat="22.531845" lon="113.951131">
        <ele>20.7</ele>
        <time>2023-08-01T10:28:00Z</time>
      </trkpt>
      <trkpt lat="22.53192" lon="113.951139">
        <ele>20.7</ele>
        <time>2023-08-01T10:28:01Z</time>
      </trkpt>
      <trkpt lat="22.531997" lon="113.951141">
        <ele>20.7</ele>
        <time>2023-08-01T10:28:02Z</time>
      </trkpt>
      <trkpt lat="22.532073" lon="113.951141">
        <ele>20.7</ele>
        <time>2023-08-01T10:28:03Z</time>
      </trkpt>
      <trkpt lat="22.532148" lon="113.951147">
        <ele>20.7</ele>
        <time>2023-08-01T10:28:04Z</time>
      </trkpt>
      <trkpt lat="22.532217" lon="113.951149">
        <ele>20.7</ele>
        <time>2023-08-01T10:28:05Z</time>
      </trkpt>
      <trkpt lat="22.532291" lon="113.951154">
        <ele>20.6</ele>
        <time>2023-08-01T10:28:06Z</time>
      </trkpt>
      <trkpt lat="22.532364" lon="113.951157">
        <ele>20.6</ele>
        <time>2023-08-01T10:28:07Z</time>
      </trkpt>
      <trkpt lat="22.532433" lon="113.951157">
        <ele>20.6</ele>
        <time>2023-08-01T10:28:08Z</time>
      </trkpt>
      <trkpt lat="22.532506" lon="113.951162">
        <ele>20.6</ele>
        <time>2023-08-01T10:28:09Z</time>
      </trkpt>
      <trkpt lat="22.532576" lon="113.951164">
        <ele>20.6</ele>
        <time>2023-08-01T10:28:10Z</time>
      </trkpt>
      <trkpt lat="22.532646" lon="113.951169">
        <ele>20.6</ele>
        <time>2023-08-01T10:28:11Z</time>
      </trkpt>
      <trkpt lat="22.532718" lon="113.951172">
        <ele>20.6</ele>
        <time>2023-08-01T10:28:12Z</time>
      </trkpt>
      <trkpt lat="22.532793" lon="113.951172">
        <ele>20.6</ele>
        <time>2023-08-01T10:28:13Z</time>
      </trkpt>
      <trkpt lat="22.532866" lon="113.951177">
        <ele>20.6</ele>
        <time>2023-08-01T10:28:14Z</time>
      </trkpt>
      <trkpt lat="22.532938" lon="113.951185">
        <ele>20.6</ele>
        <time>2023-08-01T10:28:15Z</time>
      </trkpt>
      <trkpt lat="22.53301" lon="113.951192">
        <ele>20.6</ele>
        <time>2023-08-01T10:28:16Z</time>
      </trkpt>
      <trkpt lat="22.533084" lon="113.9512">
        <ele>20.6</ele>
        <time>2023-08-01T10:28:17Z</time>
      </trkpt>
      <trkpt lat="22.533153" lon="113.951208">
        <ele>20.5</ele>
        <time>2023-08-01T10:28:18Z</time>
      </trkpt>
      <trkpt lat="22.533216" lon="113.95121">
        <ele>20.5</ele>
        <time>2023-08-01T10:28:19Z</time>
      </trkpt>
      <trkpt lat="22.533282" lon="113.95121">
        <ele>20.5</ele>
        <time>2023-08-01T10:28:20Z</time>
      </trkpt>
      <trkpt lat="22.533348" lon="113.951215">
        <ele>20.5</ele>
        <time>2023-08-01T10:28:21Z</time>
      </trkpt>
      <trkpt lat="22.533414" lon="113.951218">
        <ele>20.5</ele>
        <time>2023-08-01T10:28:22Z</time>
      </trkpt>
      <trkpt lat="22.533478" lon="113.951218">
        <ele>20.4</ele>
        <time>2023-08-01T10:28:23Z</time>
      </trkpt>
      <trkpt lat="22.533541" lon="113.951223">
        <ele>20.4</ele>
        <time>2023-08-01T10:28:24Z</time>
      </trkpt>
      <trkpt lat="22.533608" lon="113.951231">
        <ele>20.4</ele>
        <time>2023-08-01T10:28:25Z</time>
      </trkpt>
      <trkpt lat="22.533672" lon="113.951238">
        <ele>20.4</ele>
        <time>2023-08-01T10:28:26Z</time>
      </trkpt>
      <trkpt lat="22.533734" lon="113.951241">
        <ele>20.4</ele>
        <time>2023-08-01T10:28:27Z</time>
      </trkpt>
      <trkpt lat="22.533798" lon="113.951235">
        <ele>20.4</ele>
        <time>2023-08-01T10:28:28Z</time>
      </trkpt>
      <trkpt lat="22.53386" lon="113.951233">
        <ele>20.3</ele>
        <time>2023-08-01T10:28:29Z</time>
      </trkpt>
      <trkpt lat="22.533926" lon="113.951228">
        <ele>20.3</ele>
        <time>2023-08-01T10:28:30Z</time>
      </trkpt>
      <trkpt lat="22.533996" lon="113.951225">
        <ele>20.3</ele>
        <time>2023-08-01T10:28:31Z</time>
      </trkpt>
      <trkpt lat="22.534062" lon="113.95123">
        <ele>20.3</ele>
        <time>2023-08-01T10:28:32Z</time>
      </trkpt>
      <trkpt lat="22.534129" lon="113.951233">
        <ele>20.3</ele>
        <time>2023-08-01T10:28:33Z</time>
      </trkpt>
      <trkpt lat="22.534193" lon="113.951228">
        <ele>20.3</ele>
        <time>2023-08-01T10:28:34Z</time>
      </trkpt>
      <trkpt lat="22.534254" lon="113.95122">
        <ele>20.2</ele>
        <time>2023-08-01T10:28:35Z</time>
      </trkpt>
      <trkpt lat="22.534315" lon="113.951212">
        <ele>20.2</ele>
        <time>2023-08-01T10:28:36Z</time>
      </trkpt>
      <trkpt lat="22.534371" lon="113.95121">
        <ele>20.2</ele>
        <time>2023-08-01T10:28:37Z</time>
      </trkpt>
      <trkpt lat="22.534427" lon="113.951221">
        <ele>20.2</ele>
        <time>2023-08-01T10:28:38Z</time>
      </trkpt>
      <trkpt lat="22.534486" lon="113.951236">
        <ele>20.2</ele>
        <time>2023-08-01T10:28:39Z</time>
      </trkpt>
      <trkpt lat="22.534539" lon="113.951246">
        <ele>20.2</ele>
        <time>2023-08-01T10:28:40Z</time>
      </trkpt>
      <trkpt lat="22.534591" lon="113.951253">
        <ele>20.1</ele>
        <time>2023-08-01T10:28:41Z</time>
      </trkpt>
      <trkpt lat="22.534641" lon="113.951266">
        <ele>20.1</ele>
        <time>2023-08-01T10:28:42Z</time>
      </trkpt>
      <trkpt lat="22.534687" lon="113.951281">
        <ele>20.1</ele>
        <time>2023-08-01T10:28:43Z</time>
      </trkpt>
      <trkpt lat="22.534735" lon="113.951302">
        <ele>20.1</ele>
        <time>2023-08-01T10:28:44Z</time>
      </trkpt>
      <trkpt lat="22.534785" lon="113.951325">
        <ele>20.1</ele>
        <time>2023-08-01T10:28:45Z</time>
      </trkpt>
      <trkpt lat="22.534838" lon="113.951332">
        <ele>20</ele>
        <time>2023-08-01T10:28:46Z</time>
      </trkpt>
      <trkpt lat="22.534882" lon="113.951327">
        <ele>20</ele>
        <time>2023-08-01T10:28:47Z</time>
      </trkpt>
      <trkpt lat="22.534926" lon="113.951314">
        <ele>20</ele>
        <time>2023-08-01T10:28:48Z</time>
      </trkpt>
      <trkpt lat="22.534981" lon="113.951309">
        <ele>19.9</ele>
        <time>2023-08-01T10:28:49Z</time>
      </trkpt>
      <trkpt lat="22.535041" lon="113.951309">
        <ele>19.9</ele>
        <time>2023-08-01T10:28:50Z</time>
      </trkpt>
      <trkpt lat="22.535103" lon="113.951315">
        <ele>19.9</ele>
        <time>2023-08-01T10:28:51Z</time>
      </trkpt>
      <trkpt lat="22.535168" lon="113.951327">
        <ele>19.8</ele>
        <time>2023-08-01T10:28:52Z</time>
      </trkpt>
      <trkpt lat="22.535235" lon="113.951342">
        <ele>19.8</ele>
        <time>2023-08-01T10:28:53Z</time>
      </trkpt>
      <trkpt lat="22.535304" lon="113.951373">
        <ele>19.7</ele>
        <time>2023-08-01T10:28:54Z</time>
      </trkpt>
      <trkpt lat="22.535366" lon="113.951401">
        <ele>19.7</ele>
        <time>2023-08-01T10:28:55Z</time>
      </trkpt>
      <trkpt lat="22.535426" lon="113.951429">
        <ele>19.6</ele>
        <time>2023-08-01T10:28:56Z</time>
      </trkpt>
      <trkpt lat="22.535487" lon="113.95146">
        <ele>19.6</ele>
        <time>2023-08-01T10:28:57Z</time>
      </trkpt>
      <trkpt lat="22.535544" lon="113.95149">
        <ele>19.6</ele>
        <time>2023-08-01T10:28:58Z</time>
      </trkpt>
      <trkpt lat="22.535599" lon="113.951526">
        <ele>19.5</ele>
        <time>2023-08-01T10:28:59Z</time>
      </trkpt>
      <trkpt lat="22.535653" lon="113.951558">
        <ele>19.5</ele>
        <time>2023-08-01T10:29:00Z</time>
      </trkpt>
      <trkpt lat="22.535713" lon="113.951588">
        <ele>19.4</ele>
        <time>2023-08-01T10:29:01Z</time>
      </trkpt>
      <trkpt lat="22.535773" lon="113.951623">
        <ele>19.4</ele>
        <time>2023-08-01T10:29:02Z</time>
      </trkpt>
      <trkpt lat="22.535834" lon="113.951657">
        <ele>19.4</ele>
        <time>2023-08-01T10:29:03Z</time>
      </trkpt>
      <trkpt lat="22.535891" lon="113.951688">
        <ele>19.3</ele>
        <time>2023-08-01T10:29:04Z</time>
      </trkpt>
      <trkpt lat="22.535962" lon="113.951719">
        <ele>19.3</ele>
        <time>2023-08-01T10:29:05Z</time>
      </trkpt>
      <trkpt lat="22.536035" lon="113.95176">
        <ele>19.2</ele>
        <time>2023-08-01T10:29:06Z</time>
      </trkpt>
      <trkpt lat="22.536099" lon="113.9518">
        <ele>19.2</ele>
        <time>2023-08-01T10:29:07Z</time>
      </trkpt>
      <trkpt lat="22.536158" lon="113.951844">
        <ele>19.1</ele>
        <time>2023-08-01T10:29:08Z</time>
      </trkpt>
      <trkpt lat="22.536215" lon="113.951885">
        <ele>19.1</ele>
        <time>2023-08-01T10:29:09Z</time>
      </trkpt>
      <trkpt lat="22.53627" lon="113.951923">
        <ele>19</ele>
        <time>2023-08-01T10:29:10Z</time>
      </trkpt>
      <trkpt lat="22.536325" lon="113.951955">
        <ele>19</ele>
        <time>2023-08-01T10:29:11Z</time>
      </trkpt>
      <trkpt lat="22.536376" lon="113.951986">
        <ele>19</ele>
        <time>2023-08-01T10:29:12Z</time>
      </trkpt>
      <trkpt lat="22.53643" lon="113.952012">
        <ele>19</ele>
        <time>2023-08-01T10:29:13Z</time>
      </trkpt>
      <trkpt lat="22.536486" lon="113.952035">
        <ele>19</ele>
        <time>2023-08-01T10:29:14Z</time>
      </trkpt>
      <trkpt lat="22.536541" lon="113.952063">
        <ele>19</ele>
        <time>2023-08-01T10:29:15Z</time>
      </trkpt>
      <trkpt lat="22.536598" lon="113.952093">
        <ele>19</ele>
        <time>2023-08-01T10:29:16Z</time>
      </trkpt>
      <trkpt lat="22.536653" lon="113.952129">
        <ele>19</ele>
        <time>2023-08-01T10:29:17Z</time>
      </trkpt>
      <trkpt lat="22.536708" lon="113.952166">
        <ele>19</ele>
        <time>2023-08-01T10:29:18Z</time>
      </trkpt>
      <trkpt lat="22.536762" lon="113.952204">
        <ele>19</ele>
        <time>2023-08-01T10:29:19Z</time>
      </trkpt>
      <trkpt lat="22.536816" lon="113.952238">
        <ele>19.1</ele>
        <time>2023-08-01T10:29:20Z</time>
      </trkpt>
      <trkpt lat="22.536863" lon="113.952279">
        <ele>19.1</ele>
        <time>2023-08-01T10:29:21Z</time>
      </trkpt>
      <trkpt lat="22.536912" lon="113.95233">
        <ele>19.1</ele>
        <time>2023-08-01T10:29:22Z</time>
      </trkpt>
      <trkpt lat="22.536966" lon="113.952373">
        <ele>19.1</ele>
        <time>2023-08-01T10:29:23Z</time>
      </trkpt>
      <trkpt lat="22.537021" lon="113.952406">
        <ele>19.1</ele>
        <time>2023-08-01T10:29:24Z</time>
      </trkpt>
      <trkpt lat="22.537077" lon="113.952441">
        <ele>19.1</ele>
        <time>2023-08-01T10:29:25Z</time>
      </trkpt>
      <trkpt lat="22.537135" lon="113.952474">
        <ele>19.1</ele>
        <time>2023-08-01T10:29:26Z</time>
      </trkpt>
      <trkpt lat="22.537191" lon="113.95251">
        <ele>19.1</ele>
        <time>2023-08-01T10:29:27Z</time>
      </trkpt>
      <trkpt lat="22.537246" lon="113.952548">
        <ele>19.1</ele>
        <time>2023-08-01T10:29:28Z</time>
      </trkpt>
      <trkpt lat="22.537301" lon="113.952586">
        <ele>19.1</ele>
        <time>2023-08-01T10:29:29Z</time>
      </trkpt>
      <trkpt lat="22.537359" lon="113.952624">
        <ele>19.1</ele>
        <time>2023-08-01T10:29:30Z</time>
      </trkpt>
      <trkpt lat="22.537423" lon="113.952658">
        <ele>19.2</ele>
        <time>2023-08-01T10:29:31Z</time>
      </trkpt>
      <trkpt lat="22.537485" lon="113.952694">
        <ele>19.2</ele>
        <time>2023-08-01T10:29:32Z</time>
      </trkpt>
      <trkpt lat="22.537547" lon="113.952731">
        <ele>19.2</ele>
        <time>2023-08-01T10:29:33Z</time>
      </trkpt>
      <trkpt lat="22.537613" lon="113.952775">
        <ele>19.2</ele>
        <time>2023-08-01T10:29:34Z</time>
      </trkpt>
      <trkpt lat="22.537678" lon="113.952821">
        <ele>19.2</ele>
        <time>2023-08-01T10:29:35Z</time>
      </trkpt>
      <trkpt lat="22.53774" lon="113.952861">
        <ele>19.2</ele>
        <time>2023-08-01T10:29:36Z</time>
      </trkpt>
      <trkpt lat="22.537798" lon="113.952894">
        <ele>19.2</ele>
        <time>2023-08-01T10:29:37Z</time>
      </trkpt>
      <trkpt lat="22.537856" lon="113.95293">
        <ele>19.2</ele>
        <time>2023-08-01T10:29:38Z</time>
      </trkpt>
      <trkpt lat="22.537912" lon="113.952968">
        <ele>19.2</ele>
        <time>2023-08-01T10:29:39Z</time>
      </trkpt>
      <trkpt lat="22.537973" lon="113.953006">
        <ele>19.2</ele>
        <time>2023-08-01T10:29:40Z</time>
      </trkpt>
      <trkpt lat="22.538031" lon="113.953039">
        <ele>19.2</ele>
        <time>2023-08-01T10:29:41Z</time>
      </trkpt>
      <trkpt lat="22.538091" lon="113.953069">
        <ele>19.2</ele>
        <time>2023-08-01T10:29:42Z</time>
      </trkpt>
      <trkpt lat="22.538151" lon="113.9531">
        <ele>19.2</ele>
        <time>2023-08-01T10:29:43Z</time>
      </trkpt>
      <trkpt lat="22.538212" lon="113.953131">
        <ele>19.2</ele>
        <time>2023-08-01T10:29:44Z</time>
      </trkpt>
      <trkpt lat="22.538276" lon="113.953172">
        <ele>19.2</ele>
        <time>2023-08-01T10:29:45Z</time>
      </trkpt>
      <trkpt lat="22.538337" lon="113.953207">
        <ele>19.2</ele>
        <time>2023-08-01T10:29:46Z</time>
      </trkpt>
      <trkpt lat="22.538399" lon="113.953243">
        <ele>19.2</ele>
        <time>2023-08-01T10:29:47Z</time>
      </trkpt>
      <trkpt lat="22.53846" lon="113.953281">
        <ele>19.2</ele>
        <time>2023-08-01T10:29:48Z</time>
      </trkpt>
      <trkpt lat="22.538521" lon="113.953319">
        <ele>19.2</ele>
        <time>2023-08-01T10:29:49Z</time>
      </trkpt>
      <trkpt lat="22.53858" lon="113.953352">
        <ele>19.2</ele>
        <time>2023-08-01T10:29:50Z</time>
      </trkpt>
      <trkpt lat="22.538632" lon="113.953383">
        <ele>19.2</ele>
        <time>2023-08-01T10:29:51Z</time>
      </trkpt>
      <trkpt lat="22.538686" lon="113.953418">
        <ele>19.2</ele>
        <time>2023-08-01T10:29:52Z</time>
      </trkpt>
      <trkpt lat="22.538746" lon="113.953446">
        <ele>19.2</ele>
        <time>2023-08-01T10:29:53Z</time>
      </trkpt>
      <trkpt lat="22.538805" lon="113.953474">
        <ele>19.2</ele>
        <time>2023-08-01T10:29:54Z</time>
      </trkpt>
      <trkpt lat="22.538861" lon="113.953499">
        <ele>19.2</ele>
        <time>2023-08-01T10:29:55Z</time>
      </trkpt>
      <trkpt lat="22.53892" lon="113.953527">
        <ele>19.2</ele>
        <time>2023-08-01T10:29:56Z</time>
      </trkpt>
      <trkpt lat="22.538982" lon="113.953557">
        <ele>19.2</ele>
        <time>2023-08-01T10:29:57Z</time>
      </trkpt>
      <trkpt lat="22.539048" lon="113.953588">
        <ele>19.2</ele>
        <time>2023-08-01T10:29:58Z</time>
      </trkpt>
      <trkpt lat="22.53911" lon="113.953624">
        <ele>19.1</ele>
        <time>2023-08-01T10:29:59Z</time>
      </trkpt>
      <trkpt lat="22.539167" lon="113.953662">
        <ele>19.1</ele>
        <time>2023-08-01T10:30:00Z</time>
      </trkpt>
      <trkpt lat="22.539224" lon="113.953697">
        <ele>19.1</ele>
        <time>2023-08-01T10:30:01Z</time>
      </trkpt>
      <trkpt lat="22.539277" lon="113.953728">
        <ele>19.1</ele>
        <time>2023-08-01T10:30:02Z</time>
      </trkpt>
      <trkpt lat="22.539329" lon="113.953757">
        <ele>19.1</ele>
        <time>2023-08-01T10:30:03Z</time>
      </trkpt>
      <trkpt lat="22.539379" lon="113.953787">
        <ele>19.1</ele>
        <time>2023-08-01T10:30:04Z</time>
      </trkpt>
      <trkpt lat="22.539428" lon="113.953812">
        <ele>19.1</ele>
        <time>2023-08-01T10:30:05Z</time>
      </trkpt>
      <trkpt lat="22.539478" lon="113.95384">
        <ele>19.1</ele>
        <time>2023-08-01T10:30:06Z</time>
      </trkpt>
      <trkpt lat="22.539532" lon="113.95387">
        <ele>19.1</ele>
        <time>2023-08-01T10:30:07Z</time>
      </trkpt>
      <trkpt lat="22.539588" lon="113.953906">
        <ele>19.1</ele>
        <time>2023-08-01T10:30:08Z</time>
      </trkpt>
      <trkpt lat="22.539641" lon="113.953941">
        <ele>19.1</ele>
        <time>2023-08-01T10:30:09Z</time>
      </trkpt>
      <trkpt lat="22.539694" lon="113.953976">
        <ele>19</ele>
        <time>2023-08-01T10:30:10Z</time>
      </trkpt>
      <trkpt lat="22.539748" lon="113.954008">
        <ele>19</ele>
        <time>2023-08-01T10:30:11Z</time>
      </trkpt>
      <trkpt lat="22.539806" lon="113.954038">
        <ele>19</ele>
        <time>2023-08-01T10:30:12Z</time>
      </trkpt>
      <trkpt lat="22.539863" lon="113.954069">
        <ele>19</ele>
        <time>2023-08-01T10:30:13Z</time>
      </trkpt>
      <trkpt lat="22.539915" lon="113.9541">
        <ele>18.9</ele>
        <time>2023-08-01T10:30:14Z</time>
      </trkpt>
      <trkpt lat="22.539966" lon="113.95413">
        <ele>18.9</ele>
        <time>2023-08-01T10:30:15Z</time>
      </trkpt>
      <trkpt lat="22.540018" lon="113.954161">
        <ele>18.9</ele>
        <time>2023-08-01T10:30:16Z</time>
      </trkpt>
      <trkpt lat="22.540069" lon="113.954191">
        <ele>18.9</ele>
        <time>2023-08-01T10:30:17Z</time>
      </trkpt>
      <trkpt lat="22.540123" lon="113.954226">
        <ele>18.8</ele>
        <time>2023-08-01T10:30:18Z</time>
      </trkpt>
      <trkpt lat="22.54018" lon="113.954254">
        <ele>18.8</ele>
        <time>2023-08-01T10:30:19Z</time>
      </trkpt>
      <trkpt lat="22.540229" lon="113.954277">
        <ele>18.8</ele>
        <time>2023-08-01T10:30:20Z</time>
      </trkpt>
      <trkpt lat="22.540279" lon="113.954306">
        <ele>18.8</ele>
        <time>2023-08-01T10:30:21Z</time>
      </trkpt>
      <trkpt lat="22.540328" lon="113.954331">
        <ele>18.7</ele>
        <time>2023-08-01T10:30:22Z</time>
      </trkpt>
      <trkpt lat="22.540379" lon="113.954359">
        <ele>18.7</ele>
        <time>2023-08-01T10:30:23Z</time>
      </trkpt>
      <trkpt lat="22.540429" lon="113.954389">
        <ele>18.7</ele>
        <time>2023-08-01T10:30:24Z</time>
      </trkpt>
      <trkpt lat="22.540478" lon="113.954415">
        <ele>18.7</ele>
        <time>2023-08-01T10:30:25Z</time>
      </trkpt>
      <trkpt lat="22.54053" lon="113.954443">
        <ele>18.7</ele>
        <time>2023-08-01T10:30:26Z</time>
      </trkpt>
      <trkpt lat="22.540587" lon="113.954469">
        <ele>18.6</ele>
        <time>2023-08-01T10:30:27Z</time>
      </trkpt>
      <trkpt lat="22.540642" lon="113.954496">
        <ele>18.6</ele>
        <time>2023-08-01T10:30:28Z</time>
      </trkpt>
      <trkpt lat="22.540693" lon="113.954522">
        <ele>18.6</ele>
        <time>2023-08-01T10:30:29Z</time>
      </trkpt>
      <trkpt lat="22.54074" lon="113.954544">
        <ele>18.6</ele>
        <time>2023-08-01T10:30:30Z</time>
      </trkpt>
      <trkpt lat="22.540792" lon="113.954573">
        <ele>18.5</ele>
        <time>2023-08-01T10:30:31Z</time>
      </trkpt>
      <trkpt lat="22.540845" lon="113.954598">
        <ele>18.5</ele>
        <time>2023-08-01T10:30:32Z</time>
      </trkpt>
      <trkpt lat="22.540895" lon="113.954626">
        <ele>18.5</ele>
        <time>2023-08-01T10:30:33Z</time>
      </trkpt>
      <trkpt lat="22.540946" lon="113.954656">
        <ele>18.5</ele>
        <time>2023-08-01T10:30:34Z</time>
      </trkpt>
      <trkpt lat="22.541001" lon="113.954687">
        <ele>18.4</ele>
        <time>2023-08-01T10:30:35Z</time>
      </trkpt>
      <trkpt lat="22.541059" lon="113.954718">
        <ele>18.4</ele>
        <time>2023-08-01T10:30:36Z</time>
      </trkpt>
      <trkpt lat="22.541112" lon="113.954748">
        <ele>18.4</ele>
        <time>2023-08-01T10:30:37Z</time>
      </trkpt>
      <trkpt lat="22.541162" lon="113.954773">
        <ele>18.4</ele>
        <time>2023-08-01T10:30:38Z</time>
      </trkpt>
      <trkpt lat="22.541213" lon="113.954796">
        <ele>18.4</ele>
        <time>2023-08-01T10:30:39Z</time>
      </trkpt>
      <trkpt lat="22.541265" lon="113.954819">
        <ele>18.4</ele>
        <time>2023-08-01T10:30:40Z</time>
      </trkpt>
      <trkpt lat="22.541316" lon="113.954837">
        <ele>18.4</ele>
        <time>2023-08-01T10:30:41Z</time>
      </trkpt>
      <trkpt lat="22.541363" lon="113.954857">
        <ele>18.5</ele>
        <time>2023-08-01T10:30:42Z</time>
      </trkpt>
      <trkpt lat="22.54141" lon="113.954875">
        <ele>18.5</ele>
        <time>2023-08-01T10:30:43Z</time>
      </trkpt>
      <trkpt lat="22.541456" lon="113.954885">
        <ele>18.5</ele>
        <time>2023-08-01T10:30:44Z</time>
      </trkpt>
      <trkpt lat="22.541503" lon="113.954903">
        <ele>18.5</ele>
        <time>2023-08-01T10:30:45Z</time>
      </trkpt>
      <trkpt lat="22.541554" lon="113.954922">
        <ele>18.5</ele>
        <time>2023-08-01T10:30:46Z</time>
      </trkpt>
      <trkpt lat="22.541603" lon="113.954937">
        <ele>18.5</ele>
        <time>2023-08-01T10:30:47Z</time>
      </trkpt>
      <trkpt lat="22.541651" lon="113.954957">
        <ele>18.5</ele>
        <time>2023-08-01T10:30:48Z</time>
      </trkpt>
      <trkpt lat="22.541703" lon="113.954969">
        <ele>18.5</ele>
        <time>2023-08-01T10:30:49Z</time>
      </trkpt>
      <trkpt lat="22.541756" lon="113.954977">
        <ele>18.5</ele>
        <time>2023-08-01T10:30:50Z</time>
      </trkpt>
      <trkpt lat="22.541804" lon="113.95499">
        <ele>18.6</ele>
        <time>2023-08-01T10:30:51Z</time>
      </trkpt>
      <trkpt lat="22.541854" lon="113.955">
        <ele>18.6</ele>
        <time>2023-08-01T10:30:52Z</time>
      </trkpt>
      <trkpt lat="22.541905" lon="113.955012">
        <ele>18.6</ele>
        <time>2023-08-01T10:30:53Z</time>
      </trkpt>
      <trkpt lat="22.541956" lon="113.955022">
        <ele>18.6</ele>
        <time>2023-08-01T10:30:54Z</time>
      </trkpt>
      <trkpt lat="22.542007" lon="113.955035">
        <ele>18.6</ele>
        <time>2023-08-01T10:30:55Z</time>
      </trkpt>
      <trkpt lat="22.542057" lon="113.955045">
        <ele>18.6</ele>
        <time>2023-08-01T10:30:56Z</time>
      </trkpt>
      <trkpt lat="22.542108" lon="113.955053">
        <ele>18.6</ele>
        <time>2023-08-01T10:30:57Z</time>
      </trkpt>
      <trkpt lat="22.542155" lon="113.955055">
        <ele>18.6</ele>
        <time>2023-08-01T10:30:58Z</time>
      </trkpt>
      <trkpt lat="22.5422" lon="113.955066">
        <ele>18.6</ele>
        <time>2023-08-01T10:30:59Z</time>
      </trkpt>
      <trkpt lat="22.542246" lon="113.955081">
        <ele>18.6</ele>
        <time>2023-08-01T10:31:00Z</time>
      </trkpt>
      <trkpt lat="22.542295" lon="113.955091">
        <ele>18.7</ele>
        <time>2023-08-01T10:31:01Z</time>
      </trkpt>
      <trkpt lat="22.542343" lon="113.955098">
        <ele>18.7</ele>
        <time>2023-08-01T10:31:02Z</time>
      </trkpt>
      <trkpt lat="22.542391" lon="113.955101">
        <ele>18.7</ele>
        <time>2023-08-01T10:31:03Z</time>
      </trkpt>
      <trkpt lat="22.542442" lon="113.955106">
        <ele>18.7</ele>
        <time>2023-08-01T10:31:04Z</time>
      </trkpt>
      <trkpt lat="22.542494" lon="113.955114">
        <ele>18.7</ele>
        <time>2023-08-01T10:31:05Z</time>
      </trkpt>
      <trkpt lat="22.542545" lon="113.955127">
        <ele>18.7</ele>
        <time>2023-08-01T10:31:06Z</time>
      </trkpt>
      <trkpt lat="22.542595" lon="113.955137">
        <ele>18.7</ele>
        <time>2023-08-01T10:31:07Z</time>
      </trkpt>
      <trkpt lat="22.542649" lon="113.955139">
        <ele>18.7</ele>
        <time>2023-08-01T10:31:08Z</time>
      </trkpt>
      <trkpt lat="22.542701" lon="113.955139">
        <ele>18.7</ele>
        <time>2023-08-01T10:31:09Z</time>
      </trkpt>
      <trkpt lat="22.542752" lon="113.955139">
        <ele>18.8</ele>
        <time>2023-08-01T10:31:10Z</time>
      </trkpt>
      <trkpt lat="22.542801" lon="113.955144">
        <ele>18.8</ele>
        <time>2023-08-01T10:31:11Z</time>
      </trkpt>
      <trkpt lat="22.542849" lon="113.955157">
        <ele>18.8</ele>
        <time>2023-08-01T10:31:12Z</time>
      </trkpt>
      <trkpt lat="22.542894" lon="113.955178">
        <ele>18.8</ele>
        <time>2023-08-01T10:31:13Z</time>
      </trkpt>
      <trkpt lat="22.542935" lon="113.955195">
        <ele>18.9</ele>
        <time>2023-08-01T10:31:14Z</time>
      </trkpt>
      <trkpt lat="22.542979" lon="113.955205">
        <ele>18.9</ele>
        <time>2023-08-01T10:31:15Z</time>
      </trkpt>
      <trkpt lat="22.543025" lon="113.955213">
        <ele>18.9</ele>
        <time>2023-08-01T10:31:16Z</time>
      </trkpt>
      <trkpt lat="22.543064" lon="113.955215">
        <ele>19</ele>
        <time>2023-08-01T10:31:17Z</time>
      </trkpt>
      <trkpt lat="22.543089" lon="113.95521">
        <ele>19</ele>
        <time>2023-08-01T10:31:18Z</time>
      </trkpt>
      <trkpt lat="22.543102" lon="113.955203">
        <ele>19</ele>
        <time>2023-08-01T10:31:19Z</time>
      </trkpt>
      <trkpt lat="22.543118" lon="113.95519">
        <ele>19</ele>
        <time>2023-08-01T10:31:20Z</time>
      </trkpt>
      <trkpt lat="22.543143" lon="113.955174">
        <ele>19.1</ele>
        <time>2023-08-01T10:31:21Z</time>
      </trkpt>
      <trkpt lat="22.54318" lon="113.955159">
        <ele>19.1</ele>
        <time>2023-08-01T10:31:22Z</time>
      </trkpt>
      <trkpt lat="22.543225" lon="113.955149">
        <ele>19.1</ele>
        <time>2023-08-01T10:31:23Z</time>
      </trkpt>
      <trkpt lat="22.543265" lon="113.955142">
        <ele>19.2</ele>
        <time>2023-08-01T10:31:24Z</time>
      </trkpt>
      <trkpt lat="22.543321" lon="113.955134">
        <ele>19.2</ele>
        <time>2023-08-01T10:31:25Z</time>
      </trkpt>
      <trkpt lat="22.543406" lon="113.955121">
        <ele>19.3</ele>
        <time>2023-08-01T10:31:26Z</time>
      </trkpt>
      <trkpt lat="22.543472" lon="113.955116">
        <ele>19.4</ele>
        <time>2023-08-01T10:31:27Z</time>
      </trkpt>
      <trkpt lat="22.543516" lon="113.955116">
        <ele>19.4</ele>
        <time>2023-08-01T10:31:28Z</time>
      </trkpt>
      <trkpt lat="22.543556" lon="113.955116">
        <ele>19.5</ele>
        <time>2023-08-01T10:31:29Z</time>
      </trkpt>
      <trkpt lat="22.543594" lon="113.955122">
        <ele>19.5</ele>
        <time>2023-08-01T10:31:30Z</time>
      </trkpt>
      <trkpt lat="22.543649" lon="113.955129">
        <ele>19.5</ele>
        <time>2023-08-01T10:31:31Z</time>
      </trkpt>
      <trkpt lat="22.54369" lon="113.955131">
        <ele>19.6</ele>
        <time>2023-08-01T10:31:32Z</time>
      </trkpt>
      <trkpt lat="22.543724" lon="113.955126">
        <ele>19.6</ele>
        <time>2023-08-01T10:31:33Z</time>
      </trkpt>
      <trkpt lat="22.543759" lon="113.955119">
        <ele>19.6</ele>
        <time>2023-08-01T10:31:34Z</time>
      </trkpt>
      <trkpt lat="22.543796" lon="113.955116">
        <ele>19.7</ele>
        <time>2023-08-01T10:31:35Z</time>
      </trkpt>
      <trkpt lat="22.54383" lon="113.955116">
        <ele>19.7</ele>
        <time>2023-08-01T10:31:36Z</time>
      </trkpt>
      <trkpt lat="22.543852" lon="113.955111">
        <ele>19.7</ele>
        <time>2023-08-01T10:31:37Z</time>
      </trkpt>
      <trkpt lat="22.54387" lon="113.955124">
        <ele>19.8</ele>
        <time>2023-08-01T10:31:38Z</time>
      </trkpt>
      <trkpt lat="22.543889" lon="113.955146">
        <ele>19.8</ele>
        <time>2023-08-01T10:31:39Z</time>
      </trkpt>
      <trkpt lat="22.543908" lon="113.955169">
        <ele>19.8</ele>
        <time>2023-08-01T10:31:40Z</time>
      </trkpt>
      <trkpt lat="22.543933" lon="113.955182">
        <ele>19.8</ele>
        <time>2023-08-01T10:31:41Z</time>
      </trkpt>
      <trkpt lat="22.543957" lon="113.955185">
        <ele>19.9</ele>
        <time>2023-08-01T10:31:42Z</time>
      </trkpt>
      <trkpt lat="22.543981" lon="113.95519">
        <ele>19.9</ele>
        <time>2023-08-01T10:31:43Z</time>
      </trkpt>
      <trkpt lat="22.544006" lon="113.955207">
        <ele>19.9</ele>
        <time>2023-08-01T10:31:44Z</time>
      </trkpt>
      <trkpt lat="22.544029" lon="113.955225">
        <ele>19.9</ele>
        <time>2023-08-01T10:31:45Z</time>
      </trkpt>
      <trkpt lat="22.54406" lon="113.955241">
        <ele>20</ele>
        <time>2023-08-01T10:31:46Z</time>
      </trkpt>
      <trkpt lat="22.544099" lon="113.955256">
        <ele>20</ele>
        <time>2023-08-01T10:31:47Z</time>
      </trkpt>
      <trkpt lat="22.544137" lon="113.955271">
        <ele>20</ele>
        <time>2023-08-01T10:31:48Z</time>
      </trkpt>
      <trkpt lat="22.544177" lon="113.955281">
        <ele>20.1</ele>
        <time>2023-08-01T10:31:49Z</time>
      </trkpt>
      <trkpt lat="22.544217" lon="113.955284">
        <ele>20.1</ele>
        <time>2023-08-01T10:31:50Z</time>
      </trkpt>
      <trkpt lat="22.544253" lon="113.955284">
        <ele>20.2</ele>
        <time>2023-08-01T10:31:51Z</time>
      </trkpt>
      <trkpt lat="22.544291" lon="113.955284">
        <ele>20.2</ele>
        <time>2023-08-01T10:31:52Z</time>
      </trkpt>
      <trkpt lat="22.544331" lon="113.955284">
        <ele>20.2</ele>
        <time>2023-08-01T10:31:53Z</time>
      </trkpt>
      <trkpt lat="22.544368" lon="113.955289">
        <ele>20.3</ele>
        <time>2023-08-01T10:31:54Z</time>
      </trkpt>
      <trkpt lat="22.544404" lon="113.955287">
        <ele>20.3</ele>
        <time>2023-08-01T10:31:55Z</time>
      </trkpt>
      <trkpt lat="22.544438" lon="113.955284">
        <ele>20.3</ele>
        <time>2023-08-01T10:31:56Z</time>
      </trkpt>
      <trkpt lat="22.544471" lon="113.955279">
        <ele>20.4</ele>
        <time>2023-08-01T10:31:57Z</time>
      </trkpt>
      <trkpt lat="22.544513" lon="113.955271">
        <ele>20.4</ele>
        <time>2023-08-01T10:31:58Z</time>
      </trkpt>
      <trkpt lat="22.544555" lon="113.95528">
        <ele>20.4</ele>
        <time>2023-08-01T10:31:59Z</time>
      </trkpt>
      <trkpt lat="22.544604" lon="113.9553">
        <ele>20.5</ele>
        <time>2023-08-01T10:32:00Z</time>
      </trkpt>
      <trkpt lat="22.544655" lon="113.955312">
        <ele>20.5</ele>
        <time>2023-08-01T10:32:01Z</time>
      </trkpt>
      <trkpt lat="22.544703" lon="113.95532">
        <ele>20.5</ele>
        <time>2023-08-01T10:32:02Z</time>
      </trkpt>
      <trkpt lat="22.544747" lon="113.955317">
        <ele>20.5</ele>
        <time>2023-08-01T10:32:03Z</time>
      </trkpt>
      <trkpt lat="22.544788" lon="113.955315">
        <ele>20.5</ele>
        <time>2023-08-01T10:32:04Z</time>
      </trkpt>
      <trkpt lat="22.544832" lon="113.955309">
        <ele>20.5</ele>
        <time>2023-08-01T10:32:05Z</time>
      </trkpt>
      <trkpt lat="22.544876" lon="113.955307">
        <ele>20.5</ele>
        <time>2023-08-01T10:32:06Z</time>
      </trkpt>
      <trkpt lat="22.544924" lon="113.955312">
        <ele>20.6</ele>
        <time>2023-08-01T10:32:07Z</time>
      </trkpt>
      <trkpt lat="22.544965" lon="113.95532">
        <ele>20.6</ele>
        <time>2023-08-01T10:32:08Z</time>
      </trkpt>
      <trkpt lat="22.545011" lon="113.955327">
        <ele>20.6</ele>
        <time>2023-08-01T10:32:09Z</time>
      </trkpt>
      <trkpt lat="22.545059" lon="113.95533">
        <ele>20.6</ele>
        <time>2023-08-01T10:32:10Z</time>
      </trkpt>
      <trkpt lat="22.545109" lon="113.95534">
        <ele>20.6</ele>
        <time>2023-08-01T10:32:11Z</time>
      </trkpt>
      <trkpt lat="22.545154" lon="113.955356">
        <ele>20.6</ele>
        <time>2023-08-01T10:32:12Z</time>
      </trkpt>
      <trkpt lat="22.545201" lon="113.955366">
        <ele>20.6</ele>
        <time>2023-08-01T10:32:13Z</time>
      </trkpt>
      <trkpt lat="22.54525" lon="113.955379">
        <ele>20.7</ele>
        <time>2023-08-01T10:32:14Z</time>
      </trkpt>
      <trkpt lat="22.545301" lon="113.955394">
        <ele>20.7</ele>
        <time>2023-08-01T10:32:15Z</time>
      </trkpt>
      <trkpt lat="22.545357" lon="113.955404">
        <ele>20.7</ele>
        <time>2023-08-01T10:32:16Z</time>
      </trkpt>
      <trkpt lat="22.545417" lon="113.955417">
        <ele>20.7</ele>
        <time>2023-08-01T10:32:17Z</time>
      </trkpt>
      <trkpt lat="22.545472" lon="113.955427">
        <ele>20.7</ele>
        <time>2023-08-01T10:32:18Z</time>
      </trkpt>
      <trkpt lat="22.545525" lon="113.955439">
        <ele>20.7</ele>
        <time>2023-08-01T10:32:19Z</time>
      </trkpt>
      <trkpt lat="22.545576" lon="113.955455">
        <ele>20.7</ele>
        <time>2023-08-01T10:32:20Z</time>
      </trkpt>
      <trkpt lat="22.54563" lon="113.95547">
        <ele>20.8</ele>
        <time>2023-08-01T10:32:21Z</time>
      </trkpt>
      <trkpt lat="22.545695" lon="113.955491">
        <ele>20.8</ele>
        <time>2023-08-01T10:32:22Z</time>
      </trkpt>
      <trkpt lat="22.545761" lon="113.955508">
        <ele>20.8</ele>
        <time>2023-08-01T10:32:23Z</time>
      </trkpt>
      <trkpt lat="22.545827" lon="113.955523">
        <ele>20.8</ele>
        <time>2023-08-01T10:32:24Z</time>
      </trkpt>
      <trkpt lat="22.545893" lon="113.955544">
        <ele>20.8</ele>
        <time>2023-08-01T10:32:25Z</time>
      </trkpt>
      <trkpt lat="22.545954" lon="113.955567">
        <ele>20.9</ele>
        <time>2023-08-01T10:32:26Z</time>
      </trkpt>
      <trkpt lat="22.546012" lon="113.955584">
        <ele>20.9</ele>
        <time>2023-08-01T10:32:27Z</time>
      </trkpt>
      <trkpt lat="22.54607" lon="113.955599">
        <ele>20.9</ele>
        <time>2023-08-01T10:32:28Z</time>
      </trkpt>
      <trkpt lat="22.546124" lon="113.955615">
        <ele>20.9</ele>
        <time>2023-08-01T10:32:29Z</time>
      </trkpt>
      <trkpt lat="22.546179" lon="113.955636">
        <ele>20.9</ele>
        <time>2023-08-01T10:32:30Z</time>
      </trkpt>
      <trkpt lat="22.546238" lon="113.955653">
        <ele>20.9</ele>
        <time>2023-08-01T10:32:31Z</time>
      </trkpt>
      <trkpt lat="22.546299" lon="113.955668">
        <ele>21</ele>
        <time>2023-08-01T10:32:32Z</time>
      </trkpt>
      <trkpt lat="22.546362" lon="113.955684">
        <ele>21</ele>
        <time>2023-08-01T10:32:33Z</time>
      </trkpt>
      <trkpt lat="22.546427" lon="113.955699">
        <ele>21</ele>
        <time>2023-08-01T10:32:34Z</time>
      </trkpt>
      <trkpt lat="22.546492" lon="113.95572">
        <ele>21</ele>
        <time>2023-08-01T10:32:35Z</time>
      </trkpt>
      <trkpt lat="22.546555" lon="113.955737">
        <ele>21</ele>
        <time>2023-08-01T10:32:36Z</time>
      </trkpt>
      <trkpt lat="22.546614" lon="113.955758">
        <ele>21</ele>
        <time>2023-08-01T10:32:37Z</time>
      </trkpt>
      <trkpt lat="22.546673" lon="113.955775">
        <ele>21</ele>
        <time>2023-08-01T10:32:38Z</time>
      </trkpt>
      <trkpt lat="22.546732" lon="113.95579">
        <ele>21</ele>
        <time>2023-08-01T10:32:39Z</time>
      </trkpt>
      <trkpt lat="22.546789" lon="113.955812">
        <ele>21</ele>
        <time>2023-08-01T10:32:40Z</time>
      </trkpt>
      <trkpt lat="22.546847" lon="113.955834">
        <ele>21</ele>
        <time>2023-08-01T10:32:41Z</time>
      </trkpt>
      <trkpt lat="22.546904" lon="113.955851">
        <ele>21</ele>
        <time>2023-08-01T10:32:42Z</time>
      </trkpt>
      <trkpt lat="22.546964" lon="113.955867">
        <ele>21</ele>
        <time>2023-08-01T10:32:43Z</time>
      </trkpt>
      <trkpt lat="22.54703" lon="113.955877">
        <ele>21</ele>
        <time>2023-08-01T10:32:44Z</time>
      </trkpt>
      <trkpt lat="22.547094" lon="113.95589">
        <ele>21.1</ele>
        <time>2023-08-01T10:32:45Z</time>
      </trkpt>
      <trkpt lat="22.547155" lon="113.955905">
        <ele>21.1</ele>
        <time>2023-08-01T10:32:46Z</time>
      </trkpt>
      <trkpt lat="22.54721" lon="113.955915">
        <ele>21.1</ele>
        <time>2023-08-01T10:32:47Z</time>
      </trkpt>
      <trkpt lat="22.547276" lon="113.955933">
        <ele>21.1</ele>
        <time>2023-08-01T10:32:48Z</time>
      </trkpt>
      <trkpt lat="22.547342" lon="113.955956">
        <ele>21.1</ele>
        <time>2023-08-01T10:32:49Z</time>
      </trkpt>
      <trkpt lat="22.547407" lon="113.955979">
        <ele>21.1</ele>
        <time>2023-08-01T10:32:50Z</time>
      </trkpt>
      <trkpt lat="22.54747" lon="113.955997">
        <ele>21.1</ele>
        <time>2023-08-01T10:32:51Z</time>
      </trkpt>
      <trkpt lat="22.547527" lon="113.956012">
        <ele>21.1</ele>
        <time>2023-08-01T10:32:52Z</time>
      </trkpt>
      <trkpt lat="22.547585" lon="113.956027">
        <ele>21.1</ele>
        <time>2023-08-01T10:32:53Z</time>
      </trkpt>
      <trkpt lat="22.547648" lon="113.956047">
        <ele>21.1</ele>
        <time>2023-08-01T10:32:54Z</time>
      </trkpt>
      <trkpt lat="22.547707" lon="113.95606">
        <ele>21.1</ele>
        <time>2023-08-01T10:32:55Z</time>
      </trkpt>
      <trkpt lat="22.547769" lon="113.956078">
        <ele>21.1</ele>
        <time>2023-08-01T10:32:56Z</time>
      </trkpt>
      <trkpt lat="22.547831" lon="113.956101">
        <ele>21.1</ele>
        <time>2023-08-01T10:32:57Z</time>
      </trkpt>
      <trkpt lat="22.547891" lon="113.956123">
        <ele>21.1</ele>
        <time>2023-08-01T10:32:58Z</time>
      </trkpt>
      <trkpt lat="22.54795" lon="113.956146">
        <ele>21.2</ele>
        <time>2023-08-01T10:32:59Z</time>
      </trkpt>
      <trkpt lat="22.54801" lon="113.956164">
        <ele>21.2</ele>
        <time>2023-08-01T10:33:00Z</time>
      </trkpt>
      <trkpt lat="22.548067" lon="113.956179">
        <ele>21.2</ele>
        <time>2023-08-01T10:33:01Z</time>
      </trkpt>
      <trkpt lat="22.548126" lon="113.956195">
        <ele>21.2</ele>
        <time>2023-08-01T10:33:02Z</time>
      </trkpt>
      <trkpt lat="22.548186" lon="113.95621">
        <ele>21.2</ele>
        <time>2023-08-01T10:33:03Z</time>
      </trkpt>
      <trkpt lat="22.548246" lon="113.956225">
        <ele>21.2</ele>
        <time>2023-08-01T10:33:04Z</time>
      </trkpt>
      <trkpt lat="22.548307" lon="113.95624">
        <ele>21.2</ele>
        <time>2023-08-01T10:33:05Z</time>
      </trkpt>
      <trkpt lat="22.548365" lon="113.956256">
        <ele>21.2</ele>
        <time>2023-08-01T10:33:06Z</time>
      </trkpt>
      <trkpt lat="22.548426" lon="113.956271">
        <ele>21.2</ele>
        <time>2023-08-01T10:33:07Z</time>
      </trkpt>
      <trkpt lat="22.548486" lon="113.956287">
        <ele>21.2</ele>
        <time>2023-08-01T10:33:08Z</time>
      </trkpt>
      <trkpt lat="22.548547" lon="113.956307">
        <ele>21.2</ele>
        <time>2023-08-01T10:33:09Z</time>
      </trkpt>
      <trkpt lat="22.548608" lon="113.956329">
        <ele>21.2</ele>
        <time>2023-08-01T10:33:10Z</time>
      </trkpt>
      <trkpt lat="22.548665" lon="113.956347">
        <ele>21.2</ele>
        <time>2023-08-01T10:33:11Z</time>
      </trkpt>
      <trkpt lat="22.548725" lon="113.956363">
        <ele>21.2</ele>
        <time>2023-08-01T10:33:12Z</time>
      </trkpt>
      <trkpt lat="22.548786" lon="113.956378">
        <ele>21.2</ele>
        <time>2023-08-01T10:33:13Z</time>
      </trkpt>
      <trkpt lat="22.548846" lon="113.956393">
        <ele>21.2</ele>
        <time>2023-08-01T10:33:14Z</time>
      </trkpt>
      <trkpt lat="22.548906" lon="113.956408">
        <ele>21.2</ele>
        <time>2023-08-01T10:33:15Z</time>
      </trkpt>
      <trkpt lat="22.548967" lon="113.956423">
        <ele>21.2</ele>
        <time>2023-08-01T10:33:16Z</time>
      </trkpt>
      <trkpt lat="22.549031" lon="113.956438">
        <ele>21.2</ele>
        <time>2023-08-01T10:33:17Z</time>
      </trkpt>
      <trkpt lat="22.549096" lon="113.956454">
        <ele>21.2</ele>
        <time>2023-08-01T10:33:18Z</time>
      </trkpt>
      <trkpt lat="22.54916" lon="113.956475">
        <ele>21.2</ele>
        <time>2023-08-01T10:33:19Z</time>
      </trkpt>
      <trkpt lat="22.549222" lon="113.956498">
        <ele>21.2</ele>
        <time>2023-08-01T10:33:20Z</time>
      </trkpt>
      <trkpt lat="22.549287" lon="113.956515">
        <ele>21.2</ele>
        <time>2023-08-01T10:33:21Z</time>
      </trkpt>
      <trkpt lat="22.549353" lon="113.956536">
        <ele>21.2</ele>
        <time>2023-08-01T10:33:22Z</time>
      </trkpt>
      <trkpt lat="22.549418" lon="113.956553">
        <ele>21.2</ele>
        <time>2023-08-01T10:33:23Z</time>
      </trkpt>
      <trkpt lat="22.549484" lon="113.956563">
        <ele>21.2</ele>
        <time>2023-08-01T10:33:24Z</time>
      </trkpt>
      <trkpt lat="22.549555" lon="113.956566">
        <ele>21.2</ele>
        <time>2023-08-01T10:33:25Z</time>
      </trkpt>
      <trkpt lat="22.54962" lon="113.956576">
        <ele>21.2</ele>
        <time>2023-08-01T10:33:26Z</time>
      </trkpt>
      <trkpt lat="22.549684" lon="113.956581">
        <ele>21.2</ele>
        <time>2023-08-01T10:33:27Z</time>
      </trkpt>
      <trkpt lat="22.549745" lon="113.956581">
        <ele>21.2</ele>
        <time>2023-08-01T10:33:28Z</time>
      </trkpt>
      <trkpt lat="22.549807" lon="113.956586">
        <ele>21.2</ele>
        <time>2023-08-01T10:33:29Z</time>
      </trkpt>
      <trkpt lat="22.549871" lon="113.956589">
        <ele>21.2</ele>
        <time>2023-08-01T10:33:30Z</time>
      </trkpt>
      <trkpt lat="22.549932" lon="113.956589">
        <ele>21.2</ele>
        <time>2023-08-01T10:33:31Z</time>
      </trkpt>
      <trkpt lat="22.549995" lon="113.956589">
        <ele>21.2</ele>
        <time>2023-08-01T10:33:32Z</time>
      </trkpt>
      <trkpt lat="22.550058" lon="113.956594">
        <ele>21.2</ele>
        <time>2023-08-01T10:33:33Z</time>
      </trkpt>
      <trkpt lat="22.55012" lon="113.956596">
        <ele>21.2</ele>
        <time>2023-08-01T10:33:34Z</time>
      </trkpt>
      <trkpt lat="22.550185" lon="113.956596">
        <ele>21.2</ele>
        <time>2023-08-01T10:33:35Z</time>
      </trkpt>
      <trkpt lat="22.550247" lon="113.956596">
        <ele>21.2</ele>
        <time>2023-08-01T10:33:36Z</time>
      </trkpt>
      <trkpt lat="22.550308" lon="113.956602">
        <ele>21.2</ele>
        <time>2023-08-01T10:33:37Z</time>
      </trkpt>
      <trkpt lat="22.550369" lon="113.956604">
        <ele>21.2</ele>
        <time>2023-08-01T10:33:38Z</time>
      </trkpt>
      <trkpt lat="22.55043" lon="113.956604">
        <ele>21.2</ele>
        <time>2023-08-01T10:33:39Z</time>
      </trkpt>
      <trkpt lat="22.550491" lon="113.956599">
        <ele>21.2</ele>
        <time>2023-08-01T10:33:40Z</time>
      </trkpt>
      <trkpt lat="22.550552" lon="113.956596">
        <ele>21.3</ele>
        <time>2023-08-01T10:33:41Z</time>
      </trkpt>
      <trkpt lat="22.550612" lon="113.956591">
        <ele>21.3</ele>
        <time>2023-08-01T10:33:42Z</time>
      </trkpt>
      <trkpt lat="22.550673" lon="113.956584">
        <ele>21.3</ele>
        <time>2023-08-01T10:33:43Z</time>
      </trkpt>
      <trkpt lat="22.550733" lon="113.956571">
        <ele>21.3</ele>
        <time>2023-08-01T10:33:44Z</time>
      </trkpt>
      <trkpt lat="22.550795" lon="113.956561">
        <ele>21.3</ele>
        <time>2023-08-01T10:33:45Z</time>
      </trkpt>
      <trkpt lat="22.550856" lon="113.956553">
        <ele>21.3</ele>
        <time>2023-08-01T10:33:46Z</time>
      </trkpt>
      <trkpt lat="22.550919" lon="113.956545">
        <ele>21.3</ele>
        <time>2023-08-01T10:33:47Z</time>
      </trkpt>
      <trkpt lat="22.55098" lon="113.956538">
        <ele>21.3</ele>
        <time>2023-08-01T10:33:48Z</time>
      </trkpt>
      <trkpt lat="22.551039" lon="113.956525">
        <ele>21.3</ele>
        <time>2023-08-01T10:33:49Z</time>
      </trkpt>
      <trkpt lat="22.551101" lon="113.956509">
        <ele>21.3</ele>
        <time>2023-08-01T10:33:50Z</time>
      </trkpt>
      <trkpt lat="22.551164" lon="113.956494">
        <ele>21.3</ele>
        <time>2023-08-01T10:33:51Z</time>
      </trkpt>
      <trkpt lat="22.551225" lon="113.956479">
        <ele>21.3</ele>
        <time>2023-08-01T10:33:52Z</time>
      </trkpt>
      <trkpt lat="22.551287" lon="113.956469">
        <ele>21.3</ele>
        <time>2023-08-01T10:33:53Z</time>
      </trkpt>
      <trkpt lat="22.551349" lon="113.956456">
        <ele>21.3</ele>
        <time>2023-08-01T10:33:54Z</time>
      </trkpt>
      <trkpt lat="22.551408" lon="113.956441">
        <ele>21.3</ele>
        <time>2023-08-01T10:33:55Z</time>
      </trkpt>
      <trkpt lat="22.551466" lon="113.956426">
        <ele>21.3</ele>
        <time>2023-08-01T10:33:56Z</time>
      </trkpt>
      <trkpt lat="22.551526" lon="113.956411">
        <ele>21.3</ele>
        <time>2023-08-01T10:33:57Z</time>
      </trkpt>
      <trkpt lat="22.551586" lon="113.95639">
        <ele>21.3</ele>
        <time>2023-08-01T10:33:58Z</time>
      </trkpt>
      <trkpt lat="22.551647" lon="113.956372">
        <ele>21.3</ele>
        <time>2023-08-01T10:33:59Z</time>
      </trkpt>
      <trkpt lat="22.551707" lon="113.956352">
        <ele>21.3</ele>
        <time>2023-08-01T10:34:00Z</time>
      </trkpt>
      <trkpt lat="22.551764" lon="113.956334">
        <ele>21.3</ele>
        <time>2023-08-01T10:34:01Z</time>
      </trkpt>
      <trkpt lat="22.551822" lon="113.956309">
        <ele>21.3</ele>
        <time>2023-08-01T10:34:02Z</time>
      </trkpt>
      <trkpt lat="22.551881" lon="113.956284">
        <ele>21.3</ele>
        <time>2023-08-01T10:34:03Z</time>
      </trkpt>
      <trkpt lat="22.551939" lon="113.956266">
        <ele>21.3</ele>
        <time>2023-08-01T10:34:04Z</time>
      </trkpt>
      <trkpt lat="22.551995" lon="113.956245">
        <ele>21.3</ele>
        <time>2023-08-01T10:34:05Z</time>
      </trkpt>
      <trkpt lat="22.552051" lon="113.956217">
        <ele>21.3</ele>
        <time>2023-08-01T10:34:06Z</time>
      </trkpt>
      <trkpt lat="22.552102" lon="113.956192">
        <ele>21.3</ele>
        <time>2023-08-01T10:34:07Z</time>
      </trkpt>
      <trkpt lat="22.552152" lon="113.956169">
        <ele>21.3</ele>
        <time>2023-08-01T10:34:08Z</time>
      </trkpt>
      <trkpt lat="22.552198" lon="113.956146">
        <ele>21.3</ele>
        <time>2023-08-01T10:34:09Z</time>
      </trkpt>
      <trkpt lat="22.552239" lon="113.956128">
        <ele>21.3</ele>
        <time>2023-08-01T10:34:10Z</time>
      </trkpt>
      <trkpt lat="22.552275" lon="113.956108">
        <ele>21.3</ele>
        <time>2023-08-01T10:34:11Z</time>
      </trkpt>
      <trkpt lat="22.552314" lon="113.956085">
        <ele>21.3</ele>
        <time>2023-08-01T10:34:12Z</time>
      </trkpt>
      <trkpt lat="22.552358" lon="113.956062">
        <ele>21.3</ele>
        <time>2023-08-01T10:34:13Z</time>
      </trkpt>
      <trkpt lat="22.552407" lon="113.956039">
        <ele>21.3</ele>
        <time>2023-08-01T10:34:14Z</time>
      </trkpt>
      <trkpt lat="22.552457" lon="113.956021">
        <ele>21.3</ele>
        <time>2023-08-01T10:34:15Z</time>
      </trkpt>
      <trkpt lat="22.552505" lon="113.956001">
        <ele>21.3</ele>
        <time>2023-08-01T10:34:16Z</time>
      </trkpt>
      <trkpt lat="22.552552" lon="113.955973">
        <ele>21.3</ele>
        <time>2023-08-01T10:34:17Z</time>
      </trkpt>
      <trkpt lat="22.552602" lon="113.955942">
        <ele>21.3</ele>
        <time>2023-08-01T10:34:18Z</time>
      </trkpt>
      <trkpt lat="22.552651" lon="113.955906">
        <ele>21.3</ele>
        <time>2023-08-01T10:34:19Z</time>
      </trkpt>
      <trkpt lat="22.5527" lon="113.955874">
        <ele>21.3</ele>
        <time>2023-08-01T10:34:20Z</time>
      </trkpt>
      <trkpt lat="22.552747" lon="113.955838">
        <ele>21.3</ele>
        <time>2023-08-01T10:34:21Z</time>
      </trkpt>
      <trkpt lat="22.552797" lon="113.955805">
        <ele>21.3</ele>
        <time>2023-08-01T10:34:22Z</time>
      </trkpt>
      <trkpt lat="22.552848" lon="113.955775">
        <ele>21.3</ele>
        <time>2023-08-01T10:34:23Z</time>
      </trkpt>
      <trkpt lat="22.552893" lon="113.955739">
        <ele>21.3</ele>
        <time>2023-08-01T10:34:24Z</time>
      </trkpt>
      <trkpt lat="22.552938" lon="113.955706">
        <ele>21.3</ele>
        <time>2023-08-01T10:34:25Z</time>
      </trkpt>
      <trkpt lat="22.55299" lon="113.955675">
        <ele>21.3</ele>
        <time>2023-08-01T10:34:26Z</time>
      </trkpt>
      <trkpt lat="22.553045" lon="113.955645">
        <ele>21.3</ele>
        <time>2023-08-01T10:34:27Z</time>
      </trkpt>
      <trkpt lat="22.553096" lon="113.955608">
        <ele>21.3</ele>
        <time>2023-08-01T10:34:28Z</time>
      </trkpt>
      <trkpt lat="22.553143" lon="113.955559">
        <ele>21.3</ele>
        <time>2023-08-01T10:34:29Z</time>
      </trkpt>
      <trkpt lat="22.553186" lon="113.955512">
        <ele>21.3</ele>
        <time>2023-08-01T10:34:30Z</time>
      </trkpt>
      <trkpt lat="22.553229" lon="113.955467">
        <ele>21.4</ele>
        <time>2023-08-01T10:34:31Z</time>
      </trkpt>
      <trkpt lat="22.553277" lon="113.955416">
        <ele>21.4</ele>
        <time>2023-08-01T10:34:32Z</time>
      </trkpt>
      <trkpt lat="22.553328" lon="113.955379">
        <ele>21.4</ele>
        <time>2023-08-01T10:34:33Z</time>
      </trkpt>
      <trkpt lat="22.553385" lon="113.955343">
        <ele>21.4</ele>
        <time>2023-08-01T10:34:34Z</time>
      </trkpt>
      <trkpt lat="22.55344" lon="113.955304">
        <ele>21.4</ele>
        <time>2023-08-01T10:34:35Z</time>
      </trkpt>
      <trkpt lat="22.553487" lon="113.955266">
        <ele>21.4</ele>
        <time>2023-08-01T10:34:36Z</time>
      </trkpt>
      <trkpt lat="22.553528" lon="113.955223">
        <ele>21.4</ele>
        <time>2023-08-01T10:34:37Z</time>
      </trkpt>
      <trkpt lat="22.553569" lon="113.955172">
        <ele>21.4</ele>
        <time>2023-08-01T10:34:38Z</time>
      </trkpt>
      <trkpt lat="22.553616" lon="113.955123">
        <ele>21.4</ele>
        <time>2023-08-01T10:34:39Z</time>
      </trkpt>
      <trkpt lat="22.553666" lon="113.955078">
        <ele>21.4</ele>
        <time>2023-08-01T10:34:40Z</time>
      </trkpt>
      <trkpt lat="22.553719" lon="113.955031">
        <ele>21.4</ele>
        <time>2023-08-01T10:34:41Z</time>
      </trkpt>
      <trkpt lat="22.55377" lon="113.954986">
        <ele>21.5</ele>
        <time>2023-08-01T10:34:42Z</time>
      </trkpt>
      <trkpt lat="22.553819" lon="113.954945">
        <ele>21.5</ele>
        <time>2023-08-01T10:34:43Z</time>
      </trkpt>
      <trkpt lat="22.553867" lon="113.954902">
        <ele>21.5</ele>
        <time>2023-08-01T10:34:44Z</time>
      </trkpt>
      <trkpt lat="22.553917" lon="113.954856">
        <ele>21.5</ele>
        <time>2023-08-01T10:34:45Z</time>
      </trkpt>
      <trkpt lat="22.553963" lon="113.95481">
        <ele>21.5</ele>
        <time>2023-08-01T10:34:46Z</time>
      </trkpt>
      <trkpt lat="22.554006" lon="113.95476">
        <ele>21.5</ele>
        <time>2023-08-01T10:34:47Z</time>
      </trkpt>
      <trkpt lat="22.554052" lon="113.954711">
        <ele>21.5</ele>
        <time>2023-08-01T10:34:48Z</time>
      </trkpt>
      <trkpt lat="22.554102" lon="113.954666">
        <ele>21.5</ele>
        <time>2023-08-01T10:34:49Z</time>
      </trkpt>
      <trkpt lat="22.554157" lon="113.95462">
        <ele>21.5</ele>
        <time>2023-08-01T10:34:50Z</time>
      </trkpt>
      <trkpt lat="22.554213" lon="113.954574">
        <ele>21.5</ele>
        <time>2023-08-01T10:34:51Z</time>
      </trkpt>
      <trkpt lat="22.554267" lon="113.954528">
        <ele>21.6</ele>
        <time>2023-08-01T10:34:52Z</time>
      </trkpt>
      <trkpt lat="22.554317" lon="113.954482">
        <ele>21.6</ele>
        <time>2023-08-01T10:34:53Z</time>
      </trkpt>
      <trkpt lat="22.554369" lon="113.954442">
        <ele>21.6</ele>
        <time>2023-08-01T10:34:54Z</time>
      </trkpt>
      <trkpt lat="22.554423" lon="113.954399">
        <ele>21.6</ele>
        <time>2023-08-01T10:34:55Z</time>
      </trkpt>
      <trkpt lat="22.55448" lon="113.954363">
        <ele>21.6</ele>
        <time>2023-08-01T10:34:56Z</time>
      </trkpt>
      <trkpt lat="22.554539" lon="113.954333">
        <ele>21.6</ele>
        <time>2023-08-01T10:34:57Z</time>
      </trkpt>
      <trkpt lat="22.554596" lon="113.954297">
        <ele>21.6</ele>
        <time>2023-08-01T10:34:58Z</time>
      </trkpt>
      <trkpt lat="22.554653" lon="113.954265">
        <ele>21.6</ele>
        <time>2023-08-01T10:34:59Z</time>
      </trkpt>
      <trkpt lat="22.554712" lon="113.954234">
        <ele>21.6</ele>
        <time>2023-08-01T10:35:00Z</time>
      </trkpt>
      <trkpt lat="22.554776" lon="113.954203">
        <ele>21.6</ele>
        <time>2023-08-01T10:35:01Z</time>
      </trkpt>
      <trkpt lat="22.554843" lon="113.954167">
        <ele>21.6</ele>
        <time>2023-08-01T10:35:02Z</time>
      </trkpt>
      <trkpt lat="22.554905" lon="113.95414">
        <ele>21.6</ele>
        <time>2023-08-01T10:35:03Z</time>
      </trkpt>
      <trkpt lat="22.554965" lon="113.954122">
        <ele>21.6</ele>
        <time>2023-08-01T10:35:04Z</time>
      </trkpt>
      <trkpt lat="22.555024" lon="113.954101">
        <ele>21.6</ele>
        <time>2023-08-01T10:35:05Z</time>
      </trkpt>
      <trkpt lat="22.555079" lon="113.954078">
        <ele>21.6</ele>
        <time>2023-08-01T10:35:06Z</time>
      </trkpt>
      <trkpt lat="22.555137" lon="113.954055">
        <ele>21.6</ele>
        <time>2023-08-01T10:35:07Z</time>
      </trkpt>
      <trkpt lat="22.555195" lon="113.954028">
        <ele>21.6</ele>
        <time>2023-08-01T10:35:08Z</time>
      </trkpt>
      <trkpt lat="22.555254" lon="113.954003">
        <ele>21.6</ele>
        <time>2023-08-01T10:35:09Z</time>
      </trkpt>
      <trkpt lat="22.555323" lon="113.953975">
        <ele>21.6</ele>
        <time>2023-08-01T10:35:10Z</time>
      </trkpt>
      <trkpt lat="22.555406" lon="113.953933">
        <ele>21.6</ele>
        <time>2023-08-01T10:35:11Z</time>
      </trkpt>
      <trkpt lat="22.55548" lon="113.953898">
        <ele>21.6</ele>
        <time>2023-08-01T10:35:12Z</time>
      </trkpt>
      <trkpt lat="22.55555" lon="113.953872">
        <ele>21.6</ele>
        <time>2023-08-01T10:35:13Z</time>
      </trkpt>
      <trkpt lat="22.555609" lon="113.95386">
        <ele>21.6</ele>
        <time>2023-08-01T10:35:14Z</time>
      </trkpt>
      <trkpt lat="22.55566" lon="113.953847">
        <ele>21.6</ele>
        <time>2023-08-01T10:35:15Z</time>
      </trkpt>
      <trkpt lat="22.555712" lon="113.953837">
        <ele>21.6</ele>
        <time>2023-08-01T10:35:16Z</time>
      </trkpt>
      <trkpt lat="22.555765" lon="113.953829">
        <ele>21.6</ele>
        <time>2023-08-01T10:35:17Z</time>
      </trkpt>
      <trkpt lat="22.555818" lon="113.953827">
        <ele>21.6</ele>
        <time>2023-08-01T10:35:18Z</time>
      </trkpt>
      <trkpt lat="22.555872" lon="113.953827">
        <ele>21.6</ele>
        <time>2023-08-01T10:35:19Z</time>
      </trkpt>
      <trkpt lat="22.555927" lon="113.953827">
        <ele>21.6</ele>
        <time>2023-08-01T10:35:20Z</time>
      </trkpt>
      <trkpt lat="22.55598" lon="113.953832">
        <ele>21.6</ele>
        <time>2023-08-01T10:35:21Z</time>
      </trkpt>
      <trkpt lat="22.556031" lon="113.953829">
        <ele>21.6</ele>
        <time>2023-08-01T10:35:22Z</time>
      </trkpt>
      <trkpt lat="22.556081" lon="113.953827">
        <ele>21.6</ele>
        <time>2023-08-01T10:35:23Z</time>
      </trkpt>
      <trkpt lat="22.556125" lon="113.953827">
        <ele>21.6</ele>
        <time>2023-08-01T10:35:24Z</time>
      </trkpt>
      <trkpt lat="22.556166" lon="113.953827">
        <ele>21.6</ele>
        <time>2023-08-01T10:35:25Z</time>
      </trkpt>
      <trkpt lat="22.556222" lon="113.953827">
        <ele>21.6</ele>
        <time>2023-08-01T10:35:26Z</time>
      </trkpt>
      <trkpt lat="22.556276" lon="113.953827">
        <ele>21.6</ele>
        <time>2023-08-01T10:35:27Z</time>
      </trkpt>
      <trkpt lat="22.556331" lon="113.953832">
        <ele>21.6</ele>
        <time>2023-08-01T10:35:28Z</time>
      </trkpt>
      <trkpt lat="22.556387" lon="113.953841">
        <ele>21.6</ele>
        <time>2023-08-01T10:35:29Z</time>
      </trkpt>
      <trkpt lat="22.556443" lon="113.953851">
        <ele>21.6</ele>
        <time>2023-08-01T10:35:30Z</time>
      </trkpt>
      <trkpt lat="22.5565" lon="113.953861">
        <ele>21.6</ele>
        <time>2023-08-01T10:35:31Z</time>
      </trkpt>
      <trkpt lat="22.556551" lon="113.95387">
        <ele>21.6</ele>
        <time>2023-08-01T10:35:32Z</time>
      </trkpt>
      <trkpt lat="22.556609" lon="113.953873">
        <ele>21.6</ele>
        <time>2023-08-01T10:35:33Z</time>
      </trkpt>
      <trkpt lat="22.556676" lon="113.953858">
        <ele>21.6</ele>
        <time>2023-08-01T10:35:34Z</time>
      </trkpt>
      <trkpt lat="22.556736" lon="113.95384">
        <ele>21.7</ele>
        <time>2023-08-01T10:35:35Z</time>
      </trkpt>
      <trkpt lat="22.556795" lon="113.95382">
        <ele>21.7</ele>
        <time>2023-08-01T10:35:36Z</time>
      </trkpt>
      <trkpt lat="22.556864" lon="113.953802">
        <ele>21.7</ele>
        <time>2023-08-01T10:35:37Z</time>
      </trkpt>
      <trkpt lat="22.556925" lon="113.953792">
        <ele>21.7</ele>
        <time>2023-08-01T10:35:38Z</time>
      </trkpt>
      <trkpt lat="22.556975" lon="113.953784">
        <ele>21.7</ele>
        <time>2023-08-01T10:35:39Z</time>
      </trkpt>
      <trkpt lat="22.557028" lon="113.953776">
        <ele>21.7</ele>
        <time>2023-08-01T10:35:40Z</time>
      </trkpt>
      <trkpt lat="22.557073" lon="113.953768">
        <ele>21.7</ele>
        <time>2023-08-01T10:35:41Z</time>
      </trkpt>
      <trkpt lat="22.55712" lon="113.953766">
        <ele>21.7</ele>
        <time>2023-08-01T10:35:42Z</time>
      </trkpt>
      <trkpt lat="22.55717" lon="113.953771">
        <ele>21.7</ele>
        <time>2023-08-01T10:35:43Z</time>
      </trkpt>
      <trkpt lat="22.557217" lon="113.953773">
        <ele>21.7</ele>
        <time>2023-08-01T10:35:44Z</time>
      </trkpt>
      <trkpt lat="22.557257" lon="113.953773">
        <ele>21.7</ele>
        <time>2023-08-01T10:35:45Z</time>
      </trkpt>
      <trkpt lat="22.5573" lon="113.953769">
        <ele>21.7</ele>
        <time>2023-08-01T10:35:46Z</time>
      </trkpt>
      <trkpt lat="22.557365" lon="113.953761">
        <ele>21.7</ele>
        <time>2023-08-01T10:35:47Z</time>
      </trkpt>
      <trkpt lat="22.557437" lon="113.953758">
        <ele>21.7</ele>
        <time>2023-08-01T10:35:48Z</time>
      </trkpt>
      <trkpt lat="22.557499" lon="113.953769">
        <ele>21.7</ele>
        <time>2023-08-01T10:35:49Z</time>
      </trkpt>
      <trkpt lat="22.557564" lon="113.953779">
        <ele>21.7</ele>
        <time>2023-08-01T10:35:50Z</time>
      </trkpt>
      <trkpt lat="22.55763" lon="113.953786">
        <ele>21.7</ele>
        <time>2023-08-01T10:35:51Z</time>
      </trkpt>
      <trkpt lat="22.557692" lon="113.953784">
        <ele>21.7</ele>
        <time>2023-08-01T10:35:52Z</time>
      </trkpt>
      <trkpt lat="22.55775" lon="113.953781">
        <ele>21.7</ele>
        <time>2023-08-01T10:35:53Z</time>
      </trkpt>
      <trkpt lat="22.557807" lon="113.953786">
        <ele>21.7</ele>
        <time>2023-08-01T10:35:54Z</time>
      </trkpt>
      <trkpt lat="22.557867" lon="113.953794">
        <ele>21.7</ele>
        <time>2023-08-01T10:35:55Z</time>
      </trkpt>
      <trkpt lat="22.557932" lon="113.953807">
        <ele>21.7</ele>
        <time>2023-08-01T10:35:56Z</time>
      </trkpt>
      <trkpt lat="22.557996" lon="113.953827">
        <ele>21.7</ele>
        <time>2023-08-01T10:35:57Z</time>
      </trkpt>
      <trkpt lat="22.558058" lon="113.95385">
        <ele>21.7</ele>
        <time>2023-08-01T10:35:58Z</time>
      </trkpt>
      <trkpt lat="22.55812" lon="113.953873">
        <ele>21.8</ele>
        <time>2023-08-01T10:35:59Z</time>
      </trkpt>
      <trkpt lat="22.558183" lon="113.953891">
        <ele>21.8</ele>
        <time>2023-08-01T10:36:00Z</time>
      </trkpt>
      <trkpt lat="22.558251" lon="113.953906">
        <ele>21.8</ele>
        <time>2023-08-01T10:36:01Z</time>
      </trkpt>
      <trkpt lat="22.558317" lon="113.953916">
        <ele>21.8</ele>
        <time>2023-08-01T10:36:02Z</time>
      </trkpt>
      <trkpt lat="22.558383" lon="113.953924">
        <ele>21.8</ele>
        <time>2023-08-01T10:36:03Z</time>
      </trkpt>
      <trkpt lat="22.558446" lon="113.953931">
        <ele>21.8</ele>
        <time>2023-08-01T10:36:04Z</time>
      </trkpt>
      <trkpt lat="22.558512" lon="113.953939">
        <ele>21.8</ele>
        <time>2023-08-01T10:36:05Z</time>
      </trkpt>
      <trkpt lat="22.558578" lon="113.953941">
        <ele>21.8</ele>
        <time>2023-08-01T10:36:06Z</time>
      </trkpt>
      <trkpt lat="22.558645" lon="113.953941">
        <ele>21.8</ele>
        <time>2023-08-01T10:36:07Z</time>
      </trkpt>
      <trkpt lat="22.558717" lon="113.953941">
        <ele>21.8</ele>
        <time>2023-08-01T10:36:08Z</time>
      </trkpt>
      <trkpt lat="22.558788" lon="113.953946">
        <ele>21.8</ele>
        <time>2023-08-01T10:36:09Z</time>
      </trkpt>
      <trkpt lat="22.558864" lon="113.953949">
        <ele>21.8</ele>
        <time>2023-08-01T10:36:10Z</time>
      </trkpt>
      <trkpt lat="22.558936" lon="113.953954">
        <ele>21.8</ele>
        <time>2023-08-01T10:36:11Z</time>
      </trkpt>
      <trkpt lat="22.559004" lon="113.953962">
        <ele>21.8</ele>
        <time>2023-08-01T10:36:12Z</time>
      </trkpt>
      <trkpt lat="22.559074" lon="113.953964">
        <ele>21.8</ele>
        <time>2023-08-01T10:36:13Z</time>
      </trkpt>
      <trkpt lat="22.559142" lon="113.953969">
        <ele>21.8</ele>
        <time>2023-08-01T10:36:14Z</time>
      </trkpt>
      <trkpt lat="22.559212" lon="113.953972">
        <ele>21.8</ele>
        <time>2023-08-01T10:36:15Z</time>
      </trkpt>
      <trkpt lat="22.559277" lon="113.953977">
        <ele>21.8</ele>
        <time>2023-08-01T10:36:16Z</time>
      </trkpt>
      <trkpt lat="22.559342" lon="113.953979">
        <ele>21.8</ele>
        <time>2023-08-01T10:36:17Z</time>
      </trkpt>
      <trkpt lat="22.55941" lon="113.953979">
        <ele>21.8</ele>
        <time>2023-08-01T10:36:18Z</time>
      </trkpt>
      <trkpt lat="22.559473" lon="113.953979">
        <ele>21.8</ele>
        <time>2023-08-01T10:36:19Z</time>
      </trkpt>
      <trkpt lat="22.559541" lon="113.953979">
        <ele>21.8</ele>
        <time>2023-08-01T10:36:20Z</time>
      </trkpt>
      <trkpt lat="22.559609" lon="113.953979">
        <ele>21.8</ele>
        <time>2023-08-01T10:36:21Z</time>
      </trkpt>
      <trkpt lat="22.55967" lon="113.953974">
        <ele>21.8</ele>
        <time>2023-08-01T10:36:22Z</time>
      </trkpt>
      <trkpt lat="22.559726" lon="113.953962">
        <ele>21.8</ele>
        <time>2023-08-01T10:36:23Z</time>
      </trkpt>
      <trkpt lat="22.559781" lon="113.953957">
        <ele>21.8</ele>
        <time>2023-08-01T10:36:24Z</time>
      </trkpt>
      <trkpt lat="22.559838" lon="113.953962">
        <ele>21.8</ele>
        <time>2023-08-01T10:36:25Z</time>
      </trkpt>
      <trkpt lat="22.559896" lon="113.953964">
        <ele>21.8</ele>
        <time>2023-08-01T10:36:26Z</time>
      </trkpt>
      <trkpt lat="22.559953" lon="113.95397">
        <ele>21.8</ele>
        <time>2023-08-01T10:36:27Z</time>
      </trkpt>
      <trkpt lat="22.560011" lon="113.953977">
        <ele>21.8</ele>
        <time>2023-08-01T10:36:28Z</time>
      </trkpt>
      <trkpt lat="22.560075" lon="113.953985">
        <ele>21.8</ele>
        <time>2023-08-01T10:36:29Z</time>
      </trkpt>
      <trkpt lat="22.560141" lon="113.953992">
        <ele>21.8</ele>
        <time>2023-08-01T10:36:30Z</time>
      </trkpt>
      <trkpt lat="22.560209" lon="113.954">
        <ele>21.8</ele>
        <time>2023-08-01T10:36:31Z</time>
      </trkpt>
      <trkpt lat="22.560278" lon="113.954002">
        <ele>21.8</ele>
        <time>2023-08-01T10:36:32Z</time>
      </trkpt>
      <trkpt lat="22.560346" lon="113.954002">
        <ele>21.8</ele>
        <time>2023-08-01T10:36:33Z</time>
      </trkpt>
      <trkpt lat="22.560412" lon="113.954008">
        <ele>21.8</ele>
        <time>2023-08-01T10:36:34Z</time>
      </trkpt>
      <trkpt lat="22.560475" lon="113.95401">
        <ele>21.8</ele>
        <time>2023-08-01T10:36:35Z</time>
      </trkpt>
      <trkpt lat="22.560542" lon="113.95401">
        <ele>21.8</ele>
        <time>2023-08-01T10:36:36Z</time>
      </trkpt>
      <trkpt lat="22.560608" lon="113.954005">
        <ele>21.8</ele>
        <time>2023-08-01T10:36:37Z</time>
      </trkpt>
      <trkpt lat="22.560676" lon="113.954002">
        <ele>21.8</ele>
        <time>2023-08-01T10:36:38Z</time>
      </trkpt>
      <trkpt lat="22.560741" lon="113.954008">
        <ele>21.8</ele>
        <time>2023-08-01T10:36:39Z</time>
      </trkpt>
      <trkpt lat="22.560809" lon="113.95402">
        <ele>21.8</ele>
        <time>2023-08-01T10:36:40Z</time>
      </trkpt>
      <trkpt lat="22.56088" lon="113.95403">
        <ele>21.8</ele>
        <time>2023-08-01T10:36:41Z</time>
      </trkpt>
      <trkpt lat="22.560951" lon="113.954033">
        <ele>21.8</ele>
        <time>2023-08-01T10:36:42Z</time>
      </trkpt>
      <trkpt lat="22.56102" lon="113.954033">
        <ele>21.8</ele>
        <time>2023-08-01T10:36:43Z</time>
      </trkpt>
      <trkpt lat="22.56109" lon="113.954033">
        <ele>21.8</ele>
        <time>2023-08-01T10:36:44Z</time>
      </trkpt>
      <trkpt lat="22.56116" lon="113.954033">
        <ele>21.8</ele>
        <time>2023-08-01T10:36:45Z</time>
      </trkpt>
      <trkpt lat="22.561228" lon="113.954033">
        <ele>21.8</ele>
        <time>2023-08-01T10:36:46Z</time>
      </trkpt>
      <trkpt lat="22.561297" lon="113.954038">
        <ele>21.8</ele>
        <time>2023-08-01T10:36:47Z</time>
      </trkpt>
      <trkpt lat="22.561366" lon="113.954041">
        <ele>21.8</ele>
        <time>2023-08-01T10:36:48Z</time>
      </trkpt>
      <trkpt lat="22.561437" lon="113.954041">
        <ele>21.8</ele>
        <time>2023-08-01T10:36:49Z</time>
      </trkpt>
      <trkpt lat="22.561506" lon="113.954041">
        <ele>21.8</ele>
        <time>2023-08-01T10:36:50Z</time>
      </trkpt>
      <trkpt lat="22.561574" lon="113.954041">
        <ele>21.8</ele>
        <time>2023-08-01T10:36:51Z</time>
      </trkpt>
      <trkpt lat="22.561642" lon="113.954041">
        <ele>21.8</ele>
        <time>2023-08-01T10:36:52Z</time>
      </trkpt>
      <trkpt lat="22.561711" lon="113.954041">
        <ele>21.8</ele>
        <time>2023-08-01T10:36:53Z</time>
      </trkpt>
      <trkpt lat="22.561782" lon="113.954041">
        <ele>21.8</ele>
        <time>2023-08-01T10:36:54Z</time>
      </trkpt>
      <trkpt lat="22.561858" lon="113.954051">
        <ele>21.8</ele>
        <time>2023-08-01T10:36:55Z</time>
      </trkpt>
      <trkpt lat="22.561931" lon="113.954066">
        <ele>21.8</ele>
        <time>2023-08-01T10:36:56Z</time>
      </trkpt>
      <trkpt lat="22.561997" lon="113.954071">
        <ele>21.8</ele>
        <time>2023-08-01T10:36:57Z</time>
      </trkpt>
      <trkpt lat="22.562058" lon="113.954071">
        <ele>21.8</ele>
        <time>2023-08-01T10:36:58Z</time>
      </trkpt>
      <trkpt lat="22.562116" lon="113.954071">
        <ele>21.8</ele>
        <time>2023-08-01T10:36:59Z</time>
      </trkpt>
      <trkpt lat="22.562164" lon="113.954071">
        <ele>21.8</ele>
        <time>2023-08-01T10:37:00Z</time>
      </trkpt>
    </trkseg>
  </trk>
</gpx>