<?xml version="1.0" encoding="UTF-8"?>
<gpx xmlns="http://www.topografix.com/GPX/1/1" xmlns:xsi="http://www.w3.org/2001/XMLSchema-instance" xsi:schemaLocation="http://www.topografix.com/GPX/1/1 http://www.topografix.com/GPX/1/1/gpx.xsd" version="1.1" creator="鹏">
  <metadata>
    <name>Cycling (Completed)</name>
    <desc>Distance: 2.863km, Estimated duration: 0.16h, Elevation up: 11.0m, Elevation down: 17.0m</desc>
    <author>
      <name>鹏</name>
      <link href="https://www.komoot.de/user/3342641231843">
        <text>View 鹏's Profile on Komoot</text>
      </link>
    </author>
    <link href="https://www.komoot.de/tour/1242071754">
      <text>View tour on Komoot</text>
    </link>
  </metadata>
  <trk>
    <name>Cycling (Completed)</name>
    <desc>Distance: 2.863km, Estimated duration: 0.16h, Elevation up: 11.0m, Elevation down: 17.0m</desc>
    <link href="https://www.komoot.de/tour/1242071754">
      <text>View tour on Komoot</text>
    </link>
    <trkseg>
      <trkpt lat="22.513479" lon="113.948563">
        <ele>18.8</ele>
        <time>2023-08-03T10:31:21Z</time>
      </trkpt>
      <trkpt lat="22.513473" lon="113.948538">
        <ele>18.8</ele>
        <time>2023-08-03T10:31:30Z</time>
      </trkpt>
      <trkpt lat="22.51347" lon="113.948513">
        <ele>18.8</ele>
        <time>2023-08-03T10:31:31Z</time>
      </trkpt>
      <trkpt lat="22.513443" lon="113.94849">
        <ele>18.8</ele>
        <time>2023-08-03T10:31:32Z</time>
      </trkpt>
      <trkpt lat="22.51339" lon="113.948467">
        <ele>18.8</ele>
        <time>2023-08-03T10:31:33Z</time>
      </trkpt>
      <trkpt lat="22.513337" lon="113.948443">
        <ele>18.8</ele>
        <time>2023-08-03T10:31:34Z</time>
      </trkpt>
      <trkpt lat="22.513289" lon="113.948427">
        <ele>18.8</ele>
        <time>2023-08-03T10:31:35Z</time>
      </trkpt>
      <trkpt lat="22.513239" lon="113.948412">
        <ele>18.8</ele>
        <time>2023-08-03T10:31:36Z</time>
      </trkpt>
      <trkpt lat="22.513184" lon="113.94839">
        <ele>18.8</ele>
        <time>2023-08-03T10:31:37Z</time>
      </trkpt>
      <trkpt lat="22.513132" lon="113.948381">
        <ele>18.8</ele>
        <time>2023-08-03T10:31:38Z</time>
      </trkpt>
      <trkpt lat="22.51308" lon="113.948366">
        <ele>18.8</ele>
        <time>2023-08-03T10:31:39Z</time>
      </trkpt>
      <trkpt lat="22.513028" lon="113.948351">
        <ele>18.8</ele>
        <time>2023-08-03T10:31:40Z</time>
      </trkpt>
      <trkpt lat="22.512973" lon="113.948343">
        <ele>18.8</ele>
        <time>2023-08-03T10:31:41Z</time>
      </trkpt>
      <trkpt lat="22.512919" lon="113.948341">
        <ele>18.8</ele>
        <time>2023-08-03T10:31:42Z</time>
      </trkpt>
      <trkpt lat="22.512861" lon="113.948341">
        <ele>18.8</ele>
        <time>2023-08-03T10:31:43Z</time>
      </trkpt>
      <trkpt lat="22.512803" lon="113.948341">
        <ele>18.8</ele>
        <time>2023-08-03T10:31:44Z</time>
      </trkpt>
      <trkpt lat="22.51275" lon="113.948335">
        <ele>18.8</ele>
        <time>2023-08-03T10:31:45Z</time>
      </trkpt>
      <trkpt lat="22.512694" lon="113.948334">
        <ele>18.8</ele>
        <time>2023-08-03T10:31:46Z</time>
      </trkpt>
      <trkpt lat="22.512638" lon="113.948334">
        <ele>18.8</ele>
        <time>2023-08-03T10:31:47Z</time>
      </trkpt>
      <trkpt lat="22.512584" lon="113.948334">
        <ele>18.8</ele>
        <time>2023-08-03T10:31:48Z</time>
      </trkpt>
      <trkpt lat="22.51253" lon="113.948347">
        <ele>18.9</ele>
        <time>2023-08-03T10:31:49Z</time>
      </trkpt>
      <trkpt lat="22.512479" lon="113.948362">
        <ele>18.9</ele>
        <time>2023-08-03T10:31:50Z</time>
      </trkpt>
      <trkpt lat="22.512424" lon="113.948377">
        <ele>18.9</ele>
        <time>2023-08-03T10:31:51Z</time>
      </trkpt>
      <trkpt lat="22.512371" lon="113.948386">
        <ele>18.9</ele>
        <time>2023-08-03T10:31:52Z</time>
      </trkpt>
      <trkpt lat="22.512319" lon="113.9484">
        <ele>19</ele>
        <time>2023-08-03T10:31:53Z</time>
      </trkpt>
      <trkpt lat="22.512263" lon="113.948409">
        <ele>19</ele>
        <time>2023-08-03T10:31:54Z</time>
      </trkpt>
      <trkpt lat="22.512211" lon="113.948423">
        <ele>19</ele>
        <time>2023-08-03T10:31:55Z</time>
      </trkpt>
      <trkpt lat="22.512159" lon="113.948438">
        <ele>19</ele>
        <time>2023-08-03T10:31:56Z</time>
      </trkpt>
      <trkpt lat="22.512108" lon="113.94846">
        <ele>19.1</ele>
        <time>2023-08-03T10:31:57Z</time>
      </trkpt>
      <trkpt lat="22.512059" lon="113.948483">
        <ele>19.1</ele>
        <time>2023-08-03T10:31:58Z</time>
      </trkpt>
      <trkpt lat="22.512014" lon="113.948518">
        <ele>19.1</ele>
        <time>2023-08-03T10:31:59Z</time>
      </trkpt>
      <trkpt lat="22.511973" lon="113.948557">
        <ele>19.1</ele>
        <time>2023-08-03T10:32:00Z</time>
      </trkpt>
      <trkpt lat="22.511934" lon="113.948595">
        <ele>19.2</ele>
        <time>2023-08-03T10:32:01Z</time>
      </trkpt>
      <trkpt lat="22.511896" lon="113.94864">
        <ele>19.2</ele>
        <time>2023-08-03T10:32:02Z</time>
      </trkpt>
      <trkpt lat="22.511858" lon="113.948686">
        <ele>19.2</ele>
        <time>2023-08-03T10:32:03Z</time>
      </trkpt>
      <trkpt lat="22.511819" lon="113.948725">
        <ele>19.3</ele>
        <time>2023-08-03T10:32:04Z</time>
      </trkpt>
      <trkpt lat="22.511774" lon="113.94875">
        <ele>19.3</ele>
        <time>2023-08-03T10:32:05Z</time>
      </trkpt>
      <trkpt lat="22.511738" lon="113.94876">
        <ele>19.3</ele>
        <time>2023-08-03T10:32:06Z</time>
      </trkpt>
      <trkpt lat="22.511703" lon="113.948747">
        <ele>19.3</ele>
        <time>2023-08-03T10:32:07Z</time>
      </trkpt>
      <trkpt lat="22.511667" lon="113.948732">
        <ele>19.3</ele>
        <time>2023-08-03T10:32:08Z</time>
      </trkpt>
      <trkpt lat="22.511634" lon="113.948724">
        <ele>19.3</ele>
        <time>2023-08-03T10:32:09Z</time>
      </trkpt>
      <trkpt lat="22.511591" lon="113.948716">
        <ele>19.4</ele>
        <time>2023-08-03T10:32:10Z</time>
      </trkpt>
      <trkpt lat="22.51155" lon="113.948722">
        <ele>19.4</ele>
        <time>2023-08-03T10:32:11Z</time>
      </trkpt>
      <trkpt lat="22.511509" lon="113.948723">
        <ele>19.4</ele>
        <time>2023-08-03T10:32:12Z</time>
      </trkpt>
      <trkpt lat="22.511475" lon="113.94873">
        <ele>19.4</ele>
        <time>2023-08-03T10:32:13Z</time>
      </trkpt>
      <trkpt lat="22.511435" lon="113.948751">
        <ele>19.4</ele>
        <time>2023-08-03T10:32:14Z</time>
      </trkpt>
      <trkpt lat="22.511391" lon="113.948747">
        <ele>19.5</ele>
        <time>2023-08-03T10:32:15Z</time>
      </trkpt>
      <trkpt lat="22.511346" lon="113.948718">
        <ele>19.5</ele>
        <time>2023-08-03T10:32:16Z</time>
      </trkpt>
      <trkpt lat="22.511326" lon="113.948674">
        <ele>19.5</ele>
        <time>2023-08-03T10:32:17Z</time>
      </trkpt>
      <trkpt lat="22.511324" lon="113.948633">
        <ele>19.5</ele>
        <time>2023-08-03T10:32:18Z</time>
      </trkpt>
      <trkpt lat="22.511327" lon="113.94859">
        <ele>19.6</ele>
        <time>2023-08-03T10:32:19Z</time>
      </trkpt>
      <trkpt lat="22.511323" lon="113.948537">
        <ele>19.6</ele>
        <time>2023-08-03T10:32:20Z</time>
      </trkpt>
      <trkpt lat="22.511313" lon="113.948498">
        <ele>19.6</ele>
        <time>2023-08-03T10:32:21Z</time>
      </trkpt>
      <trkpt lat="22.511299" lon="113.948453">
        <ele>19.6</ele>
        <time>2023-08-03T10:32:22Z</time>
      </trkpt>
      <trkpt lat="22.511278" lon="113.948407">
        <ele>19.6</ele>
        <time>2023-08-03T10:32:23Z</time>
      </trkpt>
      <trkpt lat="22.511259" lon="113.948362">
        <ele>19.7</ele>
        <time>2023-08-03T10:32:24Z</time>
      </trkpt>
      <trkpt lat="22.511239" lon="113.948323">
        <ele>19.7</ele>
        <time>2023-08-03T10:32:25Z</time>
      </trkpt>
      <trkpt lat="22.511212" lon="113.948291">
        <ele>19.9</ele>
        <time>2023-08-03T10:32:26Z</time>
      </trkpt>
      <trkpt lat="22.511184" lon="113.948268">
        <ele>20</ele>
        <time>2023-08-03T10:32:27Z</time>
      </trkpt>
      <trkpt lat="22.511149" lon="113.948251">
        <ele>20.1</ele>
        <time>2023-08-03T10:32:28Z</time>
      </trkpt>
      <trkpt lat="22.511117" lon="113.948236">
        <ele>20.2</ele>
        <time>2023-08-03T10:32:29Z</time>
      </trkpt>
      <trkpt lat="22.511087" lon="113.948228">
        <ele>20.3</ele>
        <time>2023-08-03T10:32:30Z</time>
      </trkpt>
      <trkpt lat="22.511058" lon="113.948213">
        <ele>20.4</ele>
        <time>2023-08-03T10:32:31Z</time>
      </trkpt>
      <trkpt lat="22.511033" lon="113.948191">
        <ele>20.5</ele>
        <time>2023-08-03T10:32:32Z</time>
      </trkpt>
      <trkpt lat="22.511013" lon="113.948168">
        <ele>20.6</ele>
        <time>2023-08-03T10:32:33Z</time>
      </trkpt>
      <trkpt lat="22.510996" lon="113.948138">
        <ele>20.7</ele>
        <time>2023-08-03T10:32:34Z</time>
      </trkpt>
      <trkpt lat="22.510977" lon="113.948108">
        <ele>20.8</ele>
        <time>2023-08-03T10:32:35Z</time>
      </trkpt>
      <trkpt lat="22.510958" lon="113.948084">
        <ele>20.9</ele>
        <time>2023-08-03T10:32:36Z</time>
      </trkpt>
      <trkpt lat="22.510937" lon="113.948055">
        <ele>21</ele>
        <time>2023-08-03T10:32:37Z</time>
      </trkpt>
      <trkpt lat="22.510911" lon="113.948024">
        <ele>21.1</ele>
        <time>2023-08-03T10:32:38Z</time>
      </trkpt>
      <trkpt lat="22.510889" lon="113.947993">
        <ele>21.2</ele>
        <time>2023-08-03T10:32:39Z</time>
      </trkpt>
      <trkpt lat="22.510868" lon="113.947963">
        <ele>21.3</ele>
        <time>2023-08-03T10:32:40Z</time>
      </trkpt>
      <trkpt lat="22.510849" lon="113.94794">
        <ele>21.4</ele>
        <time>2023-08-03T10:32:41Z</time>
      </trkpt>
      <trkpt lat="22.51083" lon="113.947916">
        <ele>21.5</ele>
        <time>2023-08-03T10:32:42Z</time>
      </trkpt>
      <trkpt lat="22.510807" lon="113.947886">
        <ele>21.6</ele>
        <time>2023-08-03T10:32:43Z</time>
      </trkpt>
      <trkpt lat="22.510788" lon="113.947856">
        <ele>21.7</ele>
        <time>2023-08-03T10:32:44Z</time>
      </trkpt>
      <trkpt lat="22.510765" lon="113.947826">
        <ele>21.9</ele>
        <time>2023-08-03T10:32:45Z</time>
      </trkpt>
      <trkpt lat="22.510739" lon="113.947802">
        <ele>22</ele>
        <time>2023-08-03T10:32:46Z</time>
      </trkpt>
      <trkpt lat="22.510706" lon="113.947779">
        <ele>22.1</ele>
        <time>2023-08-03T10:32:47Z</time>
      </trkpt>
      <trkpt lat="22.510674" lon="113.947749">
        <ele>22.2</ele>
        <time>2023-08-03T10:32:48Z</time>
      </trkpt>
      <trkpt lat="22.510639" lon="113.947726">
        <ele>22.3</ele>
        <time>2023-08-03T10:32:49Z</time>
      </trkpt>
      <trkpt lat="22.510601" lon="113.947703">
        <ele>22.5</ele>
        <time>2023-08-03T10:32:50Z</time>
      </trkpt>
      <trkpt lat="22.510565" lon="113.94768">
        <ele>22.6</ele>
        <time>2023-08-03T10:32:51Z</time>
      </trkpt>
      <trkpt lat="22.510528" lon="113.947657">
        <ele>22.7</ele>
        <time>2023-08-03T10:32:52Z</time>
      </trkpt>
      <trkpt lat="22.510494" lon="113.947634">
        <ele>22.9</ele>
        <time>2023-08-03T10:32:53Z</time>
      </trkpt>
      <trkpt lat="22.510457" lon="113.947618">
        <ele>23</ele>
        <time>2023-08-03T10:32:54Z</time>
      </trkpt>
      <trkpt lat="22.510423" lon="113.947596">
        <ele>23.1</ele>
        <time>2023-08-03T10:32:55Z</time>
      </trkpt>
      <trkpt lat="22.510396" lon="113.947573">
        <ele>23.2</ele>
        <time>2023-08-03T10:32:56Z</time>
      </trkpt>
      <trkpt lat="22.510368" lon="113.947557">
        <ele>23.3</ele>
        <time>2023-08-03T10:32:57Z</time>
      </trkpt>
      <trkpt lat="22.510334" lon="113.947542">
        <ele>23.4</ele>
        <time>2023-08-03T10:32:58Z</time>
      </trkpt>
      <trkpt lat="22.510301" lon="113.947526">
        <ele>23.6</ele>
        <time>2023-08-03T10:32:59Z</time>
      </trkpt>
      <trkpt lat="22.510263" lon="113.947518">
        <ele>23.7</ele>
        <time>2023-08-03T10:33:00Z</time>
      </trkpt>
      <trkpt lat="22.510229" lon="113.947511">
        <ele>23.8</ele>
        <time>2023-08-03T10:33:01Z</time>
      </trkpt>
      <trkpt lat="22.510195" lon="113.947503">
        <ele>23.9</ele>
        <time>2023-08-03T10:33:02Z</time>
      </trkpt>
      <trkpt lat="22.510158" lon="113.947495">
        <ele>24</ele>
        <time>2023-08-03T10:33:03Z</time>
      </trkpt>
      <trkpt lat="22.51012" lon="113.947494">
        <ele>24.1</ele>
        <time>2023-08-03T10:33:04Z</time>
      </trkpt>
      <trkpt lat="22.510084" lon="113.947494">
        <ele>24.2</ele>
        <time>2023-08-03T10:33:05Z</time>
      </trkpt>
      <trkpt lat="22.510049" lon="113.947494">
        <ele>24.4</ele>
        <time>2023-08-03T10:33:06Z</time>
      </trkpt>
      <trkpt lat="22.51001" lon="113.947494">
        <ele>24.5</ele>
        <time>2023-08-03T10:33:07Z</time>
      </trkpt>
      <trkpt lat="22.509965" lon="113.947494">
        <ele>24.6</ele>
        <time>2023-08-03T10:33:08Z</time>
      </trkpt>
      <trkpt lat="22.509921" lon="113.947494">
        <ele>24.8</ele>
        <time>2023-08-03T10:33:09Z</time>
      </trkpt>
      <trkpt lat="22.509875" lon="113.947487">
        <ele>24.9</ele>
        <time>2023-08-03T10:33:10Z</time>
      </trkpt>
      <trkpt lat="22.509839" lon="113.947487">
        <ele>25</ele>
        <time>2023-08-03T10:33:11Z</time>
      </trkpt>
      <trkpt lat="22.509806" lon="113.947487">
        <ele>25.1</ele>
        <time>2023-08-03T10:33:12Z</time>
      </trkpt>
      <trkpt lat="22.509763" lon="113.947494">
        <ele>25.3</ele>
        <time>2023-08-03T10:33:13Z</time>
      </trkpt>
      <trkpt lat="22.509721" lon="113.947508">
        <ele>25.2</ele>
        <time>2023-08-03T10:33:14Z</time>
      </trkpt>
      <trkpt lat="22.509671" lon="113.947517">
        <ele>25.1</ele>
        <time>2023-08-03T10:33:15Z</time>
      </trkpt>
      <trkpt lat="22.509628" lon="113.947524">
        <ele>25</ele>
        <time>2023-08-03T10:33:16Z</time>
      </trkpt>
      <trkpt lat="22.509585" lon="113.947539">
        <ele>24.8</ele>
        <time>2023-08-03T10:33:17Z</time>
      </trkpt>
      <trkpt lat="22.509546" lon="113.947561">
        <ele>24.7</ele>
        <time>2023-08-03T10:33:18Z</time>
      </trkpt>
      <trkpt lat="22.509506" lon="113.947577">
        <ele>24.6</ele>
        <time>2023-08-03T10:33:19Z</time>
      </trkpt>
      <trkpt lat="22.509465" lon="113.947606">
        <ele>24.5</ele>
        <time>2023-08-03T10:33:20Z</time>
      </trkpt>
      <trkpt lat="22.509424" lon="113.94763">
        <ele>24.3</ele>
        <time>2023-08-03T10:33:21Z</time>
      </trkpt>
      <trkpt lat="22.509384" lon="113.947652">
        <ele>24.2</ele>
        <time>2023-08-03T10:33:22Z</time>
      </trkpt>
      <trkpt lat="22.509341" lon="113.947689">
        <ele>24</ele>
        <time>2023-08-03T10:33:23Z</time>
      </trkpt>
      <trkpt lat="22.509298" lon="113.947728">
        <ele>23.9</ele>
        <time>2023-08-03T10:33:24Z</time>
      </trkpt>
      <trkpt lat="22.509255" lon="113.947765">
        <ele>23.7</ele>
        <time>2023-08-03T10:33:25Z</time>
      </trkpt>
      <trkpt lat="22.509211" lon="113.947803">
        <ele>23.6</ele>
        <time>2023-08-03T10:33:26Z</time>
      </trkpt>
      <trkpt lat="22.509165" lon="113.947842">
        <ele>23.4</ele>
        <time>2023-08-03T10:33:27Z</time>
      </trkpt>
      <trkpt lat="22.509109" lon="113.947881">
        <ele>23.2</ele>
        <time>2023-08-03T10:33:28Z</time>
      </trkpt>
      <trkpt lat="22.509051" lon="113.947926">
        <ele>23</ele>
        <time>2023-08-03T10:33:29Z</time>
      </trkpt>
      <trkpt lat="22.508997" lon="113.947964">
        <ele>22.9</ele>
        <time>2023-08-03T10:33:30Z</time>
      </trkpt>
      <trkpt lat="22.508934" lon="113.947995">
        <ele>22.7</ele>
        <time>2023-08-03T10:33:31Z</time>
      </trkpt>
      <trkpt lat="22.508868" lon="113.948026">
        <ele>22.5</ele>
        <time>2023-08-03T10:33:32Z</time>
      </trkpt>
      <trkpt lat="22.508807" lon="113.948043">
        <ele>22.3</ele>
        <time>2023-08-03T10:33:33Z</time>
      </trkpt>
      <trkpt lat="22.508739" lon="113.948058">
        <ele>22.1</ele>
        <time>2023-08-03T10:33:34Z</time>
      </trkpt>
      <trkpt lat="22.508668" lon="113.948066">
        <ele>21.9</ele>
        <time>2023-08-03T10:33:35Z</time>
      </trkpt>
      <trkpt lat="22.508595" lon="113.948074">
        <ele>21.7</ele>
        <time>2023-08-03T10:33:36Z</time>
      </trkpt>
      <trkpt lat="22.508514" lon="113.948081">
        <ele>21.5</ele>
        <time>2023-08-03T10:33:37Z</time>
      </trkpt>
      <trkpt lat="22.508432" lon="113.948082">
        <ele>21.2</ele>
        <time>2023-08-03T10:33:38Z</time>
      </trkpt>
      <trkpt lat="22.508355" lon="113.948075">
        <ele>21</ele>
        <time>2023-08-03T10:33:39Z</time>
      </trkpt>
      <trkpt lat="22.508276" lon="113.948061">
        <ele>20.8</ele>
        <time>2023-08-03T10:33:40Z</time>
      </trkpt>
      <trkpt lat="22.508193" lon="113.948045">
        <ele>20.6</ele>
        <time>2023-08-03T10:33:41Z</time>
      </trkpt>
      <trkpt lat="22.508111" lon="113.94803">
        <ele>20.3</ele>
        <time>2023-08-03T10:33:42Z</time>
      </trkpt>
      <trkpt lat="22.50803" lon="113.948015">
        <ele>20.2</ele>
        <time>2023-08-03T10:33:43Z</time>
      </trkpt>
      <trkpt lat="22.507952" lon="113.948">
        <ele>20.1</ele>
        <time>2023-08-03T10:33:44Z</time>
      </trkpt>
      <trkpt lat="22.507869" lon="113.947984">
        <ele>20.1</ele>
        <time>2023-08-03T10:33:45Z</time>
      </trkpt>
      <trkpt lat="22.507795" lon="113.947962">
        <ele>20</ele>
        <time>2023-08-03T10:33:46Z</time>
      </trkpt>
      <trkpt lat="22.507723" lon="113.947939">
        <ele>19.9</ele>
        <time>2023-08-03T10:33:47Z</time>
      </trkpt>
      <trkpt lat="22.507654" lon="113.947923">
        <ele>19.8</ele>
        <time>2023-08-03T10:33:48Z</time>
      </trkpt>
      <trkpt lat="22.507587" lon="113.947901">
        <ele>19.8</ele>
        <time>2023-08-03T10:33:49Z</time>
      </trkpt>
      <trkpt lat="22.507528" lon="113.947879">
        <ele>19.7</ele>
        <time>2023-08-03T10:33:50Z</time>
      </trkpt>
      <trkpt lat="22.507469" lon="113.947849">
        <ele>19.6</ele>
        <time>2023-08-03T10:33:51Z</time>
      </trkpt>
      <trkpt lat="22.50741" lon="113.947818">
        <ele>19.6</ele>
        <time>2023-08-03T10:33:52Z</time>
      </trkpt>
      <trkpt lat="22.507356" lon="113.94778">
        <ele>19.5</ele>
        <time>2023-08-03T10:33:53Z</time>
      </trkpt>
      <trkpt lat="22.507305" lon="113.947749">
        <ele>19.5</ele>
        <time>2023-08-03T10:33:54Z</time>
      </trkpt>
      <trkpt lat="22.507248" lon="113.947712">
        <ele>19.4</ele>
        <time>2023-08-03T10:33:55Z</time>
      </trkpt>
      <trkpt lat="22.507198" lon="113.947681">
        <ele>19.3</ele>
        <time>2023-08-03T10:33:56Z</time>
      </trkpt>
      <trkpt lat="22.507142" lon="113.947636">
        <ele>19.3</ele>
        <time>2023-08-03T10:33:57Z</time>
      </trkpt>
      <trkpt lat="22.507086" lon="113.947595">
        <ele>19.2</ele>
        <time>2023-08-03T10:33:58Z</time>
      </trkpt>
      <trkpt lat="22.50704" lon="113.947553">
        <ele>19.1</ele>
        <time>2023-08-03T10:33:59Z</time>
      </trkpt>
      <trkpt lat="22.506978" lon="113.94752">
        <ele>19.1</ele>
        <time>2023-08-03T10:34:00Z</time>
      </trkpt>
      <trkpt lat="22.506922" lon="113.947497">
        <ele>19</ele>
        <time>2023-08-03T10:34:01Z</time>
      </trkpt>
      <trkpt lat="22.506867" lon="113.947494">
        <ele>19</ele>
        <time>2023-08-03T10:34:02Z</time>
      </trkpt>
      <trkpt lat="22.506812" lon="113.947501">
        <ele>18.9</ele>
        <time>2023-08-03T10:34:03Z</time>
      </trkpt>
      <trkpt lat="22.50675" lon="113.947516">
        <ele>18.8</ele>
        <time>2023-08-03T10:34:04Z</time>
      </trkpt>
      <trkpt lat="22.506686" lon="113.947531">
        <ele>18.8</ele>
        <time>2023-08-03T10:34:05Z</time>
      </trkpt>
      <trkpt lat="22.50662" lon="113.94754">
        <ele>18.7</ele>
        <time>2023-08-03T10:34:06Z</time>
      </trkpt>
      <trkpt lat="22.506553" lon="113.947547">
        <ele>18.6</ele>
        <time>2023-08-03T10:34:07Z</time>
      </trkpt>
      <trkpt lat="22.506487" lon="113.947575">
        <ele>18.6</ele>
        <time>2023-08-03T10:34:08Z</time>
      </trkpt>
      <trkpt lat="22.506422" lon="113.947599">
        <ele>18.5</ele>
        <time>2023-08-03T10:34:09Z</time>
      </trkpt>
      <trkpt lat="22.506352" lon="113.947609">
        <ele>18.3</ele>
        <time>2023-08-03T10:34:10Z</time>
      </trkpt>
      <trkpt lat="22.506288" lon="113.947616">
        <ele>18.1</ele>
        <time>2023-08-03T10:34:11Z</time>
      </trkpt>
      <trkpt lat="22.506216" lon="113.947623">
        <ele>17.9</ele>
        <time>2023-08-03T10:34:12Z</time>
      </trkpt>
      <trkpt lat="22.506135" lon="113.947624">
        <ele>17.7</ele>
        <time>2023-08-03T10:34:13Z</time>
      </trkpt>
      <trkpt lat="22.506059" lon="113.947631">
        <ele>17.4</ele>
        <time>2023-08-03T10:34:14Z</time>
      </trkpt>
      <trkpt lat="22.50598" lon="113.947646">
        <ele>17.2</ele>
        <time>2023-08-03T10:34:15Z</time>
      </trkpt>
      <trkpt lat="22.505901" lon="113.947661">
        <ele>17</ele>
        <time>2023-08-03T10:34:16Z</time>
      </trkpt>
      <trkpt lat="22.505825" lon="113.947662">
        <ele>16.8</ele>
        <time>2023-08-03T10:34:17Z</time>
      </trkpt>
      <trkpt lat="22.50575" lon="113.947648">
        <ele>16.5</ele>
        <time>2023-08-03T10:34:18Z</time>
      </trkpt>
      <trkpt lat="22.505677" lon="113.94764">
        <ele>16.3</ele>
        <time>2023-08-03T10:34:19Z</time>
      </trkpt>
      <trkpt lat="22.505601" lon="113.94764">
        <ele>16.1</ele>
        <time>2023-08-03T10:34:20Z</time>
      </trkpt>
      <trkpt lat="22.505529" lon="113.94764">
        <ele>15.9</ele>
        <time>2023-08-03T10:34:21Z</time>
      </trkpt>
      <trkpt lat="22.505454" lon="113.94764">
        <ele>15.7</ele>
        <time>2023-08-03T10:34:22Z</time>
      </trkpt>
      <trkpt lat="22.505377" lon="113.947647">
        <ele>15.5</ele>
        <time>2023-08-03T10:34:23Z</time>
      </trkpt>
      <trkpt lat="22.505303" lon="113.947661">
        <ele>15.2</ele>
        <time>2023-08-03T10:34:24Z</time>
      </trkpt>
      <trkpt lat="22.505239" lon="113.947662">
        <ele>15.1</ele>
        <time>2023-08-03T10:34:25Z</time>
      </trkpt>
      <trkpt lat="22.505184" lon="113.947669">
        <ele>14.9</ele>
        <time>2023-08-03T10:34:26Z</time>
      </trkpt>
      <trkpt lat="22.505141" lon="113.947684">
        <ele>14.8</ele>
        <time>2023-08-03T10:34:27Z</time>
      </trkpt>
      <trkpt lat="22.505111" lon="113.94772">
        <ele>14.6</ele>
        <time>2023-08-03T10:34:28Z</time>
      </trkpt>
      <trkpt lat="22.505094" lon="113.947771">
        <ele>14.5</ele>
        <time>2023-08-03T10:34:29Z</time>
      </trkpt>
      <trkpt lat="22.505077" lon="113.947826">
        <ele>14.3</ele>
        <time>2023-08-03T10:34:30Z</time>
      </trkpt>
      <trkpt lat="22.505051" lon="113.947878">
        <ele>14.2</ele>
        <time>2023-08-03T10:34:31Z</time>
      </trkpt>
      <trkpt lat="22.505018" lon="113.947924">
        <ele>14</ele>
        <time>2023-08-03T10:34:32Z</time>
      </trkpt>
      <trkpt lat="22.50498" lon="113.947971">
        <ele>13.9</ele>
        <time>2023-08-03T10:34:33Z</time>
      </trkpt>
      <trkpt lat="22.504941" lon="113.948009">
        <ele>13.7</ele>
        <time>2023-08-03T10:34:34Z</time>
      </trkpt>
      <trkpt lat="22.5049" lon="113.948054">
        <ele>13.5</ele>
        <time>2023-08-03T10:34:35Z</time>
      </trkpt>
      <trkpt lat="22.504859" lon="113.948093">
        <ele>13.4</ele>
        <time>2023-08-03T10:34:36Z</time>
      </trkpt>
      <trkpt lat="22.504814" lon="113.948131">
        <ele>13.3</ele>
        <time>2023-08-03T10:34:37Z</time>
      </trkpt>
      <trkpt lat="22.504781" lon="113.948177">
        <ele>13.2</ele>
        <time>2023-08-03T10:34:38Z</time>
      </trkpt>
      <trkpt lat="22.504752" lon="113.948209">
        <ele>13.2</ele>
        <time>2023-08-03T10:34:39Z</time>
      </trkpt>
      <trkpt lat="22.504711" lon="113.948226">
        <ele>13.2</ele>
        <time>2023-08-03T10:34:40Z</time>
      </trkpt>
      <trkpt lat="22.504667" lon="113.948234">
        <ele>13.2</ele>
        <time>2023-08-03T10:34:41Z</time>
      </trkpt>
      <trkpt lat="22.504621" lon="113.948235">
        <ele>13.1</ele>
        <time>2023-08-03T10:34:42Z</time>
      </trkpt>
      <trkpt lat="22.504577" lon="113.948248">
        <ele>13.1</ele>
        <time>2023-08-03T10:34:43Z</time>
      </trkpt>
      <trkpt lat="22.504526" lon="113.948271">
        <ele>13.1</ele>
        <time>2023-08-03T10:34:44Z</time>
      </trkpt>
      <trkpt lat="22.504474" lon="113.9483">
        <ele>13</ele>
        <time>2023-08-03T10:34:45Z</time>
      </trkpt>
      <trkpt lat="22.504421" lon="113.948324">
        <ele>13</ele>
        <time>2023-08-03T10:34:46Z</time>
      </trkpt>
      <trkpt lat="22.504367" lon="113.948355">
        <ele>12.9</ele>
        <time>2023-08-03T10:34:47Z</time>
      </trkpt>
      <trkpt lat="22.504317" lon="113.948384">
        <ele>12.9</ele>
        <time>2023-08-03T10:34:48Z</time>
      </trkpt>
      <trkpt lat="22.504263" lon="113.948408">
        <ele>12.9</ele>
        <time>2023-08-03T10:34:49Z</time>
      </trkpt>
      <trkpt lat="22.504209" lon="113.948438">
        <ele>12.8</ele>
        <time>2023-08-03T10:34:50Z</time>
      </trkpt>
      <trkpt lat="22.504159" lon="113.948467">
        <ele>12.8</ele>
        <time>2023-08-03T10:34:51Z</time>
      </trkpt>
      <trkpt lat="22.504105" lon="113.948505">
        <ele>12.8</ele>
        <time>2023-08-03T10:34:52Z</time>
      </trkpt>
      <trkpt lat="22.504055" lon="113.948543">
        <ele>12.7</ele>
        <time>2023-08-03T10:34:53Z</time>
      </trkpt>
      <trkpt lat="22.504004" lon="113.948575">
        <ele>12.7</ele>
        <time>2023-08-03T10:34:54Z</time>
      </trkpt>
      <trkpt lat="22.503955" lon="113.948605">
        <ele>12.6</ele>
        <time>2023-08-03T10:34:55Z</time>
      </trkpt>
      <trkpt lat="22.503905" lon="113.948629">
        <ele>12.6</ele>
        <time>2023-08-03T10:34:56Z</time>
      </trkpt>
      <trkpt lat="22.503856" lon="113.948652">
        <ele>12.6</ele>
        <time>2023-08-03T10:34:57Z</time>
      </trkpt>
      <trkpt lat="22.503805" lon="113.948681">
        <ele>12.5</ele>
        <time>2023-08-03T10:34:58Z</time>
      </trkpt>
      <trkpt lat="22.503749" lon="113.948713">
        <ele>12.5</ele>
        <time>2023-08-03T10:34:59Z</time>
      </trkpt>
      <trkpt lat="22.503696" lon="113.948736">
        <ele>12.4</ele>
        <time>2023-08-03T10:35:00Z</time>
      </trkpt>
      <trkpt lat="22.50364" lon="113.948759">
        <ele>12.4</ele>
        <time>2023-08-03T10:35:01Z</time>
      </trkpt>
      <trkpt lat="22.50358" lon="113.948768">
        <ele>12.4</ele>
        <time>2023-08-03T10:35:02Z</time>
      </trkpt>
      <trkpt lat="22.503523" lon="113.948782">
        <ele>12.3</ele>
        <time>2023-08-03T10:35:03Z</time>
      </trkpt>
      <trkpt lat="22.503466" lon="113.948805">
        <ele>12.3</ele>
        <time>2023-08-03T10:35:04Z</time>
      </trkpt>
      <trkpt lat="22.503411" lon="113.948835">
        <ele>12.2</ele>
        <time>2023-08-03T10:35:05Z</time>
      </trkpt>
      <trkpt lat="22.503355" lon="113.948851">
        <ele>12.2</ele>
        <time>2023-08-03T10:35:06Z</time>
      </trkpt>
      <trkpt lat="22.5033" lon="113.948866">
        <ele>12.2</ele>
        <time>2023-08-03T10:35:07Z</time>
      </trkpt>
      <trkpt lat="22.503243" lon="113.948881">
        <ele>12.1</ele>
        <time>2023-08-03T10:35:08Z</time>
      </trkpt>
      <trkpt lat="22.503183" lon="113.948897">
        <ele>12.1</ele>
        <time>2023-08-03T10:35:09Z</time>
      </trkpt>
      <trkpt lat="22.503123" lon="113.948913">
        <ele>12.1</ele>
        <time>2023-08-03T10:35:10Z</time>
      </trkpt>
      <trkpt lat="22.503074" lon="113.948927">
        <ele>12.1</ele>
        <time>2023-08-03T10:35:11Z</time>
      </trkpt>
      <trkpt lat="22.503025" lon="113.948942">
        <ele>12.1</ele>
        <time>2023-08-03T10:35:12Z</time>
      </trkpt>
      <trkpt lat="22.502977" lon="113.948951">
        <ele>12.1</ele>
        <time>2023-08-03T10:35:13Z</time>
      </trkpt>
      <trkpt lat="22.502932" lon="113.948952">
        <ele>12.1</ele>
        <time>2023-08-03T10:35:14Z</time>
      </trkpt>
      <trkpt lat="22.502887" lon="113.948965">
        <ele>12.1</ele>
        <time>2023-08-03T10:35:15Z</time>
      </trkpt>
      <trkpt lat="22.502841" lon="113.948981">
        <ele>12.2</ele>
        <time>2023-08-03T10:35:16Z</time>
      </trkpt>
      <trkpt lat="22.502793" lon="113.948989">
        <ele>12.2</ele>
        <time>2023-08-03T10:35:17Z</time>
      </trkpt>
      <trkpt lat="22.502746" lon="113.948997">
        <ele>12.2</ele>
        <time>2023-08-03T10:35:18Z</time>
      </trkpt>
      <trkpt lat="22.5027" lon="113.948984">
        <ele>12.2</ele>
        <time>2023-08-03T10:35:19Z</time>
      </trkpt>
      <trkpt lat="22.502655" lon="113.948982">
        <ele>12.2</ele>
        <time>2023-08-03T10:35:20Z</time>
      </trkpt>
      <trkpt lat="22.502612" lon="113.948996">
        <ele>12.2</ele>
        <time>2023-08-03T10:35:21Z</time>
      </trkpt>
      <trkpt lat="22.502565" lon="113.949026">
        <ele>12.2</ele>
        <time>2023-08-03T10:35:22Z</time>
      </trkpt>
      <trkpt lat="22.502522" lon="113.949057">
        <ele>12.2</ele>
        <time>2023-08-03T10:35:23Z</time>
      </trkpt>
      <trkpt lat="22.502481" lon="113.949079">
        <ele>12.2</ele>
        <time>2023-08-03T10:35:24Z</time>
      </trkpt>
      <trkpt lat="22.502438" lon="113.949095">
        <ele>12.2</ele>
        <time>2023-08-03T10:35:25Z</time>
      </trkpt>
      <trkpt lat="22.502394" lon="113.949104">
        <ele>12.2</ele>
        <time>2023-08-03T10:35:26Z</time>
      </trkpt>
      <trkpt lat="22.502346" lon="113.949104">
        <ele>12.2</ele>
        <time>2023-08-03T10:35:27Z</time>
      </trkpt>
      <trkpt lat="22.502301" lon="113.949104">
        <ele>12.2</ele>
        <time>2023-08-03T10:35:28Z</time>
      </trkpt>
      <trkpt lat="22.502254" lon="113.949097">
        <ele>12.2</ele>
        <time>2023-08-03T10:35:29Z</time>
      </trkpt>
      <trkpt lat="22.502206" lon="113.94909">
        <ele>12.2</ele>
        <time>2023-08-03T10:35:30Z</time>
      </trkpt>
      <trkpt lat="22.502161" lon="113.949075">
        <ele>12.2</ele>
        <time>2023-08-03T10:35:31Z</time>
      </trkpt>
      <trkpt lat="22.502121" lon="113.94906">
        <ele>12.2</ele>
        <time>2023-08-03T10:35:32Z</time>
      </trkpt>
      <trkpt lat="22.502077" lon="113.949045">
        <ele>12.2</ele>
        <time>2023-08-03T10:35:33Z</time>
      </trkpt>
      <trkpt lat="22.502035" lon="113.949029">
        <ele>12.2</ele>
        <time>2023-08-03T10:35:34Z</time>
      </trkpt>
      <trkpt lat="22.501993" lon="113.949">
        <ele>12.2</ele>
        <time>2023-08-03T10:35:35Z</time>
      </trkpt>
      <trkpt lat="22.50195" lon="113.948984">
        <ele>12.2</ele>
        <time>2023-08-03T10:35:36Z</time>
      </trkpt>
      <trkpt lat="22.50191" lon="113.948969">
        <ele>12.3</ele>
        <time>2023-08-03T10:35:37Z</time>
      </trkpt>
      <trkpt lat="22.501868" lon="113.948967">
        <ele>12.3</ele>
        <time>2023-08-03T10:35:38Z</time>
      </trkpt>
      <trkpt lat="22.501826" lon="113.94896">
        <ele>12.3</ele>
        <time>2023-08-03T10:35:39Z</time>
      </trkpt>
      <trkpt lat="22.501782" lon="113.948953">
        <ele>12.3</ele>
        <time>2023-08-03T10:35:40Z</time>
      </trkpt>
      <trkpt lat="22.501738" lon="113.948952">
        <ele>12.3</ele>
        <time>2023-08-03T10:35:41Z</time>
      </trkpt>
      <trkpt lat="22.501696" lon="113.948952">
        <ele>12.3</ele>
        <time>2023-08-03T10:35:42Z</time>
      </trkpt>
      <trkpt lat="22.501651" lon="113.948959">
        <ele>12.3</ele>
        <time>2023-08-03T10:35:43Z</time>
      </trkpt>
      <trkpt lat="22.501604" lon="113.948945">
        <ele>12.3</ele>
        <time>2023-08-03T10:35:44Z</time>
      </trkpt>
      <trkpt lat="22.501557" lon="113.94893">
        <ele>12.3</ele>
        <time>2023-08-03T10:35:45Z</time>
      </trkpt>
      <trkpt lat="22.501514" lon="113.948915">
        <ele>12.3</ele>
        <time>2023-08-03T10:35:46Z</time>
      </trkpt>
      <trkpt lat="22.501471" lon="113.948907">
        <ele>12.3</ele>
        <time>2023-08-03T10:35:47Z</time>
      </trkpt>
      <trkpt lat="22.501424" lon="113.948906">
        <ele>12.3</ele>
        <time>2023-08-03T10:35:48Z</time>
      </trkpt>
      <trkpt lat="22.501383" lon="113.948899">
        <ele>12.3</ele>
        <time>2023-08-03T10:35:49Z</time>
      </trkpt>
      <trkpt lat="22.501341" lon="113.948891">
        <ele>12.3</ele>
        <time>2023-08-03T10:35:50Z</time>
      </trkpt>
      <trkpt lat="22.501296" lon="113.948884">
        <ele>12.3</ele>
        <time>2023-08-03T10:35:51Z</time>
      </trkpt>
      <trkpt lat="22.50125" lon="113.948876">
        <ele>12.3</ele>
        <time>2023-08-03T10:35:52Z</time>
      </trkpt>
      <trkpt lat="22.501204" lon="113.948862">
        <ele>12.3</ele>
        <time>2023-08-03T10:35:53Z</time>
      </trkpt>
      <trkpt lat="22.50116" lon="113.948846">
        <ele>12.3</ele>
        <time>2023-08-03T10:35:54Z</time>
      </trkpt>
      <trkpt lat="22.501116" lon="113.948832">
        <ele>12.2</ele>
        <time>2023-08-03T10:35:55Z</time>
      </trkpt>
      <trkpt lat="22.501069" lon="113.948809">
        <ele>12.2</ele>
        <time>2023-08-03T10:35:56Z</time>
      </trkpt>
      <trkpt lat="22.501032" lon="113.948787">
        <ele>12.2</ele>
        <time>2023-08-03T10:35:57Z</time>
      </trkpt>
      <trkpt lat="22.500994" lon="113.948763">
        <ele>12.2</ele>
        <time>2023-08-03T10:35:58Z</time>
      </trkpt>
      <trkpt lat="22.500959" lon="113.948747">
        <ele>12.2</ele>
        <time>2023-08-03T10:35:59Z</time>
      </trkpt>
      <trkpt lat="22.50094" lon="113.948732">
        <ele>12.2</ele>
        <time>2023-08-03T10:36:00Z</time>
      </trkpt>
      <trkpt lat="22.50093" lon="113.948724">
        <ele>12.2</ele>
        <time>2023-08-03T10:36:01Z</time>
      </trkpt>
      <trkpt lat="22.500919" lon="113.948716">
        <ele>12.2</ele>
        <time>2023-08-03T10:36:02Z</time>
      </trkpt>
      <trkpt lat="22.500899" lon="113.948715">
        <ele>12.2</ele>
        <time>2023-08-03T10:36:03Z</time>
      </trkpt>
      <trkpt lat="22.500881" lon="113.948701">
        <ele>12.2</ele>
        <time>2023-08-03T10:36:04Z</time>
      </trkpt>
      <trkpt lat="22.500854" lon="113.948686">
        <ele>12.2</ele>
        <time>2023-08-03T10:36:05Z</time>
      </trkpt>
      <trkpt lat="22.500827" lon="113.948671">
        <ele>12.2</ele>
        <time>2023-08-03T10:36:06Z</time>
      </trkpt>
      <trkpt lat="22.500798" lon="113.948656">
        <ele>12.2</ele>
        <time>2023-08-03T10:36:07Z</time>
      </trkpt>
      <trkpt lat="22.500772" lon="113.948641">
        <ele>12.2</ele>
        <time>2023-08-03T10:36:08Z</time>
      </trkpt>
      <trkpt lat="22.50074" lon="113.948625">
        <ele>12.2</ele>
        <time>2023-08-03T10:36:09Z</time>
      </trkpt>
      <trkpt lat="22.500705" lon="113.948609">
        <ele>12.2</ele>
        <time>2023-08-03T10:36:10Z</time>
      </trkpt>
      <trkpt lat="22.500673" lon="113.948601">
        <ele>12.2</ele>
        <time>2023-08-03T10:36:11Z</time>
      </trkpt>
      <trkpt lat="22.500637" lon="113.948594">
        <ele>12.2</ele>
        <time>2023-08-03T10:36:12Z</time>
      </trkpt>
      <trkpt lat="22.500604" lon="113.948573">
        <ele>12.2</ele>
        <time>2023-08-03T10:36:13Z</time>
      </trkpt>
      <trkpt lat="22.500571" lon="113.948556">
        <ele>12.2</ele>
        <time>2023-08-03T10:36:14Z</time>
      </trkpt>
      <trkpt lat="22.500537" lon="113.948534">
        <ele>12.2</ele>
        <time>2023-08-03T10:36:15Z</time>
      </trkpt>
      <trkpt lat="22.500502" lon="113.948512">
        <ele>12.2</ele>
        <time>2023-08-03T10:36:16Z</time>
      </trkpt>
      <trkpt lat="22.500465" lon="113.948496">
        <ele>12.2</ele>
        <time>2023-08-03T10:36:17Z</time>
      </trkpt>
      <trkpt lat="22.500429" lon="113.948467">
        <ele>12.2</ele>
        <time>2023-08-03T10:36:18Z</time>
      </trkpt>
      <trkpt lat="22.50039" lon="113.948442">
        <ele>12.1</ele>
        <time>2023-08-03T10:36:19Z</time>
      </trkpt>
      <trkpt lat="22.500355" lon="113.94842">
        <ele>12.1</ele>
        <time>2023-08-03T10:36:20Z</time>
      </trkpt>
      <trkpt lat="22.500317" lon="113.948404">
        <ele>12.1</ele>
        <time>2023-08-03T10:36:21Z</time>
      </trkpt>
      <trkpt lat="22.50028" lon="113.948381">
        <ele>12.1</ele>
        <time>2023-08-03T10:36:22Z</time>
      </trkpt>
      <trkpt lat="22.500246" lon="113.948352">
        <ele>12.1</ele>
        <time>2023-08-03T10:36:23Z</time>
      </trkpt>
      <trkpt lat="22.500211" lon="113.948328">
        <ele>12.1</ele>
        <time>2023-08-03T10:36:24Z</time>
      </trkpt>
      <trkpt lat="22.500174" lon="113.948299">
        <ele>12.1</ele>
        <time>2023-08-03T10:36:25Z</time>
      </trkpt>
      <trkpt lat="22.500138" lon="113.948269">
        <ele>12.1</ele>
        <time>2023-08-03T10:36:26Z</time>
      </trkpt>
      <trkpt lat="22.500099" lon="113.948237">
        <ele>12.1</ele>
        <time>2023-08-03T10:36:27Z</time>
      </trkpt>
      <trkpt lat="22.500063" lon="113.948207">
        <ele>12.1</ele>
        <time>2023-08-03T10:36:28Z</time>
      </trkpt>
      <trkpt lat="22.500027" lon="113.948177">
        <ele>12.1</ele>
        <time>2023-08-03T10:36:29Z</time>
      </trkpt>
      <trkpt lat="22.499991" lon="113.94814">
        <ele>12.1</ele>
        <time>2023-08-03T10:36:30Z</time>
      </trkpt>
      <trkpt lat="22.499953" lon="113.948108">
        <ele>12.1</ele>
        <time>2023-08-03T10:36:31Z</time>
      </trkpt>
      <trkpt lat="22.499915" lon="113.948078">
        <ele>12.1</ele>
        <time>2023-08-03T10:36:32Z</time>
      </trkpt>
      <trkpt lat="22.499875" lon="113.948047">
        <ele>12.1</ele>
        <time>2023-08-03T10:36:33Z</time>
      </trkpt>
      <trkpt lat="22.499838" lon="113.94801">
        <ele>12.1</ele>
        <time>2023-08-03T10:36:34Z</time>
      </trkpt>
      <trkpt lat="22.499804" lon="113.947979">
        <ele>12.1</ele>
        <time>2023-08-03T10:36:35Z</time>
      </trkpt>
      <trkpt lat="22.499769" lon="113.947954">
        <ele>12.1</ele>
        <time>2023-08-03T10:36:36Z</time>
      </trkpt>
      <trkpt lat="22.499737" lon="113.947932">
        <ele>12.1</ele>
        <time>2023-08-03T10:36:37Z</time>
      </trkpt>
      <trkpt lat="22.499702" lon="113.947909">
        <ele>12.1</ele>
        <time>2023-08-03T10:36:38Z</time>
      </trkpt>
      <trkpt lat="22.499662" lon="113.947879">
        <ele>12.1</ele>
        <time>2023-08-03T10:36:39Z</time>
      </trkpt>
      <trkpt lat="22.499623" lon="113.947849">
        <ele>12.1</ele>
        <time>2023-08-03T10:36:40Z</time>
      </trkpt>
      <trkpt lat="22.499583" lon="113.947812">
        <ele>12.1</ele>
        <time>2023-08-03T10:36:41Z</time>
      </trkpt>
      <trkpt lat="22.49954" lon="113.94778">
        <ele>12.1</ele>
        <time>2023-08-03T10:36:42Z</time>
      </trkpt>
      <trkpt lat="22.499495" lon="113.947743">
        <ele>12.1</ele>
        <time>2023-08-03T10:36:43Z</time>
      </trkpt>
      <trkpt lat="22.499453" lon="113.947712">
        <ele>12.1</ele>
        <time>2023-08-03T10:36:44Z</time>
      </trkpt>
      <trkpt lat="22.499415" lon="113.947687">
        <ele>12.1</ele>
        <time>2023-08-03T10:36:45Z</time>
      </trkpt>
      <trkpt lat="22.499376" lon="113.947658">
        <ele>12.1</ele>
        <time>2023-08-03T10:36:46Z</time>
      </trkpt>
      <trkpt lat="22.49933" lon="113.947641">
        <ele>12.1</ele>
        <time>2023-08-03T10:36:47Z</time>
      </trkpt>
      <trkpt lat="22.499284" lon="113.947619">
        <ele>12.1</ele>
        <time>2023-08-03T10:36:48Z</time>
      </trkpt>
      <trkpt lat="22.499238" lon="113.947596">
        <ele>12.1</ele>
        <time>2023-08-03T10:36:49Z</time>
      </trkpt>
      <trkpt lat="22.499194" lon="113.947566">
        <ele>12.1</ele>
        <time>2023-08-03T10:36:50Z</time>
      </trkpt>
      <trkpt lat="22.49915" lon="113.947535">
        <ele>12.1</ele>
        <time>2023-08-03T10:36:51Z</time>
      </trkpt>
      <trkpt lat="22.499117" lon="113.947513">
        <ele>12.1</ele>
        <time>2023-08-03T10:36:52Z</time>
      </trkpt>
      <trkpt lat="22.499086" lon="113.947489">
        <ele>12.1</ele>
        <time>2023-08-03T10:36:53Z</time>
      </trkpt>
      <trkpt lat="22.499047" lon="113.947473">
        <ele>12.1</ele>
        <time>2023-08-03T10:36:54Z</time>
      </trkpt>
      <trkpt lat="22.499" lon="113.947458">
        <ele>12.1</ele>
        <time>2023-08-03T10:36:55Z</time>
      </trkpt>
      <trkpt lat="22.498954" lon="113.947443">
        <ele>12.1</ele>
        <time>2023-08-03T10:36:56Z</time>
      </trkpt>
      <trkpt lat="22.498909" lon="113.947428">
        <ele>12.1</ele>
        <time>2023-08-03T10:36:57Z</time>
      </trkpt>
      <trkpt lat="22.498864" lon="113.947405">
        <ele>12.1</ele>
        <time>2023-08-03T10:36:58Z</time>
      </trkpt>
      <trkpt lat="22.49882" lon="113.947383">
        <ele>12.1</ele>
        <time>2023-08-03T10:36:59Z</time>
      </trkpt>
      <trkpt lat="22.498776" lon="113.94736">
        <ele>12.1</ele>
        <time>2023-08-03T10:37:00Z</time>
      </trkpt>
      <trkpt lat="22.498733" lon="113.947337">
        <ele>12.1</ele>
        <time>2023-08-03T10:37:01Z</time>
      </trkpt>
      <trkpt lat="22.498685" lon="113.947321">
        <ele>12.1</ele>
        <time>2023-08-03T10:37:02Z</time>
      </trkpt>
      <trkpt lat="22.498637" lon="113.947305">
        <ele>12.1</ele>
        <time>2023-08-03T10:37:03Z</time>
      </trkpt>
      <trkpt lat="22.4986" lon="113.947283">
        <ele>12.1</ele>
        <time>2023-08-03T10:37:04Z</time>
      </trkpt>
      <trkpt lat="22.498555" lon="113.94726">
        <ele>12.1</ele>
        <time>2023-08-03T10:37:05Z</time>
      </trkpt>
      <trkpt lat="22.498508" lon="113.947244">
        <ele>12.1</ele>
        <time>2023-08-03T10:37:06Z</time>
      </trkpt>
      <trkpt lat="22.498464" lon="113.947229">
        <ele>12.1</ele>
        <time>2023-08-03T10:37:07Z</time>
      </trkpt>
      <trkpt lat="22.498421" lon="113.947214">
        <ele>12.1</ele>
        <time>2023-08-03T10:37:08Z</time>
      </trkpt>
      <trkpt lat="22.498376" lon="113.947205">
        <ele>12.1</ele>
        <time>2023-08-03T10:37:09Z</time>
      </trkpt>
      <trkpt lat="22.498329" lon="113.94719">
        <ele>12.1</ele>
        <time>2023-08-03T10:37:10Z</time>
      </trkpt>
      <trkpt lat="22.498276" lon="113.947176">
        <ele>12.1</ele>
        <time>2023-08-03T10:37:11Z</time>
      </trkpt>
      <trkpt lat="22.498226" lon="113.947167">
        <ele>12.1</ele>
        <time>2023-08-03T10:37:12Z</time>
      </trkpt>
      <trkpt lat="22.498178" lon="113.947166">
        <ele>12.2</ele>
        <time>2023-08-03T10:37:13Z</time>
      </trkpt>
      <trkpt lat="22.498121" lon="113.947166">
        <ele>12.2</ele>
        <time>2023-08-03T10:37:14Z</time>
      </trkpt>
      <trkpt lat="22.49807" lon="113.947166">
        <ele>12.2</ele>
        <time>2023-08-03T10:37:15Z</time>
      </trkpt>
      <trkpt lat="22.498027" lon="113.947166">
        <ele>12.2</ele>
        <time>2023-08-03T10:37:16Z</time>
      </trkpt>
      <trkpt lat="22.49798" lon="113.947159">
        <ele>12.2</ele>
        <time>2023-08-03T10:37:17Z</time>
      </trkpt>
      <trkpt lat="22.497938" lon="113.947152">
        <ele>12.2</ele>
        <time>2023-08-03T10:37:18Z</time>
      </trkpt>
      <trkpt lat="22.497897" lon="113.947137">
        <ele>12.3</ele>
        <time>2023-08-03T10:37:19Z</time>
      </trkpt>
      <trkpt lat="22.497851" lon="113.947129">
        <ele>12.3</ele>
        <time>2023-08-03T10:37:20Z</time>
      </trkpt>
      <trkpt lat="22.497801" lon="113.947122">
        <ele>12.3</ele>
        <time>2023-08-03T10:37:21Z</time>
      </trkpt>
      <trkpt lat="22.497752" lon="113.947121">
        <ele>12.3</ele>
        <time>2023-08-03T10:37:22Z</time>
      </trkpt>
      <trkpt lat="22.497709" lon="113.947107">
        <ele>12.3</ele>
        <time>2023-08-03T10:37:23Z</time>
      </trkpt>
      <trkpt lat="22.497671" lon="113.947099">
        <ele>12.3</ele>
        <time>2023-08-03T10:37:24Z</time>
      </trkpt>
      <trkpt lat="22.497636" lon="113.947084">
        <ele>12.3</ele>
        <time>2023-08-03T10:37:25Z</time>
      </trkpt>
      <trkpt lat="22.497599" lon="113.947083">
        <ele>12.4</ele>
        <time>2023-08-03T10:37:26Z</time>
      </trkpt>
      <trkpt lat="22.497558" lon="113.947083">
        <ele>12.4</ele>
        <time>2023-08-03T10:37:27Z</time>
      </trkpt>
      <trkpt lat="22.497517" lon="113.947089">
        <ele>12.4</ele>
        <time>2023-08-03T10:37:28Z</time>
      </trkpt>
      <trkpt lat="22.49747" lon="113.94709">
        <ele>12.4</ele>
        <time>2023-08-03T10:37:29Z</time>
      </trkpt>
      <trkpt lat="22.497426" lon="113.94709">
        <ele>12.4</ele>
        <time>2023-08-03T10:37:30Z</time>
      </trkpt>
      <trkpt lat="22.497382" lon="113.94709">
        <ele>12.4</ele>
        <time>2023-08-03T10:37:31Z</time>
      </trkpt>
      <trkpt lat="22.497339" lon="113.947097">
        <ele>12.5</ele>
        <time>2023-08-03T10:37:32Z</time>
      </trkpt>
      <trkpt lat="22.497294" lon="113.947098">
        <ele>12.5</ele>
        <time>2023-08-03T10:37:33Z</time>
      </trkpt>
      <trkpt lat="22.49725" lon="113.947105">
        <ele>12.5</ele>
        <time>2023-08-03T10:37:34Z</time>
      </trkpt>
      <trkpt lat="22.497208" lon="113.947112">
        <ele>12.5</ele>
        <time>2023-08-03T10:37:35Z</time>
      </trkpt>
      <trkpt lat="22.497162" lon="113.947113">
        <ele>12.5</ele>
        <time>2023-08-03T10:37:36Z</time>
      </trkpt>
      <trkpt lat="22.497113" lon="113.94712">
        <ele>12.5</ele>
        <time>2023-08-03T10:37:37Z</time>
      </trkpt>
      <trkpt lat="22.497064" lon="113.947128">
        <ele>12.5</ele>
        <time>2023-08-03T10:37:38Z</time>
      </trkpt>
      <trkpt lat="22.497015" lon="113.947136">
        <ele>12.6</ele>
        <time>2023-08-03T10:37:39Z</time>
      </trkpt>
      <trkpt lat="22.496964" lon="113.947136">
        <ele>12.6</ele>
        <time>2023-08-03T10:37:40Z</time>
      </trkpt>
      <trkpt lat="22.496916" lon="113.947143">
        <ele>12.6</ele>
        <time>2023-08-03T10:37:41Z</time>
      </trkpt>
      <trkpt lat="22.49687" lon="113.947144">
        <ele>12.6</ele>
        <time>2023-08-03T10:37:42Z</time>
      </trkpt>
      <trkpt lat="22.496826" lon="113.947144">
        <ele>12.6</ele>
        <time>2023-08-03T10:37:43Z</time>
      </trkpt>
      <trkpt lat="22.496788" lon="113.947151">
        <ele>12.6</ele>
        <time>2023-08-03T10:37:44Z</time>
      </trkpt>
      <trkpt lat="22.496747" lon="113.947158">
        <ele>12.7</ele>
        <time>2023-08-03T10:37:45Z</time>
      </trkpt>
      <trkpt lat="22.496709" lon="113.947159">
        <ele>12.7</ele>
        <time>2023-08-03T10:37:46Z</time>
      </trkpt>
      <trkpt lat="22.496669" lon="113.947166">
        <ele>12.7</ele>
        <time>2023-08-03T10:37:47Z</time>
      </trkpt>
      <trkpt lat="22.496627" lon="113.947181">
        <ele>12.7</ele>
        <time>2023-08-03T10:37:48Z</time>
      </trkpt>
      <trkpt lat="22.496585" lon="113.947189">
        <ele>12.7</ele>
        <time>2023-08-03T10:37:49Z</time>
      </trkpt>
      <trkpt lat="22.496543" lon="113.947203">
        <ele>12.7</ele>
        <time>2023-08-03T10:37:50Z</time>
      </trkpt>
      <trkpt lat="22.496501" lon="113.947212">
        <ele>12.7</ele>
        <time>2023-08-03T10:37:51Z</time>
      </trkpt>
      <trkpt lat="22.496461" lon="113.947226">
        <ele>12.7</ele>
        <time>2023-08-03T10:37:52Z</time>
      </trkpt>
      <trkpt lat="22.49642" lon="113.947235">
        <ele>12.8</ele>
        <time>2023-08-03T10:37:53Z</time>
      </trkpt>
      <trkpt lat="22.496381" lon="113.94725">
        <ele>12.8</ele>
        <time>2023-08-03T10:37:54Z</time>
      </trkpt>
      <trkpt lat="22.496347" lon="113.947265">
        <ele>12.8</ele>
        <time>2023-08-03T10:37:55Z</time>
      </trkpt>
      <trkpt lat="22.496307" lon="113.94728">
        <ele>12.8</ele>
        <time>2023-08-03T10:37:56Z</time>
      </trkpt>
      <trkpt lat="22.496269" lon="113.947288">
        <ele>12.8</ele>
        <time>2023-08-03T10:37:57Z</time>
      </trkpt>
      <trkpt lat="22.496231" lon="113.947296">
        <ele>12.8</ele>
        <time>2023-08-03T10:37:58Z</time>
      </trkpt>
      <trkpt lat="22.496198" lon="113.947303">
        <ele>12.8</ele>
        <time>2023-08-03T10:37:59Z</time>
      </trkpt>
      <trkpt lat="22.496168" lon="113.947325">
        <ele>12.8</ele>
        <time>2023-08-03T10:38:00Z</time>
      </trkpt>
      <trkpt lat="22.49614" lon="113.947334">
        <ele>12.8</ele>
        <time>2023-08-03T10:38:01Z</time>
      </trkpt>
      <trkpt lat="22.496107" lon="113.947334">
        <ele>12.8</ele>
        <time>2023-08-03T10:38:02Z</time>
      </trkpt>
      <trkpt lat="22.496069" lon="113.947334">
        <ele>12.8</ele>
        <time>2023-08-03T10:38:03Z</time>
      </trkpt>
      <trkpt lat="22.496028" lon="113.94732">
        <ele>12.8</ele>
        <time>2023-08-03T10:38:04Z</time>
      </trkpt>
      <trkpt lat="22.495998" lon="113.947283">
        <ele>12.9</ele>
        <time>2023-08-03T10:38:05Z</time>
      </trkpt>
      <trkpt lat="22.495979" lon="113.947246">
        <ele>12.9</ele>
        <time>2023-08-03T10:38:06Z</time>
      </trkpt>
      <trkpt lat="22.495951" lon="113.947214">
        <ele>12.9</ele>
        <time>2023-08-03T10:38:07Z</time>
      </trkpt>
      <trkpt lat="22.495924" lon="113.947205">
        <ele>12.9</ele>
        <time>2023-08-03T10:38:08Z</time>
      </trkpt>
      <trkpt lat="22.495887" lon="113.94719">
        <ele>12.9</ele>
        <time>2023-08-03T10:38:09Z</time>
      </trkpt>
      <trkpt lat="22.495845" lon="113.947189">
        <ele>12.9</ele>
        <time>2023-08-03T10:38:10Z</time>
      </trkpt>
      <trkpt lat="22.495804" lon="113.947197">
        <ele>12.9</ele>
        <time>2023-08-03T10:38:11Z</time>
      </trkpt>
      <trkpt lat="22.495763" lon="113.947204">
        <ele>12.9</ele>
        <time>2023-08-03T10:38:12Z</time>
      </trkpt>
      <trkpt lat="22.495714" lon="113.947226">
        <ele>12.9</ele>
        <time>2023-08-03T10:38:13Z</time>
      </trkpt>
      <trkpt lat="22.495669" lon="113.947249">
        <ele>12.9</ele>
        <time>2023-08-03T10:38:14Z</time>
      </trkpt>
      <trkpt lat="22.495628" lon="113.947272">
        <ele>12.9</ele>
        <time>2023-08-03T10:38:15Z</time>
      </trkpt>
      <trkpt lat="22.495582" lon="113.947309">
        <ele>13</ele>
        <time>2023-08-03T10:38:16Z</time>
      </trkpt>
      <trkpt lat="22.495536" lon="113.947347">
        <ele>13</ele>
        <time>2023-08-03T10:38:17Z</time>
      </trkpt>
      <trkpt lat="22.495483" lon="113.947378">
        <ele>13</ele>
        <time>2023-08-03T10:38:18Z</time>
      </trkpt>
      <trkpt lat="22.495428" lon="113.947401">
        <ele>13</ele>
        <time>2023-08-03T10:38:19Z</time>
      </trkpt>
      <trkpt lat="22.495371" lon="113.947424">
        <ele>13</ele>
        <time>2023-08-03T10:38:20Z</time>
      </trkpt>
      <trkpt lat="22.495321" lon="113.94744">
        <ele>13</ele>
        <time>2023-08-03T10:38:21Z</time>
      </trkpt>
      <trkpt lat="22.495272" lon="113.947448">
        <ele>13</ele>
        <time>2023-08-03T10:38:22Z</time>
      </trkpt>
      <trkpt lat="22.49522" lon="113.947456">
        <ele>13</ele>
        <time>2023-08-03T10:38:23Z</time>
      </trkpt>
      <trkpt lat="22.495176" lon="113.947449">
        <ele>13.1</ele>
        <time>2023-08-03T10:38:24Z</time>
      </trkpt>
      <trkpt lat="22.49513" lon="113.947442">
        <ele>13.1</ele>
        <time>2023-08-03T10:38:25Z</time>
      </trkpt>
      <trkpt lat="22.495077" lon="113.947434">
        <ele>13.1</ele>
        <time>2023-08-03T10:38:26Z</time>
      </trkpt>
      <trkpt lat="22.495022" lon="113.947419">
        <ele>13.1</ele>
        <time>2023-08-03T10:38:27Z</time>
      </trkpt>
      <trkpt lat="22.494978" lon="113.947404">
        <ele>13.1</ele>
        <time>2023-08-03T10:38:28Z</time>
      </trkpt>
      <trkpt lat="22.49493" lon="113.947396">
        <ele>13.1</ele>
        <time>2023-08-03T10:38:29Z</time>
      </trkpt>
      <trkpt lat="22.494887" lon="113.947388">
        <ele>13.1</ele>
        <time>2023-08-03T10:38:30Z</time>
      </trkpt>
      <trkpt lat="22.494835" lon="113.947381">
        <ele>13.1</ele>
        <time>2023-08-03T10:38:31Z</time>
      </trkpt>
      <trkpt lat="22.494788" lon="113.94738">
        <ele>13.1</ele>
        <time>2023-08-03T10:38:32Z</time>
      </trkpt>
      <trkpt lat="22.494737" lon="113.947394">
        <ele>13.1</ele>
        <time>2023-08-03T10:38:33Z</time>
      </trkpt>
      <trkpt lat="22.49469" lon="113.947409">
        <ele>13.1</ele>
        <time>2023-08-03T10:38:34Z</time>
      </trkpt>
      <trkpt lat="22.494649" lon="113.947446">
        <ele>13.1</ele>
        <time>2023-08-03T10:38:35Z</time>
      </trkpt>
      <trkpt lat="22.494612" lon="113.947477">
        <ele>13.1</ele>
        <time>2023-08-03T10:38:36Z</time>
      </trkpt>
      <trkpt lat="22.494571" lon="113.947522">
        <ele>13</ele>
        <time>2023-08-03T10:38:37Z</time>
      </trkpt>
      <trkpt lat="22.494532" lon="113.94756">
        <ele>13</ele>
        <time>2023-08-03T10:38:38Z</time>
      </trkpt>
      <trkpt lat="22.494498" lon="113.947606">
        <ele>13</ele>
        <time>2023-08-03T10:38:39Z</time>
      </trkpt>
      <trkpt lat="22.494469" lon="113.947651">
        <ele>13</ele>
        <time>2023-08-03T10:38:40Z</time>
      </trkpt>
      <trkpt lat="22.494441" lon="113.947698">
        <ele>13</ele>
        <time>2023-08-03T10:38:41Z</time>
      </trkpt>
      <trkpt lat="22.494405" lon="113.947729">
        <ele>13</ele>
        <time>2023-08-03T10:38:42Z</time>
      </trkpt>
      <trkpt lat="22.494365" lon="113.947767">
        <ele>13</ele>
        <time>2023-08-03T10:38:43Z</time>
      </trkpt>
      <trkpt lat="22.494326" lon="113.947798">
        <ele>13</ele>
        <time>2023-08-03T10:38:44Z</time>
      </trkpt>
      <trkpt lat="22.494288" lon="113.947821">
        <ele>13</ele>
        <time>2023-08-03T10:38:45Z</time>
      </trkpt>
      <trkpt lat="22.494242" lon="113.947844">
        <ele>12.9</ele>
        <time>2023-08-03T10:38:46Z</time>
      </trkpt>
      <trkpt lat="22.49419" lon="113.947853">
        <ele>12.9</ele>
        <time>2023-08-03T10:38:47Z</time>
      </trkpt>
      <trkpt lat="22.494139" lon="113.947853">
        <ele>12.9</ele>
        <time>2023-08-03T10:38:48Z</time>
      </trkpt>
      <trkpt lat="22.494093" lon="113.947853">
        <ele>12.9</ele>
        <time>2023-08-03T10:38:49Z</time>
      </trkpt>
      <trkpt lat="22.494038" lon="113.947839">
        <ele>12.9</ele>
        <time>2023-08-03T10:38:50Z</time>
      </trkpt>
      <trkpt lat="22.49399" lon="113.947817">
        <ele>12.9</ele>
        <time>2023-08-03T10:38:51Z</time>
      </trkpt>
      <trkpt lat="22.493948" lon="113.94778">
        <ele>12.9</ele>
        <time>2023-08-03T10:38:52Z</time>
      </trkpt>
      <trkpt lat="22.493909" lon="113.947748">
        <ele>12.9</ele>
        <time>2023-08-03T10:38:53Z</time>
      </trkpt>
      <trkpt lat="22.493871" lon="113.947718">
        <ele>12.9</ele>
        <time>2023-08-03T10:38:54Z</time>
      </trkpt>
      <trkpt lat="22.493836" lon="113.947687">
        <ele>12.9</ele>
        <time>2023-08-03T10:38:55Z</time>
      </trkpt>
      <trkpt lat="22.493798" lon="113.94765">
        <ele>12.8</ele>
        <time>2023-08-03T10:38:56Z</time>
      </trkpt>
      <trkpt lat="22.493757" lon="113.947625">
        <ele>12.8</ele>
        <time>2023-08-03T10:38:57Z</time>
      </trkpt>
      <trkpt lat="22.493712" lon="113.947603">
        <ele>12.8</ele>
        <time>2023-08-03T10:38:58Z</time>
      </trkpt>
      <trkpt lat="22.493662" lon="113.94758">
        <ele>12.8</ele>
        <time>2023-08-03T10:38:59Z</time>
      </trkpt>
      <trkpt lat="22.493614" lon="113.947557">
        <ele>12.8</ele>
        <time>2023-08-03T10:39:00Z</time>
      </trkpt>
      <trkpt lat="22.493568" lon="113.947534">
        <ele>12.8</ele>
        <time>2023-08-03T10:39:01Z</time>
      </trkpt>
      <trkpt lat="22.49352" lon="113.947511">
        <ele>12.8</ele>
        <time>2023-08-03T10:39:02Z</time>
      </trkpt>
      <trkpt lat="22.493469" lon="113.947496">
        <ele>12.8</ele>
        <time>2023-08-03T10:39:03Z</time>
      </trkpt>
      <trkpt lat="22.493422" lon="113.94748">
        <ele>12.8</ele>
        <time>2023-08-03T10:39:04Z</time>
      </trkpt>
      <trkpt lat="22.493374" lon="113.947479">
        <ele>12.7</ele>
        <time>2023-08-03T10:39:05Z</time>
      </trkpt>
      <trkpt lat="22.493322" lon="113.947486">
        <ele>12.7</ele>
        <time>2023-08-03T10:39:06Z</time>
      </trkpt>
      <trkpt lat="22.493272" lon="113.947501">
        <ele>12.7</ele>
        <time>2023-08-03T10:39:07Z</time>
      </trkpt>
      <trkpt lat="22.493227" lon="113.947516">
        <ele>12.7</ele>
        <time>2023-08-03T10:39:08Z</time>
      </trkpt>
      <trkpt lat="22.493176" lon="113.947531">
        <ele>12.7</ele>
        <time>2023-08-03T10:39:09Z</time>
      </trkpt>
      <trkpt lat="22.493124" lon="113.947547">
        <ele>12.7</ele>
        <time>2023-08-03T10:39:10Z</time>
      </trkpt>
      <trkpt lat="22.493076" lon="113.947555">
        <ele>12.7</ele>
        <time>2023-08-03T10:39:11Z</time>
      </trkpt>
      <trkpt lat="22.493028" lon="113.947578">
        <ele>12.6</ele>
        <time>2023-08-03T10:39:12Z</time>
      </trkpt>
      <trkpt lat="22.492983" lon="113.947586">
        <ele>12.6</ele>
        <time>2023-08-03T10:39:13Z</time>
      </trkpt>
      <trkpt lat="22.492936" lon="113.947593">
        <ele>12.6</ele>
        <time>2023-08-03T10:39:14Z</time>
      </trkpt>
      <trkpt lat="22.492891" lon="113.947587">
        <ele>12.6</ele>
        <time>2023-08-03T10:39:15Z</time>
      </trkpt>
      <trkpt lat="22.492845" lon="113.947564">
        <ele>12.6</ele>
        <time>2023-08-03T10:39:16Z</time>
      </trkpt>
      <trkpt lat="22.492808" lon="113.947542">
        <ele>12.6</ele>
        <time>2023-08-03T10:39:17Z</time>
      </trkpt>
      <trkpt lat="22.492774" lon="113.947519">
        <ele>12.6</ele>
        <time>2023-08-03T10:39:18Z</time>
      </trkpt>
      <trkpt lat="22.492738" lon="113.947503">
        <ele>12.5</ele>
        <time>2023-08-03T10:39:19Z</time>
      </trkpt>
      <trkpt lat="22.492705" lon="113.947488">
        <ele>12.5</ele>
        <time>2023-08-03T10:39:20Z</time>
      </trkpt>
      <trkpt lat="22.492673" lon="113.947473">
        <ele>12.5</ele>
        <time>2023-08-03T10:39:21Z</time>
      </trkpt>
      <trkpt lat="22.492643" lon="113.947457">
        <ele>12.5</ele>
        <time>2023-08-03T10:39:22Z</time>
      </trkpt>
      <trkpt lat="22.492612" lon="113.947449">
        <ele>12.5</ele>
        <time>2023-08-03T10:39:23Z</time>
      </trkpt>
      <trkpt lat="22.492579" lon="113.947442">
        <ele>12.5</ele>
        <time>2023-08-03T10:39:24Z</time>
      </trkpt>
      <trkpt lat="22.49254" lon="113.947434">
        <ele>12.5</ele>
        <time>2023-08-03T10:39:25Z</time>
      </trkpt>
      <trkpt lat="22.492497" lon="113.947433">
        <ele>12.5</ele>
        <time>2023-08-03T10:39:26Z</time>
      </trkpt>
      <trkpt lat="22.492455" lon="113.947433">
        <ele>12.4</ele>
        <time>2023-08-03T10:39:27Z</time>
      </trkpt>
      <trkpt lat="22.492412" lon="113.947426">
        <ele>12.4</ele>
        <time>2023-08-03T10:39:28Z</time>
      </trkpt>
      <trkpt lat="22.492372" lon="113.947426">
        <ele>12.4</ele>
        <time>2023-08-03T10:39:29Z</time>
      </trkpt>
      <trkpt lat="22.492335" lon="113.947426">
        <ele>12.4</ele>
        <time>2023-08-03T10:39:30Z</time>
      </trkpt>
      <trkpt lat="22.492301" lon="113.947419">
        <ele>12.4</ele>
        <time>2023-08-03T10:39:31Z</time>
      </trkpt>
      <trkpt lat="22.49227" lon="113.947418">
        <ele>12.4</ele>
        <time>2023-08-03T10:39:32Z</time>
      </trkpt>
      <trkpt lat="22.492236" lon="113.947411">
        <ele>12.4</ele>
        <time>2023-08-03T10:39:33Z</time>
      </trkpt>
      <trkpt lat="22.492202" lon="113.947411">
        <ele>12.4</ele>
        <time>2023-08-03T10:39:34Z</time>
      </trkpt>
      <trkpt lat="22.492175" lon="113.947403">
        <ele>12.4</ele>
        <time>2023-08-03T10:39:35Z</time>
      </trkpt>
      <trkpt lat="22.492149" lon="113.947396">
        <ele>12.4</ele>
        <time>2023-08-03T10:39:36Z</time>
      </trkpt>
      <trkpt lat="22.492127" lon="113.947395">
        <ele>12.3</ele>
        <time>2023-08-03T10:39:37Z</time>
      </trkpt>
      <trkpt lat="22.492107" lon="113.947402">
        <ele>12.3</ele>
        <time>2023-08-03T10:39:38Z</time>
      </trkpt>
      <trkpt lat="22.492082" lon="113.947403">
        <ele>12.3</ele>
        <time>2023-08-03T10:39:39Z</time>
      </trkpt>
      <trkpt lat="22.492055" lon="113.947403">
        <ele>12.3</ele>
        <time>2023-08-03T10:39:40Z</time>
      </trkpt>
      <trkpt lat="22.492024" lon="113.947417">
        <ele>12.3</ele>
        <time>2023-08-03T10:39:41Z</time>
      </trkpt>
      <trkpt lat="22.491993" lon="113.947432">
        <ele>12.3</ele>
        <time>2023-08-03T10:39:42Z</time>
      </trkpt>
      <trkpt lat="22.491964" lon="113.947441">
        <ele>12.3</ele>
        <time>2023-08-03T10:39:43Z</time>
      </trkpt>
      <trkpt lat="22.491934" lon="113.947448">
        <ele>12.3</ele>
        <time>2023-08-03T10:39:44Z</time>
      </trkpt>
      <trkpt lat="22.491901" lon="113.947449">
        <ele>12.3</ele>
        <time>2023-08-03T10:39:45Z</time>
      </trkpt>
      <trkpt lat="22.491872" lon="113.947449">
        <ele>12.3</ele>
        <time>2023-08-03T10:39:46Z</time>
      </trkpt>
      <trkpt lat="22.491843" lon="113.947456">
        <ele>12.3</ele>
        <time>2023-08-03T10:39:47Z</time>
      </trkpt>
      <trkpt lat="22.491818" lon="113.947471">
        <ele>12.2</ele>
        <time>2023-08-03T10:39:48Z</time>
      </trkpt>
      <trkpt lat="22.491794" lon="113.947479">
        <ele>12.2</ele>
        <time>2023-08-03T10:39:49Z</time>
      </trkpt>
      <trkpt lat="22.491771" lon="113.947479">
        <ele>12.2</ele>
        <time>2023-08-03T10:39:50Z</time>
      </trkpt>
      <trkpt lat="22.491745" lon="113.947486">
        <ele>12.2</ele>
        <time>2023-08-03T10:39:51Z</time>
      </trkpt>
      <trkpt lat="22.49172" lon="113.947494">
        <ele>12.2</ele>
        <time>2023-08-03T10:39:52Z</time>
      </trkpt>
      <trkpt lat="22.491697" lon="113.947509">
        <ele>12.2</ele>
        <time>2023-08-03T10:39:53Z</time>
      </trkpt>
      <trkpt lat="22.491676" lon="113.947517">
        <ele>12.2</ele>
        <time>2023-08-03T10:39:54Z</time>
      </trkpt>
      <trkpt lat="22.491653" lon="113.947532">
        <ele>12.2</ele>
        <time>2023-08-03T10:39:55Z</time>
      </trkpt>
      <trkpt lat="22.491625" lon="113.94754">
        <ele>12.2</ele>
        <time>2023-08-03T10:39:56Z</time>
      </trkpt>
      <trkpt lat="22.491593" lon="113.947554">
        <ele>12.2</ele>
        <time>2023-08-03T10:39:57Z</time>
      </trkpt>
      <trkpt lat="22.49156" lon="113.94757">
        <ele>12.2</ele>
        <time>2023-08-03T10:39:58Z</time>
      </trkpt>
      <trkpt lat="22.49153" lon="113.947592">
        <ele>12.2</ele>
        <time>2023-08-03T10:39:59Z</time>
      </trkpt>
      <trkpt lat="22.491497" lon="113.947608">
        <ele>12.2</ele>
        <time>2023-08-03T10:40:00Z</time>
      </trkpt>
      <trkpt lat="22.491471" lon="113.947624">
        <ele>12.2</ele>
        <time>2023-08-03T10:40:01Z</time>
      </trkpt>
      <trkpt lat="22.491451" lon="113.947645">
        <ele>12.2</ele>
        <time>2023-08-03T10:40:02Z</time>
      </trkpt>
      <trkpt lat="22.491428" lon="113.947668">
        <ele>12.2</ele>
        <time>2023-08-03T10:40:03Z</time>
      </trkpt>
      <trkpt lat="22.491408" lon="113.947685">
        <ele>12.2</ele>
        <time>2023-08-03T10:40:04Z</time>
      </trkpt>
      <trkpt lat="22.491386" lon="113.947707">
        <ele>12.2</ele>
        <time>2023-08-03T10:40:05Z</time>
      </trkpt>
      <trkpt lat="22.491365" lon="113.947715">
        <ele>12.2</ele>
        <time>2023-08-03T10:40:06Z</time>
      </trkpt>
      <trkpt lat="22.491343" lon="113.947738">
        <ele>12.2</ele>
        <time>2023-08-03T10:40:07Z</time>
      </trkpt>
      <trkpt lat="22.491316" lon="113.94776">
        <ele>12.2</ele>
        <time>2023-08-03T10:40:08Z</time>
      </trkpt>
      <trkpt lat="22.491287" lon="113.947783">
        <ele>12.2</ele>
        <time>2023-08-03T10:40:09Z</time>
      </trkpt>
      <trkpt lat="22.491265" lon="113.947806">
        <ele>12.2</ele>
        <time>2023-08-03T10:40:10Z</time>
      </trkpt>
      <trkpt lat="22.491246" lon="113.947822">
        <ele>12.2</ele>
        <time>2023-08-03T10:40:11Z</time>
      </trkpt>
      <trkpt lat="22.491224" lon="113.947844">
        <ele>12.2</ele>
        <time>2023-08-03T10:40:12Z</time>
      </trkpt>
      <trkpt lat="22.491197" lon="113.94786">
        <ele>12.2</ele>
        <time>2023-08-03T10:40:13Z</time>
      </trkpt>
      <trkpt lat="22.491171" lon="113.947875">
        <ele>12.2</ele>
        <time>2023-08-03T10:40:14Z</time>
      </trkpt>
      <trkpt lat="22.491144" lon="113.94789">
        <ele>12.2</ele>
        <time>2023-08-03T10:40:15Z</time>
      </trkpt>
      <trkpt lat="22.491119" lon="113.947906">
        <ele>12.2</ele>
        <time>2023-08-03T10:40:16Z</time>
      </trkpt>
      <trkpt lat="22.491096" lon="113.94792">
        <ele>12.2</ele>
        <time>2023-08-03T10:40:17Z</time>
      </trkpt>
      <trkpt lat="22.491079" lon="113.947943">
        <ele>12.2</ele>
        <time>2023-08-03T10:40:18Z</time>
      </trkpt>
      <trkpt lat="22.491061" lon="113.947959">
        <ele>12.2</ele>
        <time>2023-08-03T10:40:19Z</time>
      </trkpt>
      <trkpt lat="22.49105" lon="113.947974">
        <ele>12.2</ele>
        <time>2023-08-03T10:40:20Z</time>
      </trkpt>
      <trkpt lat="22.49104" lon="113.947989">
        <ele>12.2</ele>
        <time>2023-08-03T10:40:21Z</time>
      </trkpt>
      <trkpt lat="22.491025" lon="113.947998">
        <ele>12.2</ele>
        <time>2023-08-03T10:40:22Z</time>
      </trkpt>
      <trkpt lat="22.491008" lon="113.948012">
        <ele>12.2</ele>
        <time>2023-08-03T10:40:23Z</time>
      </trkpt>
      <trkpt lat="22.490993" lon="113.948028">
        <ele>12.2</ele>
        <time>2023-08-03T10:40:24Z</time>
      </trkpt>
      <trkpt lat="22.490974" lon="113.948036">
        <ele>12.2</ele>
        <time>2023-08-03T10:40:25Z</time>
      </trkpt>
      <trkpt lat="22.490955" lon="113.94805">
        <ele>12.2</ele>
        <time>2023-08-03T10:40:26Z</time>
      </trkpt>
      <trkpt lat="22.490936" lon="113.948059">
        <ele>12.2</ele>
        <time>2023-08-03T10:40:27Z</time>
      </trkpt>
      <trkpt lat="22.490917" lon="113.948073">
        <ele>12.2</ele>
        <time>2023-08-03T10:40:28Z</time>
      </trkpt>
      <trkpt lat="22.490899" lon="113.948088">
        <ele>12.2</ele>
        <time>2023-08-03T10:40:29Z</time>
      </trkpt>
      <trkpt lat="22.490886" lon="113.948104">
        <ele>12.2</ele>
        <time>2023-08-03T10:40:30Z</time>
      </trkpt>
      <trkpt lat="22.490869" lon="113.948119">
        <ele>12.2</ele>
        <time>2023-08-03T10:40:31Z</time>
      </trkpt>
      <trkpt lat="22.490852" lon="113.948127">
        <ele>12.2</ele>
        <time>2023-08-03T10:40:32Z</time>
      </trkpt>
      <trkpt lat="22.490838" lon="113.948135">
        <ele>12.2</ele>
        <time>2023-08-03T10:40:33Z</time>
      </trkpt>
      <trkpt lat="22.490823" lon="113.948156">
        <ele>12.2</ele>
        <time>2023-08-03T10:40:34Z</time>
      </trkpt>
      <trkpt lat="22.490807" lon="113.948165">
        <ele>12.2</ele>
        <time>2023-08-03T10:40:35Z</time>
      </trkpt>
      <trkpt lat="22.490794" lon="113.948188">
        <ele>12.2</ele>
        <time>2023-08-03T10:40:36Z</time>
      </trkpt>
      <trkpt lat="22.490782" lon="113.948204">
        <ele>12.2</ele>
        <time>2023-08-03T10:40:37Z</time>
      </trkpt>
      <trkpt lat="22.490773" lon="113.948219">
        <ele>12.2</ele>
        <time>2023-08-03T10:40:38Z</time>
      </trkpt>
      <trkpt lat="22.490763" lon="113.94824">
        <ele>12.2</ele>
        <time>2023-08-03T10:40:39Z</time>
      </trkpt>
      <trkpt lat="22.490754" lon="113.948263">
        <ele>12.2</ele>
        <time>2023-08-03T10:40:40Z</time>
      </trkpt>
      <trkpt lat="22.49075" lon="113.948285">
        <ele>12.2</ele>
        <time>2023-08-03T10:40:41Z</time>
      </trkpt>
      <trkpt lat="22.490755" lon="113.948309">
        <ele>12.2</ele>
        <time>2023-08-03T10:40:42Z</time>
      </trkpt>
      <trkpt lat="22.490767" lon="113.948325">
        <ele>12.2</ele>
        <time>2023-08-03T10:40:43Z</time>
      </trkpt>
      <trkpt lat="22.490786" lon="113.948347">
        <ele>12.2</ele>
        <time>2023-08-03T10:40:44Z</time>
      </trkpt>
      <trkpt lat="22.490807" lon="113.94837">
        <ele>12.2</ele>
        <time>2023-08-03T10:40:45Z</time>
      </trkpt>
      <trkpt lat="22.490827" lon="113.948392">
        <ele>12.2</ele>
        <time>2023-08-03T10:40:46Z</time>
      </trkpt>
      <trkpt lat="22.490851" lon="113.948409">
        <ele>12.2</ele>
        <time>2023-08-03T10:40:47Z</time>
      </trkpt>
      <trkpt lat="22.490875" lon="113.948437">
        <ele>12.2</ele>
        <time>2023-08-03T10:40:48Z</time>
      </trkpt>
      <trkpt lat="22.490891" lon="113.948468">
        <ele>12.2</ele>
        <time>2023-08-03T10:40:49Z</time>
      </trkpt>
      <trkpt lat="22.490908" lon="113.948492">
        <ele>12.2</ele>
        <time>2023-08-03T10:40:50Z</time>
      </trkpt>
      <trkpt lat="22.490922" lon="113.948521">
        <ele>12.2</ele>
        <time>2023-08-03T10:40:51Z</time>
      </trkpt>
      <trkpt lat="22.490937" lon="113.948545">
        <ele>12.2</ele>
        <time>2023-08-03T10:40:52Z</time>
      </trkpt>
      <trkpt lat="22.490953" lon="113.948568">
        <ele>12.2</ele>
        <time>2023-08-03T10:40:53Z</time>
      </trkpt>
      <trkpt lat="22.490967" lon="113.948605">
        <ele>12.2</ele>
        <time>2023-08-03T10:40:54Z</time>
      </trkpt>
      <trkpt lat="22.490975" lon="113.948629">
        <ele>12.2</ele>
        <time>2023-08-03T10:40:55Z</time>
      </trkpt>
      <trkpt lat="22.49099" lon="113.948652">
        <ele>12.2</ele>
        <time>2023-08-03T10:40:56Z</time>
      </trkpt>
      <trkpt lat="22.491012" lon="113.948668">
        <ele>12.2</ele>
        <time>2023-08-03T10:40:57Z</time>
      </trkpt>
      <trkpt lat="22.491032" lon="113.948683">
        <ele>12.2</ele>
        <time>2023-08-03T10:40:58Z</time>
      </trkpt>
      <trkpt lat="22.491052" lon="113.948699">
        <ele>12.2</ele>
        <time>2023-08-03T10:40:59Z</time>
      </trkpt>
      <trkpt lat="22.491068" lon="113.948714">
        <ele>12.2</ele>
        <time>2023-08-03T10:41:00Z</time>
      </trkpt>
      <trkpt lat="22.49108" lon="113.948736">
        <ele>12.2</ele>
        <time>2023-08-03T10:41:01Z</time>
      </trkpt>
    </trkseg>
  </trk>
</gpx>