<?xml version="1.0" encoding="UTF-8"?>
<gpx xmlns="http://www.topografix.com/GPX/1/1" xmlns:xsi="http://www.w3.org/2001/XMLSchema-instance" xsi:schemaLocation="http://www.topografix.com/GPX/1/1 http://www.topografix.com/GPX/1/1/gpx.xsd" version="1.1" creator="鹏">
  <metadata>
    <name>XC 🚴（XTC800） (Completed)</name>
    <desc>Distance: 3.123km, Estimated duration: 0.21h, Elevation up: 9.0m, Elevation down: 12.0m</desc>
    <author>
      <name>鹏</name>
      <link href="https://www.komoot.de/user/3342641231843">
        <text>View 鹏's Profile on Komoot</text>
      </link>
    </author>
    <link href="https://www.komoot.de/tour/1311310032">
      <text>View tour on Komoot</text>
    </link>
  </metadata>
  <trk>
    <name>XC 🚴（XTC800） (Completed)</name>
    <desc>Distance: 3.123km, Estimated duration: 0.21h, Elevation up: 9.0m, Elevation down: 12.0m</desc>
    <link href="https://www.komoot.de/tour/1311310032">
      <text>View tour on Komoot</text>
    </link>
    <trkseg>
      <trkpt lat="22.54398" lon="113.987587">
        <ele>33.8</ele>
        <time>2023-09-16T12:25:46Z</time>
      </trkpt>
      <trkpt lat="22.543982" lon="113.98756">
        <ele>33.8</ele>
        <time>2023-09-16T12:25:53Z</time>
      </trkpt>
      <trkpt lat="22.543988" lon="113.987527">
        <ele>33.8</ele>
        <time>2023-09-16T12:25:54Z</time>
      </trkpt>
      <trkpt lat="22.543995" lon="113.987484">
        <ele>33.8</ele>
        <time>2023-09-16T12:25:55Z</time>
      </trkpt>
      <trkpt lat="22.544006" lon="113.987439">
        <ele>33.8</ele>
        <time>2023-09-16T12:25:56Z</time>
      </trkpt>
      <trkpt lat="22.544019" lon="113.98739">
        <ele>33.8</ele>
        <time>2023-09-16T12:25:57Z</time>
      </trkpt>
      <trkpt lat="22.544033" lon="113.987341">
        <ele>33.8</ele>
        <time>2023-09-16T12:25:58Z</time>
      </trkpt>
      <trkpt lat="22.54405" lon="113.987296">
        <ele>33.8</ele>
        <time>2023-09-16T12:25:59Z</time>
      </trkpt>
      <trkpt lat="22.544071" lon="113.987247">
        <ele>33.8</ele>
        <time>2023-09-16T12:26:00Z</time>
      </trkpt>
      <trkpt lat="22.544096" lon="113.987197">
        <ele>33.8</ele>
        <time>2023-09-16T12:26:01Z</time>
      </trkpt>
      <trkpt lat="22.544119" lon="113.987151">
        <ele>33.8</ele>
        <time>2023-09-16T12:26:02Z</time>
      </trkpt>
      <trkpt lat="22.544145" lon="113.987099">
        <ele>33.8</ele>
        <time>2023-09-16T12:26:03Z</time>
      </trkpt>
      <trkpt lat="22.544174" lon="113.98705">
        <ele>33.8</ele>
        <time>2023-09-16T12:26:04Z</time>
      </trkpt>
      <trkpt lat="22.544201" lon="113.987002">
        <ele>33.8</ele>
        <time>2023-09-16T12:26:05Z</time>
      </trkpt>
      <trkpt lat="22.544231" lon="113.986953">
        <ele>33.8</ele>
        <time>2023-09-16T12:26:06Z</time>
      </trkpt>
      <trkpt lat="22.544264" lon="113.986902">
        <ele>33.8</ele>
        <time>2023-09-16T12:26:07Z</time>
      </trkpt>
      <trkpt lat="22.544296" lon="113.986849">
        <ele>33.8</ele>
        <time>2023-09-16T12:26:08Z</time>
      </trkpt>
      <trkpt lat="22.54433" lon="113.986799">
        <ele>33.8</ele>
        <time>2023-09-16T12:26:09Z</time>
      </trkpt>
      <trkpt lat="22.544365" lon="113.986748">
        <ele>33.8</ele>
        <time>2023-09-16T12:26:10Z</time>
      </trkpt>
      <trkpt lat="22.544395" lon="113.9867">
        <ele>33.8</ele>
        <time>2023-09-16T12:26:11Z</time>
      </trkpt>
      <trkpt lat="22.544424" lon="113.986654">
        <ele>33.8</ele>
        <time>2023-09-16T12:26:12Z</time>
      </trkpt>
      <trkpt lat="22.544455" lon="113.986608">
        <ele>33.8</ele>
        <time>2023-09-16T12:26:13Z</time>
      </trkpt>
      <trkpt lat="22.544488" lon="113.986559">
        <ele>33.8</ele>
        <time>2023-09-16T12:26:14Z</time>
      </trkpt>
      <trkpt lat="22.544523" lon="113.986511">
        <ele>33.8</ele>
        <time>2023-09-16T12:26:15Z</time>
      </trkpt>
      <trkpt lat="22.544561" lon="113.986464">
        <ele>33.8</ele>
        <time>2023-09-16T12:26:16Z</time>
      </trkpt>
      <trkpt lat="22.544597" lon="113.986417">
        <ele>33.8</ele>
        <time>2023-09-16T12:26:17Z</time>
      </trkpt>
      <trkpt lat="22.544633" lon="113.986367">
        <ele>33.8</ele>
        <time>2023-09-16T12:26:18Z</time>
      </trkpt>
      <trkpt lat="22.544669" lon="113.986318">
        <ele>33.8</ele>
        <time>2023-09-16T12:26:19Z</time>
      </trkpt>
      <trkpt lat="22.544711" lon="113.986271">
        <ele>33.8</ele>
        <time>2023-09-16T12:26:20Z</time>
      </trkpt>
      <trkpt lat="22.544755" lon="113.986229">
        <ele>33.8</ele>
        <time>2023-09-16T12:26:21Z</time>
      </trkpt>
      <trkpt lat="22.544798" lon="113.986182">
        <ele>33.8</ele>
        <time>2023-09-16T12:26:22Z</time>
      </trkpt>
      <trkpt lat="22.544841" lon="113.986128">
        <ele>33.8</ele>
        <time>2023-09-16T12:26:23Z</time>
      </trkpt>
      <trkpt lat="22.544885" lon="113.98608">
        <ele>33.8</ele>
        <time>2023-09-16T12:26:24Z</time>
      </trkpt>
      <trkpt lat="22.544923" lon="113.986031">
        <ele>33.8</ele>
        <time>2023-09-16T12:26:25Z</time>
      </trkpt>
      <trkpt lat="22.544961" lon="113.985982">
        <ele>33.8</ele>
        <time>2023-09-16T12:26:26Z</time>
      </trkpt>
      <trkpt lat="22.545007" lon="113.985935">
        <ele>33.8</ele>
        <time>2023-09-16T12:26:27Z</time>
      </trkpt>
      <trkpt lat="22.545053" lon="113.985889">
        <ele>33.8</ele>
        <time>2023-09-16T12:26:28Z</time>
      </trkpt>
      <trkpt lat="22.545098" lon="113.985843">
        <ele>33.8</ele>
        <time>2023-09-16T12:26:29Z</time>
      </trkpt>
      <trkpt lat="22.545144" lon="113.985792">
        <ele>33.8</ele>
        <time>2023-09-16T12:26:30Z</time>
      </trkpt>
      <trkpt lat="22.545191" lon="113.985739">
        <ele>33.8</ele>
        <time>2023-09-16T12:26:31Z</time>
      </trkpt>
      <trkpt lat="22.545239" lon="113.98569">
        <ele>33.8</ele>
        <time>2023-09-16T12:26:32Z</time>
      </trkpt>
      <trkpt lat="22.54528" lon="113.98565">
        <ele>33.8</ele>
        <time>2023-09-16T12:26:33Z</time>
      </trkpt>
      <trkpt lat="22.545321" lon="113.985607">
        <ele>33.8</ele>
        <time>2023-09-16T12:26:34Z</time>
      </trkpt>
      <trkpt lat="22.545366" lon="113.985561">
        <ele>33.8</ele>
        <time>2023-09-16T12:26:35Z</time>
      </trkpt>
      <trkpt lat="22.545404" lon="113.985514">
        <ele>33.8</ele>
        <time>2023-09-16T12:26:36Z</time>
      </trkpt>
      <trkpt lat="22.545441" lon="113.985467">
        <ele>33.8</ele>
        <time>2023-09-16T12:26:37Z</time>
      </trkpt>
      <trkpt lat="22.545478" lon="113.985419">
        <ele>33.8</ele>
        <time>2023-09-16T12:26:38Z</time>
      </trkpt>
      <trkpt lat="22.545517" lon="113.985368">
        <ele>33.8</ele>
        <time>2023-09-16T12:26:39Z</time>
      </trkpt>
      <trkpt lat="22.545553" lon="113.98532">
        <ele>33.8</ele>
        <time>2023-09-16T12:26:40Z</time>
      </trkpt>
      <trkpt lat="22.545588" lon="113.985278">
        <ele>33.8</ele>
        <time>2023-09-16T12:26:41Z</time>
      </trkpt>
      <trkpt lat="22.545627" lon="113.985239">
        <ele>33.8</ele>
        <time>2023-09-16T12:26:42Z</time>
      </trkpt>
      <trkpt lat="22.545661" lon="113.9852">
        <ele>33.9</ele>
        <time>2023-09-16T12:26:43Z</time>
      </trkpt>
      <trkpt lat="22.545689" lon="113.985165">
        <ele>33.9</ele>
        <time>2023-09-16T12:26:44Z</time>
      </trkpt>
      <trkpt lat="22.545714" lon="113.985135">
        <ele>33.9</ele>
        <time>2023-09-16T12:26:45Z</time>
      </trkpt>
      <trkpt lat="22.545739" lon="113.985109">
        <ele>33.9</ele>
        <time>2023-09-16T12:26:46Z</time>
      </trkpt>
      <trkpt lat="22.545762" lon="113.985082">
        <ele>33.9</ele>
        <time>2023-09-16T12:26:47Z</time>
      </trkpt>
      <trkpt lat="22.545787" lon="113.985047">
        <ele>34</ele>
        <time>2023-09-16T12:26:48Z</time>
      </trkpt>
      <trkpt lat="22.545817" lon="113.985009">
        <ele>34</ele>
        <time>2023-09-16T12:26:49Z</time>
      </trkpt>
      <trkpt lat="22.545849" lon="113.98497">
        <ele>34</ele>
        <time>2023-09-16T12:26:50Z</time>
      </trkpt>
      <trkpt lat="22.545883" lon="113.984932">
        <ele>34</ele>
        <time>2023-09-16T12:26:51Z</time>
      </trkpt>
      <trkpt lat="22.545919" lon="113.984894">
        <ele>34.1</ele>
        <time>2023-09-16T12:26:52Z</time>
      </trkpt>
      <trkpt lat="22.545952" lon="113.984856">
        <ele>34.1</ele>
        <time>2023-09-16T12:26:53Z</time>
      </trkpt>
      <trkpt lat="22.545981" lon="113.984818">
        <ele>34.1</ele>
        <time>2023-09-16T12:26:54Z</time>
      </trkpt>
      <trkpt lat="22.546014" lon="113.98478">
        <ele>34.1</ele>
        <time>2023-09-16T12:26:55Z</time>
      </trkpt>
      <trkpt lat="22.546047" lon="113.984737">
        <ele>34.1</ele>
        <time>2023-09-16T12:26:56Z</time>
      </trkpt>
      <trkpt lat="22.546079" lon="113.984692">
        <ele>34.2</ele>
        <time>2023-09-16T12:26:57Z</time>
      </trkpt>
      <trkpt lat="22.546116" lon="113.984646">
        <ele>34.2</ele>
        <time>2023-09-16T12:26:58Z</time>
      </trkpt>
      <trkpt lat="22.546154" lon="113.984604">
        <ele>34.2</ele>
        <time>2023-09-16T12:26:59Z</time>
      </trkpt>
      <trkpt lat="22.546187" lon="113.984561">
        <ele>34.3</ele>
        <time>2023-09-16T12:27:00Z</time>
      </trkpt>
      <trkpt lat="22.546213" lon="113.984519">
        <ele>34.3</ele>
        <time>2023-09-16T12:27:01Z</time>
      </trkpt>
      <trkpt lat="22.546237" lon="113.984491">
        <ele>34.3</ele>
        <time>2023-09-16T12:27:02Z</time>
      </trkpt>
      <trkpt lat="22.546259" lon="113.984468">
        <ele>34.3</ele>
        <time>2023-09-16T12:27:03Z</time>
      </trkpt>
      <trkpt lat="22.546284" lon="113.984445">
        <ele>34.3</ele>
        <time>2023-09-16T12:27:04Z</time>
      </trkpt>
      <trkpt lat="22.546313" lon="113.984414">
        <ele>34.3</ele>
        <time>2023-09-16T12:27:05Z</time>
      </trkpt>
      <trkpt lat="22.546347" lon="113.984375">
        <ele>34.4</ele>
        <time>2023-09-16T12:27:06Z</time>
      </trkpt>
      <trkpt lat="22.546384" lon="113.984333">
        <ele>34.4</ele>
        <time>2023-09-16T12:27:07Z</time>
      </trkpt>
      <trkpt lat="22.546418" lon="113.984291">
        <ele>34.4</ele>
        <time>2023-09-16T12:27:08Z</time>
      </trkpt>
      <trkpt lat="22.546451" lon="113.984244">
        <ele>34.4</ele>
        <time>2023-09-16T12:27:09Z</time>
      </trkpt>
      <trkpt lat="22.546488" lon="113.984195">
        <ele>34.5</ele>
        <time>2023-09-16T12:27:10Z</time>
      </trkpt>
      <trkpt lat="22.546518" lon="113.984154">
        <ele>34.5</ele>
        <time>2023-09-16T12:27:11Z</time>
      </trkpt>
      <trkpt lat="22.546549" lon="113.984108">
        <ele>34.5</ele>
        <time>2023-09-16T12:27:12Z</time>
      </trkpt>
      <trkpt lat="22.546585" lon="113.984062">
        <ele>34.6</ele>
        <time>2023-09-16T12:27:13Z</time>
      </trkpt>
      <trkpt lat="22.546619" lon="113.984019">
        <ele>34.6</ele>
        <time>2023-09-16T12:27:14Z</time>
      </trkpt>
      <trkpt lat="22.546653" lon="113.983983">
        <ele>34.6</ele>
        <time>2023-09-16T12:27:15Z</time>
      </trkpt>
      <trkpt lat="22.546684" lon="113.983949">
        <ele>34.6</ele>
        <time>2023-09-16T12:27:16Z</time>
      </trkpt>
      <trkpt lat="22.546718" lon="113.983911">
        <ele>34.6</ele>
        <time>2023-09-16T12:27:17Z</time>
      </trkpt>
      <trkpt lat="22.546754" lon="113.983872">
        <ele>34.7</ele>
        <time>2023-09-16T12:27:18Z</time>
      </trkpt>
      <trkpt lat="22.546785" lon="113.983829">
        <ele>34.7</ele>
        <time>2023-09-16T12:27:19Z</time>
      </trkpt>
      <trkpt lat="22.54682" lon="113.983788">
        <ele>34.8</ele>
        <time>2023-09-16T12:27:20Z</time>
      </trkpt>
      <trkpt lat="22.54686" lon="113.983741">
        <ele>34.8</ele>
        <time>2023-09-16T12:27:21Z</time>
      </trkpt>
      <trkpt lat="22.546902" lon="113.983692">
        <ele>34.9</ele>
        <time>2023-09-16T12:27:22Z</time>
      </trkpt>
      <trkpt lat="22.546944" lon="113.983647">
        <ele>35</ele>
        <time>2023-09-16T12:27:23Z</time>
      </trkpt>
      <trkpt lat="22.546981" lon="113.983601">
        <ele>35.1</ele>
        <time>2023-09-16T12:27:24Z</time>
      </trkpt>
      <trkpt lat="22.547016" lon="113.983554">
        <ele>35.1</ele>
        <time>2023-09-16T12:27:25Z</time>
      </trkpt>
      <trkpt lat="22.547056" lon="113.983504">
        <ele>35.2</ele>
        <time>2023-09-16T12:27:26Z</time>
      </trkpt>
      <trkpt lat="22.547101" lon="113.983455">
        <ele>35.3</ele>
        <time>2023-09-16T12:27:27Z</time>
      </trkpt>
      <trkpt lat="22.547149" lon="113.983409">
        <ele>35.4</ele>
        <time>2023-09-16T12:27:28Z</time>
      </trkpt>
      <trkpt lat="22.547198" lon="113.983363">
        <ele>35.5</ele>
        <time>2023-09-16T12:27:29Z</time>
      </trkpt>
      <trkpt lat="22.547242" lon="113.983318">
        <ele>35.5</ele>
        <time>2023-09-16T12:27:30Z</time>
      </trkpt>
      <trkpt lat="22.547285" lon="113.983277">
        <ele>35.6</ele>
        <time>2023-09-16T12:27:31Z</time>
      </trkpt>
      <trkpt lat="22.54733" lon="113.983234">
        <ele>35.7</ele>
        <time>2023-09-16T12:27:32Z</time>
      </trkpt>
      <trkpt lat="22.547378" lon="113.983188">
        <ele>35.8</ele>
        <time>2023-09-16T12:27:33Z</time>
      </trkpt>
      <trkpt lat="22.547423" lon="113.983132">
        <ele>35.9</ele>
        <time>2023-09-16T12:27:34Z</time>
      </trkpt>
      <trkpt lat="22.547464" lon="113.983081">
        <ele>35.9</ele>
        <time>2023-09-16T12:27:35Z</time>
      </trkpt>
      <trkpt lat="22.547499" lon="113.983031">
        <ele>36</ele>
        <time>2023-09-16T12:27:36Z</time>
      </trkpt>
      <trkpt lat="22.547538" lon="113.982978">
        <ele>36.1</ele>
        <time>2023-09-16T12:27:37Z</time>
      </trkpt>
      <trkpt lat="22.54758" lon="113.982924">
        <ele>36.2</ele>
        <time>2023-09-16T12:27:38Z</time>
      </trkpt>
      <trkpt lat="22.547619" lon="113.98287">
        <ele>36.3</ele>
        <time>2023-09-16T12:27:39Z</time>
      </trkpt>
      <trkpt lat="22.547649" lon="113.982821">
        <ele>36.3</ele>
        <time>2023-09-16T12:27:40Z</time>
      </trkpt>
      <trkpt lat="22.547684" lon="113.982767">
        <ele>36.4</ele>
        <time>2023-09-16T12:27:41Z</time>
      </trkpt>
      <trkpt lat="22.547725" lon="113.982711">
        <ele>36.5</ele>
        <time>2023-09-16T12:27:42Z</time>
      </trkpt>
      <trkpt lat="22.547765" lon="113.982662">
        <ele>36.6</ele>
        <time>2023-09-16T12:27:43Z</time>
      </trkpt>
      <trkpt lat="22.547807" lon="113.982616">
        <ele>36.7</ele>
        <time>2023-09-16T12:27:44Z</time>
      </trkpt>
      <trkpt lat="22.547847" lon="113.982575">
        <ele>36.7</ele>
        <time>2023-09-16T12:27:45Z</time>
      </trkpt>
      <trkpt lat="22.547886" lon="113.982532">
        <ele>36.8</ele>
        <time>2023-09-16T12:27:46Z</time>
      </trkpt>
      <trkpt lat="22.547921" lon="113.982491">
        <ele>36.9</ele>
        <time>2023-09-16T12:27:47Z</time>
      </trkpt>
      <trkpt lat="22.547956" lon="113.982453">
        <ele>36.9</ele>
        <time>2023-09-16T12:27:48Z</time>
      </trkpt>
      <trkpt lat="22.547984" lon="113.982419">
        <ele>37</ele>
        <time>2023-09-16T12:27:49Z</time>
      </trkpt>
      <trkpt lat="22.548016" lon="113.98238">
        <ele>37</ele>
        <time>2023-09-16T12:27:50Z</time>
      </trkpt>
      <trkpt lat="22.548051" lon="113.982343">
        <ele>37.1</ele>
        <time>2023-09-16T12:27:51Z</time>
      </trkpt>
      <trkpt lat="22.548086" lon="113.982308">
        <ele>37.2</ele>
        <time>2023-09-16T12:27:52Z</time>
      </trkpt>
      <trkpt lat="22.548119" lon="113.982269">
        <ele>37.3</ele>
        <time>2023-09-16T12:27:53Z</time>
      </trkpt>
      <trkpt lat="22.548137" lon="113.982235">
        <ele>37.3</ele>
        <time>2023-09-16T12:27:54Z</time>
      </trkpt>
      <trkpt lat="22.548141" lon="113.982219">
        <ele>37.3</ele>
        <time>2023-09-16T12:27:55Z</time>
      </trkpt>
      <trkpt lat="22.548145" lon="113.982211">
        <ele>37.3</ele>
        <time>2023-09-16T12:27:56Z</time>
      </trkpt>
      <trkpt lat="22.54815" lon="113.982204">
        <ele>37.3</ele>
        <time>2023-09-16T12:27:57Z</time>
      </trkpt>
      <trkpt lat="22.548159" lon="113.982196">
        <ele>37.4</ele>
        <time>2023-09-16T12:27:58Z</time>
      </trkpt>
      <trkpt lat="22.548179" lon="113.982184">
        <ele>37.4</ele>
        <time>2023-09-16T12:27:59Z</time>
      </trkpt>
      <trkpt lat="22.548202" lon="113.982169">
        <ele>37.4</ele>
        <time>2023-09-16T12:28:00Z</time>
      </trkpt>
      <trkpt lat="22.548222" lon="113.982153">
        <ele>37.5</ele>
        <time>2023-09-16T12:28:01Z</time>
      </trkpt>
      <trkpt lat="22.548241" lon="113.982129">
        <ele>37.5</ele>
        <time>2023-09-16T12:28:02Z</time>
      </trkpt>
      <trkpt lat="22.548261" lon="113.982099">
        <ele>37.6</ele>
        <time>2023-09-16T12:28:03Z</time>
      </trkpt>
      <trkpt lat="22.548279" lon="113.982068">
        <ele>37.6</ele>
        <time>2023-09-16T12:28:04Z</time>
      </trkpt>
      <trkpt lat="22.548292" lon="113.982051">
        <ele>37.6</ele>
        <time>2023-09-16T12:28:05Z</time>
      </trkpt>
      <trkpt lat="22.548298" lon="113.982048">
        <ele>37.7</ele>
        <time>2023-09-16T12:28:06Z</time>
      </trkpt>
      <trkpt lat="22.548311" lon="113.982039">
        <ele>37.7</ele>
        <time>2023-09-16T12:28:07Z</time>
      </trkpt>
      <trkpt lat="22.548328" lon="113.982019">
        <ele>37.7</ele>
        <time>2023-09-16T12:28:08Z</time>
      </trkpt>
      <trkpt lat="22.54835" lon="113.981991">
        <ele>37.8</ele>
        <time>2023-09-16T12:28:09Z</time>
      </trkpt>
      <trkpt lat="22.548375" lon="113.981961">
        <ele>37.8</ele>
        <time>2023-09-16T12:28:10Z</time>
      </trkpt>
      <trkpt lat="22.548397" lon="113.981925">
        <ele>37.9</ele>
        <time>2023-09-16T12:28:11Z</time>
      </trkpt>
      <trkpt lat="22.548419" lon="113.981892">
        <ele>37.9</ele>
        <time>2023-09-16T12:28:12Z</time>
      </trkpt>
      <trkpt lat="22.548437" lon="113.981861">
        <ele>38</ele>
        <time>2023-09-16T12:28:13Z</time>
      </trkpt>
      <trkpt lat="22.548455" lon="113.981826">
        <ele>38</ele>
        <time>2023-09-16T12:28:14Z</time>
      </trkpt>
      <trkpt lat="22.548476" lon="113.981793">
        <ele>38.1</ele>
        <time>2023-09-16T12:28:15Z</time>
      </trkpt>
      <trkpt lat="22.548503" lon="113.981763">
        <ele>38.1</ele>
        <time>2023-09-16T12:28:16Z</time>
      </trkpt>
      <trkpt lat="22.548535" lon="113.981728">
        <ele>38.2</ele>
        <time>2023-09-16T12:28:17Z</time>
      </trkpt>
      <trkpt lat="22.54857" lon="113.981685">
        <ele>38.3</ele>
        <time>2023-09-16T12:28:18Z</time>
      </trkpt>
      <trkpt lat="22.548604" lon="113.981644">
        <ele>38.3</ele>
        <time>2023-09-16T12:28:19Z</time>
      </trkpt>
      <trkpt lat="22.548634" lon="113.981601">
        <ele>38.4</ele>
        <time>2023-09-16T12:28:20Z</time>
      </trkpt>
      <trkpt lat="22.548667" lon="113.981556">
        <ele>38.5</ele>
        <time>2023-09-16T12:28:21Z</time>
      </trkpt>
      <trkpt lat="22.548702" lon="113.981515">
        <ele>38.6</ele>
        <time>2023-09-16T12:28:22Z</time>
      </trkpt>
      <trkpt lat="22.548736" lon="113.981471">
        <ele>38.6</ele>
        <time>2023-09-16T12:28:23Z</time>
      </trkpt>
      <trkpt lat="22.548765" lon="113.981425">
        <ele>38.7</ele>
        <time>2023-09-16T12:28:24Z</time>
      </trkpt>
      <trkpt lat="22.548797" lon="113.98138">
        <ele>38.8</ele>
        <time>2023-09-16T12:28:25Z</time>
      </trkpt>
      <trkpt lat="22.548829" lon="113.981339">
        <ele>38.9</ele>
        <time>2023-09-16T12:28:26Z</time>
      </trkpt>
      <trkpt lat="22.548855" lon="113.981305">
        <ele>38.9</ele>
        <time>2023-09-16T12:28:27Z</time>
      </trkpt>
      <trkpt lat="22.548878" lon="113.98127">
        <ele>39</ele>
        <time>2023-09-16T12:28:28Z</time>
      </trkpt>
      <trkpt lat="22.548902" lon="113.981232">
        <ele>39</ele>
        <time>2023-09-16T12:28:29Z</time>
      </trkpt>
      <trkpt lat="22.548928" lon="113.981189">
        <ele>39.1</ele>
        <time>2023-09-16T12:28:30Z</time>
      </trkpt>
      <trkpt lat="22.548953" lon="113.981148">
        <ele>39.2</ele>
        <time>2023-09-16T12:28:31Z</time>
      </trkpt>
      <trkpt lat="22.548982" lon="113.981105">
        <ele>39.2</ele>
        <time>2023-09-16T12:28:32Z</time>
      </trkpt>
      <trkpt lat="22.54901" lon="113.981064">
        <ele>39.3</ele>
        <time>2023-09-16T12:28:33Z</time>
      </trkpt>
      <trkpt lat="22.549033" lon="113.981026">
        <ele>39.4</ele>
        <time>2023-09-16T12:28:34Z</time>
      </trkpt>
      <trkpt lat="22.549053" lon="113.980988">
        <ele>39.4</ele>
        <time>2023-09-16T12:28:35Z</time>
      </trkpt>
      <trkpt lat="22.549079" lon="113.980945">
        <ele>39.5</ele>
        <time>2023-09-16T12:28:36Z</time>
      </trkpt>
      <trkpt lat="22.549108" lon="113.980899">
        <ele>39.6</ele>
        <time>2023-09-16T12:28:37Z</time>
      </trkpt>
      <trkpt lat="22.549141" lon="113.980847">
        <ele>39.6</ele>
        <time>2023-09-16T12:28:38Z</time>
      </trkpt>
      <trkpt lat="22.549175" lon="113.980794">
        <ele>39.6</ele>
        <time>2023-09-16T12:28:39Z</time>
      </trkpt>
      <trkpt lat="22.549206" lon="113.980751">
        <ele>39.7</ele>
        <time>2023-09-16T12:28:40Z</time>
      </trkpt>
      <trkpt lat="22.54923" lon="113.980709">
        <ele>39.7</ele>
        <time>2023-09-16T12:28:41Z</time>
      </trkpt>
      <trkpt lat="22.549253" lon="113.980659">
        <ele>39.7</ele>
        <time>2023-09-16T12:28:42Z</time>
      </trkpt>
      <trkpt lat="22.549277" lon="113.98061">
        <ele>39.8</ele>
        <time>2023-09-16T12:28:43Z</time>
      </trkpt>
      <trkpt lat="22.549303" lon="113.980568">
        <ele>39.8</ele>
        <time>2023-09-16T12:28:44Z</time>
      </trkpt>
      <trkpt lat="22.549331" lon="113.980526">
        <ele>39.8</ele>
        <time>2023-09-16T12:28:45Z</time>
      </trkpt>
      <trkpt lat="22.549357" lon="113.980484">
        <ele>39.9</ele>
        <time>2023-09-16T12:28:46Z</time>
      </trkpt>
      <trkpt lat="22.549382" lon="113.980437">
        <ele>39.9</ele>
        <time>2023-09-16T12:28:47Z</time>
      </trkpt>
      <trkpt lat="22.549415" lon="113.980392">
        <ele>39.9</ele>
        <time>2023-09-16T12:28:48Z</time>
      </trkpt>
      <trkpt lat="22.549452" lon="113.980345">
        <ele>40</ele>
        <time>2023-09-16T12:28:49Z</time>
      </trkpt>
      <trkpt lat="22.549488" lon="113.980291">
        <ele>40</ele>
        <time>2023-09-16T12:28:50Z</time>
      </trkpt>
      <trkpt lat="22.549521" lon="113.980242">
        <ele>40</ele>
        <time>2023-09-16T12:28:51Z</time>
      </trkpt>
      <trkpt lat="22.549552" lon="113.980197">
        <ele>40.1</ele>
        <time>2023-09-16T12:28:52Z</time>
      </trkpt>
      <trkpt lat="22.549582" lon="113.980156">
        <ele>40.1</ele>
        <time>2023-09-16T12:28:53Z</time>
      </trkpt>
      <trkpt lat="22.549614" lon="113.980113">
        <ele>40.1</ele>
        <time>2023-09-16T12:28:54Z</time>
      </trkpt>
      <trkpt lat="22.549643" lon="113.980072">
        <ele>40.2</ele>
        <time>2023-09-16T12:28:55Z</time>
      </trkpt>
      <trkpt lat="22.549668" lon="113.98003">
        <ele>40.2</ele>
        <time>2023-09-16T12:28:56Z</time>
      </trkpt>
      <trkpt lat="22.549695" lon="113.979984">
        <ele>40.2</ele>
        <time>2023-09-16T12:28:57Z</time>
      </trkpt>
      <trkpt lat="22.549726" lon="113.979933">
        <ele>40.3</ele>
        <time>2023-09-16T12:28:58Z</time>
      </trkpt>
      <trkpt lat="22.54975" lon="113.979889">
        <ele>40.3</ele>
        <time>2023-09-16T12:28:59Z</time>
      </trkpt>
      <trkpt lat="22.549767" lon="113.979846">
        <ele>40.3</ele>
        <time>2023-09-16T12:29:00Z</time>
      </trkpt>
      <trkpt lat="22.549777" lon="113.979795">
        <ele>40.4</ele>
        <time>2023-09-16T12:29:01Z</time>
      </trkpt>
      <trkpt lat="22.549793" lon="113.979738">
        <ele>40.4</ele>
        <time>2023-09-16T12:29:02Z</time>
      </trkpt>
      <trkpt lat="22.54981" lon="113.979682">
        <ele>40.4</ele>
        <time>2023-09-16T12:29:03Z</time>
      </trkpt>
      <trkpt lat="22.549829" lon="113.979633">
        <ele>40.5</ele>
        <time>2023-09-16T12:29:04Z</time>
      </trkpt>
      <trkpt lat="22.549849" lon="113.979587">
        <ele>40.5</ele>
        <time>2023-09-16T12:29:05Z</time>
      </trkpt>
      <trkpt lat="22.549872" lon="113.979541">
        <ele>40.5</ele>
        <time>2023-09-16T12:29:06Z</time>
      </trkpt>
      <trkpt lat="22.549893" lon="113.979504">
        <ele>40.6</ele>
        <time>2023-09-16T12:29:07Z</time>
      </trkpt>
      <trkpt lat="22.549911" lon="113.97947">
        <ele>40.6</ele>
        <time>2023-09-16T12:29:08Z</time>
      </trkpt>
      <trkpt lat="22.54993" lon="113.979431">
        <ele>40.6</ele>
        <time>2023-09-16T12:29:09Z</time>
      </trkpt>
      <trkpt lat="22.549943" lon="113.979397">
        <ele>40.6</ele>
        <time>2023-09-16T12:29:10Z</time>
      </trkpt>
      <trkpt lat="22.549955" lon="113.979371">
        <ele>40.6</ele>
        <time>2023-09-16T12:29:11Z</time>
      </trkpt>
      <trkpt lat="22.549971" lon="113.979339">
        <ele>40.7</ele>
        <time>2023-09-16T12:29:12Z</time>
      </trkpt>
      <trkpt lat="22.549998" lon="113.979291">
        <ele>40.7</ele>
        <time>2023-09-16T12:29:13Z</time>
      </trkpt>
      <trkpt lat="22.550031" lon="113.979238">
        <ele>40.7</ele>
        <time>2023-09-16T12:29:14Z</time>
      </trkpt>
      <trkpt lat="22.550064" lon="113.979195">
        <ele>40.8</ele>
        <time>2023-09-16T12:29:15Z</time>
      </trkpt>
      <trkpt lat="22.55009" lon="113.979151">
        <ele>40.8</ele>
        <time>2023-09-16T12:29:16Z</time>
      </trkpt>
      <trkpt lat="22.55011" lon="113.97911">
        <ele>40.8</ele>
        <time>2023-09-16T12:29:17Z</time>
      </trkpt>
      <trkpt lat="22.550128" lon="113.979068">
        <ele>40.9</ele>
        <time>2023-09-16T12:29:18Z</time>
      </trkpt>
      <trkpt lat="22.550148" lon="113.979018">
        <ele>40.9</ele>
        <time>2023-09-16T12:29:19Z</time>
      </trkpt>
      <trkpt lat="22.550168" lon="113.978969">
        <ele>40.9</ele>
        <time>2023-09-16T12:29:20Z</time>
      </trkpt>
      <trkpt lat="22.550188" lon="113.978923">
        <ele>41</ele>
        <time>2023-09-16T12:29:21Z</time>
      </trkpt>
      <trkpt lat="22.550213" lon="113.978868">
        <ele>41</ele>
        <time>2023-09-16T12:29:22Z</time>
      </trkpt>
      <trkpt lat="22.550241" lon="113.978806">
        <ele>41</ele>
        <time>2023-09-16T12:29:23Z</time>
      </trkpt>
      <trkpt lat="22.550267" lon="113.97875">
        <ele>41.1</ele>
        <time>2023-09-16T12:29:24Z</time>
      </trkpt>
      <trkpt lat="22.55029" lon="113.978698">
        <ele>41.1</ele>
        <time>2023-09-16T12:29:25Z</time>
      </trkpt>
      <trkpt lat="22.550312" lon="113.978649">
        <ele>41.1</ele>
        <time>2023-09-16T12:29:26Z</time>
      </trkpt>
      <trkpt lat="22.550341" lon="113.978594">
        <ele>41.2</ele>
        <time>2023-09-16T12:29:27Z</time>
      </trkpt>
      <trkpt lat="22.550368" lon="113.978542">
        <ele>41.2</ele>
        <time>2023-09-16T12:29:28Z</time>
      </trkpt>
      <trkpt lat="22.550388" lon="113.978496">
        <ele>41.2</ele>
        <time>2023-09-16T12:29:29Z</time>
      </trkpt>
      <trkpt lat="22.550406" lon="113.978459">
        <ele>41.3</ele>
        <time>2023-09-16T12:29:30Z</time>
      </trkpt>
      <trkpt lat="22.550426" lon="113.978424">
        <ele>41.3</ele>
        <time>2023-09-16T12:29:31Z</time>
      </trkpt>
      <trkpt lat="22.550447" lon="113.978387">
        <ele>41.3</ele>
        <time>2023-09-16T12:29:32Z</time>
      </trkpt>
      <trkpt lat="22.55048" lon="113.978326">
        <ele>41.4</ele>
        <time>2023-09-16T12:29:33Z</time>
      </trkpt>
      <trkpt lat="22.550523" lon="113.978254">
        <ele>41.4</ele>
        <time>2023-09-16T12:29:34Z</time>
      </trkpt>
      <trkpt lat="22.550559" lon="113.978194">
        <ele>41.5</ele>
        <time>2023-09-16T12:29:35Z</time>
      </trkpt>
      <trkpt lat="22.550586" lon="113.978141">
        <ele>41.5</ele>
        <time>2023-09-16T12:29:36Z</time>
      </trkpt>
      <trkpt lat="22.550609" lon="113.978092">
        <ele>41.5</ele>
        <time>2023-09-16T12:29:37Z</time>
      </trkpt>
      <trkpt lat="22.550633" lon="113.978046">
        <ele>41.6</ele>
        <time>2023-09-16T12:29:38Z</time>
      </trkpt>
      <trkpt lat="22.550659" lon="113.977995">
        <ele>41.6</ele>
        <time>2023-09-16T12:29:39Z</time>
      </trkpt>
      <trkpt lat="22.550682" lon="113.977946">
        <ele>41.6</ele>
        <time>2023-09-16T12:29:40Z</time>
      </trkpt>
      <trkpt lat="22.550713" lon="113.977895">
        <ele>41.7</ele>
        <time>2023-09-16T12:29:41Z</time>
      </trkpt>
      <trkpt lat="22.55075" lon="113.977842">
        <ele>41.7</ele>
        <time>2023-09-16T12:29:42Z</time>
      </trkpt>
      <trkpt lat="22.550782" lon="113.977793">
        <ele>41.7</ele>
        <time>2023-09-16T12:29:43Z</time>
      </trkpt>
      <trkpt lat="22.550812" lon="113.977757">
        <ele>41.8</ele>
        <time>2023-09-16T12:29:44Z</time>
      </trkpt>
      <trkpt lat="22.550843" lon="113.977722">
        <ele>41.8</ele>
        <time>2023-09-16T12:29:45Z</time>
      </trkpt>
      <trkpt lat="22.550866" lon="113.977684">
        <ele>41.8</ele>
        <time>2023-09-16T12:29:46Z</time>
      </trkpt>
      <trkpt lat="22.550877" lon="113.977645">
        <ele>41.8</ele>
        <time>2023-09-16T12:29:47Z</time>
      </trkpt>
      <trkpt lat="22.550886" lon="113.977608">
        <ele>41.9</ele>
        <time>2023-09-16T12:29:48Z</time>
      </trkpt>
      <trkpt lat="22.550901" lon="113.977574">
        <ele>41.9</ele>
        <time>2023-09-16T12:29:49Z</time>
      </trkpt>
      <trkpt lat="22.550918" lon="113.977544">
        <ele>41.9</ele>
        <time>2023-09-16T12:29:50Z</time>
      </trkpt>
      <trkpt lat="22.550937" lon="113.977513">
        <ele>41.9</ele>
        <time>2023-09-16T12:29:51Z</time>
      </trkpt>
      <trkpt lat="22.550964" lon="113.977478">
        <ele>41.9</ele>
        <time>2023-09-16T12:29:52Z</time>
      </trkpt>
      <trkpt lat="22.550994" lon="113.97744">
        <ele>41.9</ele>
        <time>2023-09-16T12:29:53Z</time>
      </trkpt>
      <trkpt lat="22.551022" lon="113.977398">
        <ele>41.8</ele>
        <time>2023-09-16T12:29:54Z</time>
      </trkpt>
      <trkpt lat="22.551049" lon="113.977352">
        <ele>41.8</ele>
        <time>2023-09-16T12:29:55Z</time>
      </trkpt>
      <trkpt lat="22.551083" lon="113.977297">
        <ele>41.8</ele>
        <time>2023-09-16T12:29:56Z</time>
      </trkpt>
      <trkpt lat="22.551129" lon="113.977236">
        <ele>41.8</ele>
        <time>2023-09-16T12:29:57Z</time>
      </trkpt>
      <trkpt lat="22.55117" lon="113.977179">
        <ele>41.7</ele>
        <time>2023-09-16T12:29:58Z</time>
      </trkpt>
      <trkpt lat="22.551203" lon="113.97713">
        <ele>41.7</ele>
        <time>2023-09-16T12:29:59Z</time>
      </trkpt>
      <trkpt lat="22.551235" lon="113.97708">
        <ele>41.7</ele>
        <time>2023-09-16T12:30:00Z</time>
      </trkpt>
      <trkpt lat="22.55127" lon="113.977026">
        <ele>41.6</ele>
        <time>2023-09-16T12:30:01Z</time>
      </trkpt>
      <trkpt lat="22.551303" lon="113.976971">
        <ele>41.6</ele>
        <time>2023-09-16T12:30:02Z</time>
      </trkpt>
      <trkpt lat="22.551328" lon="113.976913">
        <ele>41.6</ele>
        <time>2023-09-16T12:30:03Z</time>
      </trkpt>
      <trkpt lat="22.551351" lon="113.976857">
        <ele>41.6</ele>
        <time>2023-09-16T12:30:04Z</time>
      </trkpt>
      <trkpt lat="22.551375" lon="113.976809">
        <ele>41.6</ele>
        <time>2023-09-16T12:30:05Z</time>
      </trkpt>
      <trkpt lat="22.551404" lon="113.976759">
        <ele>41.5</ele>
        <time>2023-09-16T12:30:06Z</time>
      </trkpt>
      <trkpt lat="22.551439" lon="113.976705">
        <ele>41.5</ele>
        <time>2023-09-16T12:30:07Z</time>
      </trkpt>
      <trkpt lat="22.55148" lon="113.976652">
        <ele>41.5</ele>
        <time>2023-09-16T12:30:08Z</time>
      </trkpt>
      <trkpt lat="22.551524" lon="113.976603">
        <ele>41.4</ele>
        <time>2023-09-16T12:30:09Z</time>
      </trkpt>
      <trkpt lat="22.551568" lon="113.976553">
        <ele>41.4</ele>
        <time>2023-09-16T12:30:10Z</time>
      </trkpt>
      <trkpt lat="22.551612" lon="113.976499">
        <ele>41.4</ele>
        <time>2023-09-16T12:30:11Z</time>
      </trkpt>
      <trkpt lat="22.551652" lon="113.976446">
        <ele>41.4</ele>
        <time>2023-09-16T12:30:12Z</time>
      </trkpt>
      <trkpt lat="22.551692" lon="113.976398">
        <ele>41.3</ele>
        <time>2023-09-16T12:30:13Z</time>
      </trkpt>
      <trkpt lat="22.551733" lon="113.976348">
        <ele>41.3</ele>
        <time>2023-09-16T12:30:14Z</time>
      </trkpt>
      <trkpt lat="22.551772" lon="113.976298">
        <ele>41.3</ele>
        <time>2023-09-16T12:30:15Z</time>
      </trkpt>
      <trkpt lat="22.551811" lon="113.976247">
        <ele>41.3</ele>
        <time>2023-09-16T12:30:16Z</time>
      </trkpt>
      <trkpt lat="22.551854" lon="113.976199">
        <ele>41.2</ele>
        <time>2023-09-16T12:30:17Z</time>
      </trkpt>
      <trkpt lat="22.551896" lon="113.97615">
        <ele>41.2</ele>
        <time>2023-09-16T12:30:18Z</time>
      </trkpt>
      <trkpt lat="22.551934" lon="113.9761">
        <ele>41.2</ele>
        <time>2023-09-16T12:30:19Z</time>
      </trkpt>
      <trkpt lat="22.55197" lon="113.976054">
        <ele>41.2</ele>
        <time>2023-09-16T12:30:20Z</time>
      </trkpt>
      <trkpt lat="22.55201" lon="113.976004">
        <ele>41.1</ele>
        <time>2023-09-16T12:30:21Z</time>
      </trkpt>
      <trkpt lat="22.552053" lon="113.975951">
        <ele>41</ele>
        <time>2023-09-16T12:30:22Z</time>
      </trkpt>
      <trkpt lat="22.552097" lon="113.975897">
        <ele>40.9</ele>
        <time>2023-09-16T12:30:23Z</time>
      </trkpt>
      <trkpt lat="22.552143" lon="113.975839">
        <ele>40.7</ele>
        <time>2023-09-16T12:30:24Z</time>
      </trkpt>
      <trkpt lat="22.552192" lon="113.975783">
        <ele>40.6</ele>
        <time>2023-09-16T12:30:25Z</time>
      </trkpt>
      <trkpt lat="22.552239" lon="113.97573">
        <ele>40.5</ele>
        <time>2023-09-16T12:30:26Z</time>
      </trkpt>
      <trkpt lat="22.552286" lon="113.975676">
        <ele>40.3</ele>
        <time>2023-09-16T12:30:27Z</time>
      </trkpt>
      <trkpt lat="22.552336" lon="113.975618">
        <ele>40.2</ele>
        <time>2023-09-16T12:30:28Z</time>
      </trkpt>
      <trkpt lat="22.552382" lon="113.975562">
        <ele>40.1</ele>
        <time>2023-09-16T12:30:29Z</time>
      </trkpt>
      <trkpt lat="22.552427" lon="113.975513">
        <ele>39.9</ele>
        <time>2023-09-16T12:30:30Z</time>
      </trkpt>
      <trkpt lat="22.552476" lon="113.975463">
        <ele>39.8</ele>
        <time>2023-09-16T12:30:31Z</time>
      </trkpt>
      <trkpt lat="22.552525" lon="113.975409">
        <ele>39.7</ele>
        <time>2023-09-16T12:30:32Z</time>
      </trkpt>
      <trkpt lat="22.552572" lon="113.97536">
        <ele>39.5</ele>
        <time>2023-09-16T12:30:33Z</time>
      </trkpt>
      <trkpt lat="22.552618" lon="113.975306">
        <ele>39.4</ele>
        <time>2023-09-16T12:30:34Z</time>
      </trkpt>
      <trkpt lat="22.552661" lon="113.975249">
        <ele>39.3</ele>
        <time>2023-09-16T12:30:35Z</time>
      </trkpt>
      <trkpt lat="22.552704" lon="113.975196">
        <ele>39.2</ele>
        <time>2023-09-16T12:30:36Z</time>
      </trkpt>
      <trkpt lat="22.552752" lon="113.975147">
        <ele>39</ele>
        <time>2023-09-16T12:30:37Z</time>
      </trkpt>
      <trkpt lat="22.552795" lon="113.975097">
        <ele>38.9</ele>
        <time>2023-09-16T12:30:38Z</time>
      </trkpt>
      <trkpt lat="22.552833" lon="113.975048">
        <ele>38.8</ele>
        <time>2023-09-16T12:30:39Z</time>
      </trkpt>
      <trkpt lat="22.552874" lon="113.975002">
        <ele>38.7</ele>
        <time>2023-09-16T12:30:40Z</time>
      </trkpt>
      <trkpt lat="22.552914" lon="113.974956">
        <ele>38.6</ele>
        <time>2023-09-16T12:30:41Z</time>
      </trkpt>
      <trkpt lat="22.55295" lon="113.974915">
        <ele>38.5</ele>
        <time>2023-09-16T12:30:42Z</time>
      </trkpt>
      <trkpt lat="22.552987" lon="113.974877">
        <ele>38.4</ele>
        <time>2023-09-16T12:30:43Z</time>
      </trkpt>
      <trkpt lat="22.553018" lon="113.974852">
        <ele>38.3</ele>
        <time>2023-09-16T12:30:44Z</time>
      </trkpt>
      <trkpt lat="22.553046" lon="113.974832">
        <ele>38.2</ele>
        <time>2023-09-16T12:30:45Z</time>
      </trkpt>
      <trkpt lat="22.553068" lon="113.974804">
        <ele>38.2</ele>
        <time>2023-09-16T12:30:46Z</time>
      </trkpt>
      <trkpt lat="22.553091" lon="113.974769">
        <ele>38.1</ele>
        <time>2023-09-16T12:30:47Z</time>
      </trkpt>
      <trkpt lat="22.553116" lon="113.974732">
        <ele>38</ele>
        <time>2023-09-16T12:30:48Z</time>
      </trkpt>
      <trkpt lat="22.553142" lon="113.974703">
        <ele>37.9</ele>
        <time>2023-09-16T12:30:49Z</time>
      </trkpt>
      <trkpt lat="22.553166" lon="113.974675">
        <ele>37.9</ele>
        <time>2023-09-16T12:30:50Z</time>
      </trkpt>
      <trkpt lat="22.553187" lon="113.974645">
        <ele>37.8</ele>
        <time>2023-09-16T12:30:51Z</time>
      </trkpt>
      <trkpt lat="22.55321" lon="113.974614">
        <ele>37.7</ele>
        <time>2023-09-16T12:30:52Z</time>
      </trkpt>
      <trkpt lat="22.553235" lon="113.974583">
        <ele>37.7</ele>
        <time>2023-09-16T12:30:53Z</time>
      </trkpt>
      <trkpt lat="22.553264" lon="113.974544">
        <ele>37.6</ele>
        <time>2023-09-16T12:30:54Z</time>
      </trkpt>
      <trkpt lat="22.553297" lon="113.974503">
        <ele>37.5</ele>
        <time>2023-09-16T12:30:55Z</time>
      </trkpt>
      <trkpt lat="22.553332" lon="113.974464">
        <ele>37.5</ele>
        <time>2023-09-16T12:30:56Z</time>
      </trkpt>
      <trkpt lat="22.553366" lon="113.974421">
        <ele>37.4</ele>
        <time>2023-09-16T12:30:57Z</time>
      </trkpt>
      <trkpt lat="22.553399" lon="113.97438">
        <ele>37.3</ele>
        <time>2023-09-16T12:30:58Z</time>
      </trkpt>
      <trkpt lat="22.553434" lon="113.974343">
        <ele>37.3</ele>
        <time>2023-09-16T12:30:59Z</time>
      </trkpt>
      <trkpt lat="22.553474" lon="113.974299">
        <ele>37.2</ele>
        <time>2023-09-16T12:31:00Z</time>
      </trkpt>
      <trkpt lat="22.553514" lon="113.974263">
        <ele>37.1</ele>
        <time>2023-09-16T12:31:01Z</time>
      </trkpt>
      <trkpt lat="22.553543" lon="113.974242">
        <ele>37.1</ele>
        <time>2023-09-16T12:31:02Z</time>
      </trkpt>
      <trkpt lat="22.553568" lon="113.97424">
        <ele>37</ele>
        <time>2023-09-16T12:31:03Z</time>
      </trkpt>
      <trkpt lat="22.553597" lon="113.974257">
        <ele>37</ele>
        <time>2023-09-16T12:31:04Z</time>
      </trkpt>
      <trkpt lat="22.553631" lon="113.97428">
        <ele>37</ele>
        <time>2023-09-16T12:31:05Z</time>
      </trkpt>
      <trkpt lat="22.553664" lon="113.974307">
        <ele>36.9</ele>
        <time>2023-09-16T12:31:06Z</time>
      </trkpt>
      <trkpt lat="22.553691" lon="113.974328">
        <ele>36.9</ele>
        <time>2023-09-16T12:31:07Z</time>
      </trkpt>
      <trkpt lat="22.553714" lon="113.974348">
        <ele>36.8</ele>
        <time>2023-09-16T12:31:08Z</time>
      </trkpt>
      <trkpt lat="22.55374" lon="113.974362">
        <ele>36.8</ele>
        <time>2023-09-16T12:31:09Z</time>
      </trkpt>
      <trkpt lat="22.553771" lon="113.97437">
        <ele>36.7</ele>
        <time>2023-09-16T12:31:10Z</time>
      </trkpt>
      <trkpt lat="22.553798" lon="113.974368">
        <ele>36.7</ele>
        <time>2023-09-16T12:31:11Z</time>
      </trkpt>
      <trkpt lat="22.553819" lon="113.974356">
        <ele>36.7</ele>
        <time>2023-09-16T12:31:12Z</time>
      </trkpt>
      <trkpt lat="22.553826" lon="113.974345">
        <ele>36.7</ele>
        <time>2023-09-16T12:31:13Z</time>
      </trkpt>
      <trkpt lat="22.553853" lon="113.97431">
        <ele>36.6</ele>
        <time>2023-09-16T12:31:43Z</time>
      </trkpt>
      <trkpt lat="22.553868" lon="113.974291">
        <ele>36.6</ele>
        <time>2023-09-16T12:31:44Z</time>
      </trkpt>
      <trkpt lat="22.553874" lon="113.974273">
        <ele>36.5</ele>
        <time>2023-09-16T12:31:45Z</time>
      </trkpt>
      <trkpt lat="22.55388" lon="113.974253">
        <ele>36.5</ele>
        <time>2023-09-16T12:31:46Z</time>
      </trkpt>
      <trkpt lat="22.553889" lon="113.974234">
        <ele>36.5</ele>
        <time>2023-09-16T12:31:47Z</time>
      </trkpt>
      <trkpt lat="22.553893" lon="113.97421">
        <ele>36.5</ele>
        <time>2023-09-16T12:31:48Z</time>
      </trkpt>
      <trkpt lat="22.553892" lon="113.974184">
        <ele>36.4</ele>
        <time>2023-09-16T12:31:49Z</time>
      </trkpt>
      <trkpt lat="22.553881" lon="113.974153">
        <ele>36.4</ele>
        <time>2023-09-16T12:31:50Z</time>
      </trkpt>
      <trkpt lat="22.553862" lon="113.974115">
        <ele>36.3</ele>
        <time>2023-09-16T12:31:51Z</time>
      </trkpt>
      <trkpt lat="22.553845" lon="113.974086">
        <ele>36.3</ele>
        <time>2023-09-16T12:31:52Z</time>
      </trkpt>
      <trkpt lat="22.553831" lon="113.974062">
        <ele>36.3</ele>
        <time>2023-09-16T12:31:53Z</time>
      </trkpt>
      <trkpt lat="22.553812" lon="113.97403">
        <ele>36.2</ele>
        <time>2023-09-16T12:31:54Z</time>
      </trkpt>
      <trkpt lat="22.553793" lon="113.973997">
        <ele>36.2</ele>
        <time>2023-09-16T12:31:55Z</time>
      </trkpt>
      <trkpt lat="22.553782" lon="113.973967">
        <ele>36.1</ele>
        <time>2023-09-16T12:31:56Z</time>
      </trkpt>
      <trkpt lat="22.55379" lon="113.973936">
        <ele>36.1</ele>
        <time>2023-09-16T12:31:57Z</time>
      </trkpt>
      <trkpt lat="22.553814" lon="113.973901">
        <ele>36</ele>
        <time>2023-09-16T12:31:58Z</time>
      </trkpt>
      <trkpt lat="22.553844" lon="113.973867">
        <ele>36</ele>
        <time>2023-09-16T12:31:59Z</time>
      </trkpt>
      <trkpt lat="22.553876" lon="113.973832">
        <ele>35.9</ele>
        <time>2023-09-16T12:32:00Z</time>
      </trkpt>
      <trkpt lat="22.553912" lon="113.973799">
        <ele>35.9</ele>
        <time>2023-09-16T12:32:01Z</time>
      </trkpt>
      <trkpt lat="22.553949" lon="113.973768">
        <ele>35.8</ele>
        <time>2023-09-16T12:32:02Z</time>
      </trkpt>
      <trkpt lat="22.553987" lon="113.973733">
        <ele>35.7</ele>
        <time>2023-09-16T12:32:03Z</time>
      </trkpt>
      <trkpt lat="22.554027" lon="113.973691">
        <ele>35.7</ele>
        <time>2023-09-16T12:32:04Z</time>
      </trkpt>
      <trkpt lat="22.554065" lon="113.973649">
        <ele>35.6</ele>
        <time>2023-09-16T12:32:05Z</time>
      </trkpt>
      <trkpt lat="22.554103" lon="113.973607">
        <ele>35.5</ele>
        <time>2023-09-16T12:32:06Z</time>
      </trkpt>
      <trkpt lat="22.554147" lon="113.973553">
        <ele>35.4</ele>
        <time>2023-09-16T12:32:07Z</time>
      </trkpt>
      <trkpt lat="22.554192" lon="113.973492">
        <ele>35.3</ele>
        <time>2023-09-16T12:32:08Z</time>
      </trkpt>
      <trkpt lat="22.554232" lon="113.973435">
        <ele>35.3</ele>
        <time>2023-09-16T12:32:09Z</time>
      </trkpt>
      <trkpt lat="22.55427" lon="113.973389">
        <ele>35.3</ele>
        <time>2023-09-16T12:32:10Z</time>
      </trkpt>
      <trkpt lat="22.554313" lon="113.973351">
        <ele>35.3</ele>
        <time>2023-09-16T12:32:11Z</time>
      </trkpt>
      <trkpt lat="22.554354" lon="113.973314">
        <ele>35.3</ele>
        <time>2023-09-16T12:32:12Z</time>
      </trkpt>
      <trkpt lat="22.554394" lon="113.973271">
        <ele>35.3</ele>
        <time>2023-09-16T12:32:13Z</time>
      </trkpt>
      <trkpt lat="22.554433" lon="113.973225">
        <ele>35.2</ele>
        <time>2023-09-16T12:32:14Z</time>
      </trkpt>
      <trkpt lat="22.554471" lon="113.973175">
        <ele>35.2</ele>
        <time>2023-09-16T12:32:15Z</time>
      </trkpt>
      <trkpt lat="22.554508" lon="113.97313">
        <ele>35.2</ele>
        <time>2023-09-16T12:32:16Z</time>
      </trkpt>
      <trkpt lat="22.554544" lon="113.973096">
        <ele>35.2</ele>
        <time>2023-09-16T12:32:17Z</time>
      </trkpt>
      <trkpt lat="22.554581" lon="113.973071">
        <ele>35.2</ele>
        <time>2023-09-16T12:32:18Z</time>
      </trkpt>
      <trkpt lat="22.554625" lon="113.973048">
        <ele>35.2</ele>
        <time>2023-09-16T12:32:19Z</time>
      </trkpt>
      <trkpt lat="22.554678" lon="113.973025">
        <ele>35.2</ele>
        <time>2023-09-16T12:32:20Z</time>
      </trkpt>
      <trkpt lat="22.554731" lon="113.973002">
        <ele>35.2</ele>
        <time>2023-09-16T12:32:21Z</time>
      </trkpt>
      <trkpt lat="22.554779" lon="113.972983">
        <ele>35.1</ele>
        <time>2023-09-16T12:32:22Z</time>
      </trkpt>
      <trkpt lat="22.554823" lon="113.97296">
        <ele>35.1</ele>
        <time>2023-09-16T12:32:23Z</time>
      </trkpt>
      <trkpt lat="22.554864" lon="113.97293">
        <ele>35.1</ele>
        <time>2023-09-16T12:32:24Z</time>
      </trkpt>
      <trkpt lat="22.554904" lon="113.972899">
        <ele>35.1</ele>
        <time>2023-09-16T12:32:25Z</time>
      </trkpt>
      <trkpt lat="22.554946" lon="113.972868">
        <ele>35.1</ele>
        <time>2023-09-16T12:32:26Z</time>
      </trkpt>
      <trkpt lat="22.554989" lon="113.972828">
        <ele>35.1</ele>
        <time>2023-09-16T12:32:27Z</time>
      </trkpt>
      <trkpt lat="22.555031" lon="113.972788">
        <ele>35.1</ele>
        <time>2023-09-16T12:32:28Z</time>
      </trkpt>
      <trkpt lat="22.555073" lon="113.972739">
        <ele>35.1</ele>
        <time>2023-09-16T12:32:29Z</time>
      </trkpt>
      <trkpt lat="22.555111" lon="113.97269">
        <ele>35.1</ele>
        <time>2023-09-16T12:32:30Z</time>
      </trkpt>
      <trkpt lat="22.555149" lon="113.972646">
        <ele>35</ele>
        <time>2023-09-16T12:32:31Z</time>
      </trkpt>
      <trkpt lat="22.555189" lon="113.972596">
        <ele>35</ele>
        <time>2023-09-16T12:32:32Z</time>
      </trkpt>
      <trkpt lat="22.555229" lon="113.972548">
        <ele>35</ele>
        <time>2023-09-16T12:32:33Z</time>
      </trkpt>
      <trkpt lat="22.55527" lon="113.972505">
        <ele>35</ele>
        <time>2023-09-16T12:32:34Z</time>
      </trkpt>
      <trkpt lat="22.555314" lon="113.972458">
        <ele>35</ele>
        <time>2023-09-16T12:32:35Z</time>
      </trkpt>
      <trkpt lat="22.555359" lon="113.972409">
        <ele>35</ele>
        <time>2023-09-16T12:32:36Z</time>
      </trkpt>
      <trkpt lat="22.555403" lon="113.972354">
        <ele>35</ele>
        <time>2023-09-16T12:32:37Z</time>
      </trkpt>
      <trkpt lat="22.555447" lon="113.972294">
        <ele>34.9</ele>
        <time>2023-09-16T12:32:38Z</time>
      </trkpt>
      <trkpt lat="22.555487" lon="113.972237">
        <ele>34.9</ele>
        <time>2023-09-16T12:32:39Z</time>
      </trkpt>
      <trkpt lat="22.555527" lon="113.972183">
        <ele>34.9</ele>
        <time>2023-09-16T12:32:40Z</time>
      </trkpt>
      <trkpt lat="22.555571" lon="113.972131">
        <ele>34.9</ele>
        <time>2023-09-16T12:32:41Z</time>
      </trkpt>
      <trkpt lat="22.55562" lon="113.972077">
        <ele>34.9</ele>
        <time>2023-09-16T12:32:42Z</time>
      </trkpt>
      <trkpt lat="22.555666" lon="113.972028">
        <ele>35</ele>
        <time>2023-09-16T12:32:43Z</time>
      </trkpt>
      <trkpt lat="22.555709" lon="113.971979">
        <ele>35</ele>
        <time>2023-09-16T12:32:44Z</time>
      </trkpt>
      <trkpt lat="22.555754" lon="113.97193">
        <ele>35</ele>
        <time>2023-09-16T12:32:45Z</time>
      </trkpt>
      <trkpt lat="22.5558" lon="113.971883">
        <ele>35</ele>
        <time>2023-09-16T12:32:46Z</time>
      </trkpt>
      <trkpt lat="22.555841" lon="113.971842">
        <ele>35</ele>
        <time>2023-09-16T12:32:47Z</time>
      </trkpt>
      <trkpt lat="22.555876" lon="113.971804">
        <ele>35</ele>
        <time>2023-09-16T12:32:48Z</time>
      </trkpt>
      <trkpt lat="22.555911" lon="113.97177">
        <ele>35</ele>
        <time>2023-09-16T12:32:49Z</time>
      </trkpt>
      <trkpt lat="22.555943" lon="113.97173">
        <ele>35</ele>
        <time>2023-09-16T12:32:50Z</time>
      </trkpt>
      <trkpt lat="22.555974" lon="113.971689">
        <ele>35</ele>
        <time>2023-09-16T12:32:51Z</time>
      </trkpt>
      <trkpt lat="22.556007" lon="113.971651">
        <ele>35</ele>
        <time>2023-09-16T12:32:52Z</time>
      </trkpt>
      <trkpt lat="22.556043" lon="113.971609">
        <ele>35.1</ele>
        <time>2023-09-16T12:32:53Z</time>
      </trkpt>
      <trkpt lat="22.55608" lon="113.971563">
        <ele>35.1</ele>
        <time>2023-09-16T12:32:54Z</time>
      </trkpt>
      <trkpt lat="22.556117" lon="113.971516">
        <ele>35.1</ele>
        <time>2023-09-16T12:32:55Z</time>
      </trkpt>
      <trkpt lat="22.556148" lon="113.971476">
        <ele>35.1</ele>
        <time>2023-09-16T12:32:56Z</time>
      </trkpt>
      <trkpt lat="22.556171" lon="113.971446">
        <ele>35.1</ele>
        <time>2023-09-16T12:32:57Z</time>
      </trkpt>
      <trkpt lat="22.556193" lon="113.971427">
        <ele>35.1</ele>
        <time>2023-09-16T12:32:58Z</time>
      </trkpt>
      <trkpt lat="22.556214" lon="113.971412">
        <ele>35.1</ele>
        <time>2023-09-16T12:32:59Z</time>
      </trkpt>
      <trkpt lat="22.556237" lon="113.971392">
        <ele>35.1</ele>
        <time>2023-09-16T12:33:00Z</time>
      </trkpt>
      <trkpt lat="22.556261" lon="113.971369">
        <ele>35.1</ele>
        <time>2023-09-16T12:33:01Z</time>
      </trkpt>
      <trkpt lat="22.55628" lon="113.971351">
        <ele>35.1</ele>
        <time>2023-09-16T12:33:02Z</time>
      </trkpt>
      <trkpt lat="22.556302" lon="113.971322">
        <ele>35.1</ele>
        <time>2023-09-16T12:33:03Z</time>
      </trkpt>
      <trkpt lat="22.556328" lon="113.971283">
        <ele>35.1</ele>
        <time>2023-09-16T12:33:04Z</time>
      </trkpt>
      <trkpt lat="22.556352" lon="113.97125">
        <ele>35.1</ele>
        <time>2023-09-16T12:33:05Z</time>
      </trkpt>
      <trkpt lat="22.556377" lon="113.97121">
        <ele>35.2</ele>
        <time>2023-09-16T12:33:06Z</time>
      </trkpt>
      <trkpt lat="22.55641" lon="113.971164">
        <ele>35.2</ele>
        <time>2023-09-16T12:33:07Z</time>
      </trkpt>
      <trkpt lat="22.556447" lon="113.971114">
        <ele>35.2</ele>
        <time>2023-09-16T12:33:08Z</time>
      </trkpt>
      <trkpt lat="22.556486" lon="113.971071">
        <ele>35.2</ele>
        <time>2023-09-16T12:33:09Z</time>
      </trkpt>
      <trkpt lat="22.556524" lon="113.971024">
        <ele>35.2</ele>
        <time>2023-09-16T12:33:10Z</time>
      </trkpt>
      <trkpt lat="22.556565" lon="113.970975">
        <ele>35.2</ele>
        <time>2023-09-16T12:33:11Z</time>
      </trkpt>
      <trkpt lat="22.55661" lon="113.970929">
        <ele>35.2</ele>
        <time>2023-09-16T12:33:12Z</time>
      </trkpt>
      <trkpt lat="22.556654" lon="113.970887">
        <ele>35.2</ele>
        <time>2023-09-16T12:33:13Z</time>
      </trkpt>
      <trkpt lat="22.556696" lon="113.970845">
        <ele>35.2</ele>
        <time>2023-09-16T12:33:14Z</time>
      </trkpt>
      <trkpt lat="22.556733" lon="113.97079">
        <ele>35.2</ele>
        <time>2023-09-16T12:33:15Z</time>
      </trkpt>
      <trkpt lat="22.556764" lon="113.970728">
        <ele>35.2</ele>
        <time>2023-09-16T12:33:16Z</time>
      </trkpt>
      <trkpt lat="22.556792" lon="113.970672">
        <ele>35.2</ele>
        <time>2023-09-16T12:33:17Z</time>
      </trkpt>
      <trkpt lat="22.556817" lon="113.97062">
        <ele>35.2</ele>
        <time>2023-09-16T12:33:18Z</time>
      </trkpt>
      <trkpt lat="22.556838" lon="113.970563">
        <ele>35.2</ele>
        <time>2023-09-16T12:33:19Z</time>
      </trkpt>
      <trkpt lat="22.556857" lon="113.970497">
        <ele>35.2</ele>
        <time>2023-09-16T12:33:20Z</time>
      </trkpt>
      <trkpt lat="22.556872" lon="113.970433">
        <ele>35.1</ele>
        <time>2023-09-16T12:33:21Z</time>
      </trkpt>
      <trkpt lat="22.556886" lon="113.970375">
        <ele>35.1</ele>
        <time>2023-09-16T12:33:22Z</time>
      </trkpt>
      <trkpt lat="22.556897" lon="113.970321">
        <ele>35.1</ele>
        <time>2023-09-16T12:33:23Z</time>
      </trkpt>
      <trkpt lat="22.556906" lon="113.970268">
        <ele>35.1</ele>
        <time>2023-09-16T12:33:24Z</time>
      </trkpt>
      <trkpt lat="22.556907" lon="113.970213">
        <ele>35.1</ele>
        <time>2023-09-16T12:33:25Z</time>
      </trkpt>
      <trkpt lat="22.556916" lon="113.970169">
        <ele>35</ele>
        <time>2023-09-16T12:33:26Z</time>
      </trkpt>
      <trkpt lat="22.556935" lon="113.970127">
        <ele>35</ele>
        <time>2023-09-16T12:33:27Z</time>
      </trkpt>
      <trkpt lat="22.556952" lon="113.970082">
        <ele>35</ele>
        <time>2023-09-16T12:33:28Z</time>
      </trkpt>
      <trkpt lat="22.556967" lon="113.970033">
        <ele>35</ele>
        <time>2023-09-16T12:33:29Z</time>
      </trkpt>
      <trkpt lat="22.556982" lon="113.969988">
        <ele>35</ele>
        <time>2023-09-16T12:33:30Z</time>
      </trkpt>
      <trkpt lat="22.557" lon="113.96994">
        <ele>35</ele>
        <time>2023-09-16T12:33:31Z</time>
      </trkpt>
      <trkpt lat="22.557019" lon="113.969886">
        <ele>34.9</ele>
        <time>2023-09-16T12:33:32Z</time>
      </trkpt>
      <trkpt lat="22.557035" lon="113.969842">
        <ele>34.9</ele>
        <time>2023-09-16T12:33:33Z</time>
      </trkpt>
      <trkpt lat="22.557046" lon="113.969791">
        <ele>34.9</ele>
        <time>2023-09-16T12:33:34Z</time>
      </trkpt>
      <trkpt lat="22.557052" lon="113.969734">
        <ele>34.9</ele>
        <time>2023-09-16T12:33:35Z</time>
      </trkpt>
      <trkpt lat="22.55706" lon="113.969679">
        <ele>34.9</ele>
        <time>2023-09-16T12:33:36Z</time>
      </trkpt>
      <trkpt lat="22.55707" lon="113.969622">
        <ele>34.9</ele>
        <time>2023-09-16T12:33:37Z</time>
      </trkpt>
      <trkpt lat="22.557077" lon="113.969566">
        <ele>34.8</ele>
        <time>2023-09-16T12:33:38Z</time>
      </trkpt>
      <trkpt lat="22.557082" lon="113.969512">
        <ele>34.8</ele>
        <time>2023-09-16T12:33:39Z</time>
      </trkpt>
      <trkpt lat="22.557085" lon="113.969454">
        <ele>34.8</ele>
        <time>2023-09-16T12:33:40Z</time>
      </trkpt>
      <trkpt lat="22.557092" lon="113.96939">
        <ele>34.8</ele>
        <time>2023-09-16T12:33:41Z</time>
      </trkpt>
      <trkpt lat="22.557101" lon="113.969334">
        <ele>34.8</ele>
        <time>2023-09-16T12:33:42Z</time>
      </trkpt>
      <trkpt lat="22.557106" lon="113.969297">
        <ele>34.7</ele>
        <time>2023-09-16T12:33:43Z</time>
      </trkpt>
      <trkpt lat="22.557111" lon="113.969266">
        <ele>34.7</ele>
        <time>2023-09-16T12:33:44Z</time>
      </trkpt>
      <trkpt lat="22.557117" lon="113.96924">
        <ele>34.7</ele>
        <time>2023-09-16T12:33:45Z</time>
      </trkpt>
      <trkpt lat="22.55712" lon="113.969217">
        <ele>34.7</ele>
        <time>2023-09-16T12:33:46Z</time>
      </trkpt>
      <trkpt lat="22.557122" lon="113.969199">
        <ele>34.7</ele>
        <time>2023-09-16T12:33:47Z</time>
      </trkpt>
      <trkpt lat="22.557124" lon="113.969184">
        <ele>34.7</ele>
        <time>2023-09-16T12:33:48Z</time>
      </trkpt>
      <trkpt lat="22.557125" lon="113.969168">
        <ele>34.7</ele>
        <time>2023-09-16T12:33:49Z</time>
      </trkpt>
      <trkpt lat="22.557129" lon="113.969145">
        <ele>34.7</ele>
        <time>2023-09-16T12:33:50Z</time>
      </trkpt>
      <trkpt lat="22.557136" lon="113.969106">
        <ele>34.7</ele>
        <time>2023-09-16T12:33:51Z</time>
      </trkpt>
      <trkpt lat="22.557142" lon="113.969056">
        <ele>34.7</ele>
        <time>2023-09-16T12:33:52Z</time>
      </trkpt>
      <trkpt lat="22.557146" lon="113.969011">
        <ele>34.6</ele>
        <time>2023-09-16T12:33:53Z</time>
      </trkpt>
      <trkpt lat="22.557147" lon="113.968969">
        <ele>34.6</ele>
        <time>2023-09-16T12:33:54Z</time>
      </trkpt>
      <trkpt lat="22.557143" lon="113.968922">
        <ele>34.6</ele>
        <time>2023-09-16T12:33:55Z</time>
      </trkpt>
      <trkpt lat="22.557139" lon="113.968876">
        <ele>34.6</ele>
        <time>2023-09-16T12:33:56Z</time>
      </trkpt>
      <trkpt lat="22.557137" lon="113.968817">
        <ele>34.6</ele>
        <time>2023-09-16T12:33:57Z</time>
      </trkpt>
      <trkpt lat="22.557132" lon="113.968754">
        <ele>34.5</ele>
        <time>2023-09-16T12:33:58Z</time>
      </trkpt>
      <trkpt lat="22.557127" lon="113.968688">
        <ele>34.5</ele>
        <time>2023-09-16T12:33:59Z</time>
      </trkpt>
      <trkpt lat="22.557127" lon="113.968624">
        <ele>34.4</ele>
        <time>2023-09-16T12:34:00Z</time>
      </trkpt>
      <trkpt lat="22.557133" lon="113.968567">
        <ele>34.4</ele>
        <time>2023-09-16T12:34:01Z</time>
      </trkpt>
      <trkpt lat="22.55714" lon="113.968508">
        <ele>34.3</ele>
        <time>2023-09-16T12:34:02Z</time>
      </trkpt>
      <trkpt lat="22.557149" lon="113.968447">
        <ele>34.3</ele>
        <time>2023-09-16T12:34:03Z</time>
      </trkpt>
      <trkpt lat="22.55716" lon="113.968386">
        <ele>34.3</ele>
        <time>2023-09-16T12:34:04Z</time>
      </trkpt>
      <trkpt lat="22.55717" lon="113.96833">
        <ele>34.2</ele>
        <time>2023-09-16T12:34:05Z</time>
      </trkpt>
      <trkpt lat="22.557176" lon="113.968277">
        <ele>34.2</ele>
        <time>2023-09-16T12:34:06Z</time>
      </trkpt>
      <trkpt lat="22.557184" lon="113.968223">
        <ele>34.1</ele>
        <time>2023-09-16T12:34:07Z</time>
      </trkpt>
      <trkpt lat="22.557193" lon="113.968175">
        <ele>34.1</ele>
        <time>2023-09-16T12:34:08Z</time>
      </trkpt>
      <trkpt lat="22.557201" lon="113.968126">
        <ele>34.1</ele>
        <time>2023-09-16T12:34:09Z</time>
      </trkpt>
      <trkpt lat="22.557201" lon="113.968072">
        <ele>34</ele>
        <time>2023-09-16T12:34:10Z</time>
      </trkpt>
      <trkpt lat="22.557198" lon="113.968018">
        <ele>34</ele>
        <time>2023-09-16T12:34:11Z</time>
      </trkpt>
      <trkpt lat="22.557199" lon="113.967964">
        <ele>34</ele>
        <time>2023-09-16T12:34:12Z</time>
      </trkpt>
      <trkpt lat="22.557199" lon="113.967914">
        <ele>33.9</ele>
        <time>2023-09-16T12:34:13Z</time>
      </trkpt>
      <trkpt lat="22.557198" lon="113.967869">
        <ele>33.9</ele>
        <time>2023-09-16T12:34:14Z</time>
      </trkpt>
      <trkpt lat="22.557199" lon="113.967823">
        <ele>33.9</ele>
        <time>2023-09-16T12:34:15Z</time>
      </trkpt>
      <trkpt lat="22.557198" lon="113.967777">
        <ele>33.8</ele>
        <time>2023-09-16T12:34:16Z</time>
      </trkpt>
      <trkpt lat="22.557195" lon="113.967731">
        <ele>33.8</ele>
        <time>2023-09-16T12:34:17Z</time>
      </trkpt>
      <trkpt lat="22.557194" lon="113.967686">
        <ele>33.8</ele>
        <time>2023-09-16T12:34:18Z</time>
      </trkpt>
      <trkpt lat="22.557183" lon="113.967649">
        <ele>33.7</ele>
        <time>2023-09-16T12:34:19Z</time>
      </trkpt>
      <trkpt lat="22.55717" lon="113.967632">
        <ele>33.7</ele>
        <time>2023-09-16T12:34:20Z</time>
      </trkpt>
      <trkpt lat="22.55804" lon="113.967331">
        <ele>32.6</ele>
        <time>2023-09-16T12:36:12Z</time>
      </trkpt>
      <trkpt lat="22.558071" lon="113.967329">
        <ele>32.5</ele>
        <time>2023-09-16T12:36:13Z</time>
      </trkpt>
      <trkpt lat="22.558098" lon="113.967325">
        <ele>32.5</ele>
        <time>2023-09-16T12:36:14Z</time>
      </trkpt>
      <trkpt lat="22.558123" lon="113.967323">
        <ele>32.4</ele>
        <time>2023-09-16T12:36:15Z</time>
      </trkpt>
      <trkpt lat="22.558149" lon="113.967323">
        <ele>32.3</ele>
        <time>2023-09-16T12:36:16Z</time>
      </trkpt>
      <trkpt lat="22.558174" lon="113.967323">
        <ele>32.3</ele>
        <time>2023-09-16T12:36:17Z</time>
      </trkpt>
      <trkpt lat="22.558194" lon="113.967319">
        <ele>32.2</ele>
        <time>2023-09-16T12:36:18Z</time>
      </trkpt>
      <trkpt lat="22.558211" lon="113.967311">
        <ele>32.2</ele>
        <time>2023-09-16T12:36:19Z</time>
      </trkpt>
      <trkpt lat="22.558222" lon="113.967308">
        <ele>32.2</ele>
        <time>2023-09-16T12:36:20Z</time>
      </trkpt>
      <trkpt lat="22.558228" lon="113.967308">
        <ele>32.2</ele>
        <time>2023-09-16T12:36:21Z</time>
      </trkpt>
      <trkpt lat="22.558232" lon="113.967308">
        <ele>32.1</ele>
        <time>2023-09-16T12:36:22Z</time>
      </trkpt>
      <trkpt lat="22.558233" lon="113.967308">
        <ele>32.1</ele>
        <time>2023-09-16T12:36:23Z</time>
      </trkpt>
      <trkpt lat="22.558234" lon="113.967312">
        <ele>32.1</ele>
        <time>2023-09-16T12:36:31Z</time>
      </trkpt>
      <trkpt lat="22.558236" lon="113.96732">
        <ele>32.1</ele>
        <time>2023-09-16T12:36:32Z</time>
      </trkpt>
      <trkpt lat="22.558238" lon="113.967323">
        <ele>32.1</ele>
        <time>2023-09-16T12:36:33Z</time>
      </trkpt>
      <trkpt lat="22.558241" lon="113.967328">
        <ele>32.1</ele>
        <time>2023-09-16T12:36:34Z</time>
      </trkpt>
      <trkpt lat="22.55825" lon="113.967339">
        <ele>32.1</ele>
        <time>2023-09-16T12:36:35Z</time>
      </trkpt>
      <trkpt lat="22.558262" lon="113.967359">
        <ele>32</ele>
        <time>2023-09-16T12:36:36Z</time>
      </trkpt>
      <trkpt lat="22.558271" lon="113.967382">
        <ele>32</ele>
        <time>2023-09-16T12:36:37Z</time>
      </trkpt>
      <trkpt lat="22.558277" lon="113.967414">
        <ele>31.9</ele>
        <time>2023-09-16T12:36:38Z</time>
      </trkpt>
      <trkpt lat="22.558281" lon="113.967448">
        <ele>31.8</ele>
        <time>2023-09-16T12:36:39Z</time>
      </trkpt>
      <trkpt lat="22.558285" lon="113.967478">
        <ele>31.8</ele>
        <time>2023-09-16T12:36:40Z</time>
      </trkpt>
      <trkpt lat="22.558284" lon="113.967517">
        <ele>31.7</ele>
        <time>2023-09-16T12:36:41Z</time>
      </trkpt>
      <trkpt lat="22.558285" lon="113.967554">
        <ele>31.6</ele>
        <time>2023-09-16T12:36:42Z</time>
      </trkpt>
      <trkpt lat="22.558277" lon="113.967582">
        <ele>31.5</ele>
        <time>2023-09-16T12:36:43Z</time>
      </trkpt>
      <trkpt lat="22.55826" lon="113.967609">
        <ele>31.5</ele>
        <time>2023-09-16T12:36:44Z</time>
      </trkpt>
      <trkpt lat="22.558239" lon="113.967629">
        <ele>31.4</ele>
        <time>2023-09-16T12:36:45Z</time>
      </trkpt>
      <trkpt lat="22.558227" lon="113.967657">
        <ele>31.3</ele>
        <time>2023-09-16T12:36:46Z</time>
      </trkpt>
      <trkpt lat="22.558227" lon="113.967695">
        <ele>31.2</ele>
        <time>2023-09-16T12:36:47Z</time>
      </trkpt>
      <trkpt lat="22.558228" lon="113.967734">
        <ele>31.2</ele>
        <time>2023-09-16T12:36:48Z</time>
      </trkpt>
      <trkpt lat="22.558224" lon="113.967763">
        <ele>31.1</ele>
        <time>2023-09-16T12:36:49Z</time>
      </trkpt>
      <trkpt lat="22.558218" lon="113.96779">
        <ele>31</ele>
        <time>2023-09-16T12:36:50Z</time>
      </trkpt>
      <trkpt lat="22.558214" lon="113.967821">
        <ele>31</ele>
        <time>2023-09-16T12:36:51Z</time>
      </trkpt>
      <trkpt lat="22.558218" lon="113.967855">
        <ele>30.9</ele>
        <time>2023-09-16T12:36:52Z</time>
      </trkpt>
      <trkpt lat="22.558225" lon="113.96789">
        <ele>30.8</ele>
        <time>2023-09-16T12:36:53Z</time>
      </trkpt>
      <trkpt lat="22.558228" lon="113.96792">
        <ele>30.8</ele>
        <time>2023-09-16T12:36:54Z</time>
      </trkpt>
      <trkpt lat="22.558224" lon="113.967955">
        <ele>30.7</ele>
        <time>2023-09-16T12:36:55Z</time>
      </trkpt>
      <trkpt lat="22.558221" lon="113.967989">
        <ele>30.6</ele>
        <time>2023-09-16T12:36:56Z</time>
      </trkpt>
      <trkpt lat="22.558219" lon="113.968024">
        <ele>30.5</ele>
        <time>2023-09-16T12:36:57Z</time>
      </trkpt>
      <trkpt lat="22.558217" lon="113.96806">
        <ele>30.5</ele>
        <time>2023-09-16T12:36:58Z</time>
      </trkpt>
      <trkpt lat="22.558215" lon="113.968095">
        <ele>30.4</ele>
        <time>2023-09-16T12:36:59Z</time>
      </trkpt>
      <trkpt lat="22.558212" lon="113.968131">
        <ele>30.3</ele>
        <time>2023-09-16T12:37:00Z</time>
      </trkpt>
      <trkpt lat="22.558207" lon="113.968169">
        <ele>30.2</ele>
        <time>2023-09-16T12:37:01Z</time>
      </trkpt>
      <trkpt lat="22.558203" lon="113.968211">
        <ele>30.1</ele>
        <time>2023-09-16T12:37:02Z</time>
      </trkpt>
      <trkpt lat="22.558199" lon="113.968258">
        <ele>30</ele>
        <time>2023-09-16T12:37:03Z</time>
      </trkpt>
      <trkpt lat="22.558197" lon="113.968304">
        <ele>29.9</ele>
        <time>2023-09-16T12:37:04Z</time>
      </trkpt>
      <trkpt lat="22.558195" lon="113.968345">
        <ele>29.9</ele>
        <time>2023-09-16T12:37:05Z</time>
      </trkpt>
      <trkpt lat="22.558191" lon="113.968388">
        <ele>29.8</ele>
        <time>2023-09-16T12:37:06Z</time>
      </trkpt>
      <trkpt lat="22.558187" lon="113.968433">
        <ele>29.7</ele>
        <time>2023-09-16T12:37:07Z</time>
      </trkpt>
      <trkpt lat="22.558183" lon="113.96848">
        <ele>29.6</ele>
        <time>2023-09-16T12:37:08Z</time>
      </trkpt>
      <trkpt lat="22.558178" lon="113.968525">
        <ele>29.5</ele>
        <time>2023-09-16T12:37:09Z</time>
      </trkpt>
      <trkpt lat="22.558174" lon="113.968575">
        <ele>29.4</ele>
        <time>2023-09-16T12:37:10Z</time>
      </trkpt>
      <trkpt lat="22.558176" lon="113.968633">
        <ele>29.2</ele>
        <time>2023-09-16T12:37:11Z</time>
      </trkpt>
      <trkpt lat="22.558176" lon="113.96869">
        <ele>29.1</ele>
        <time>2023-09-16T12:37:12Z</time>
      </trkpt>
      <trkpt lat="22.558173" lon="113.968742">
        <ele>29.1</ele>
        <time>2023-09-16T12:37:13Z</time>
      </trkpt>
      <trkpt lat="22.558172" lon="113.968795">
        <ele>29.1</ele>
        <time>2023-09-16T12:37:14Z</time>
      </trkpt>
      <trkpt lat="22.558171" lon="113.968849">
        <ele>29.2</ele>
        <time>2023-09-16T12:37:15Z</time>
      </trkpt>
      <trkpt lat="22.558169" lon="113.968907">
        <ele>29.2</ele>
        <time>2023-09-16T12:37:16Z</time>
      </trkpt>
      <trkpt lat="22.558166" lon="113.968963">
        <ele>29.2</ele>
        <time>2023-09-16T12:37:17Z</time>
      </trkpt>
      <trkpt lat="22.558161" lon="113.96902">
        <ele>29.2</ele>
        <time>2023-09-16T12:37:18Z</time>
      </trkpt>
      <trkpt lat="22.558157" lon="113.969077">
        <ele>29.2</ele>
        <time>2023-09-16T12:37:19Z</time>
      </trkpt>
      <trkpt lat="22.558154" lon="113.969131">
        <ele>29.2</ele>
        <time>2023-09-16T12:37:20Z</time>
      </trkpt>
      <trkpt lat="22.55815" lon="113.969184">
        <ele>29.2</ele>
        <time>2023-09-16T12:37:21Z</time>
      </trkpt>
      <trkpt lat="22.558145" lon="113.969234">
        <ele>29.2</ele>
        <time>2023-09-16T12:37:22Z</time>
      </trkpt>
      <trkpt lat="22.558138" lon="113.969284">
        <ele>29.2</ele>
        <time>2023-09-16T12:37:23Z</time>
      </trkpt>
      <trkpt lat="22.558132" lon="113.969335">
        <ele>29.3</ele>
        <time>2023-09-16T12:37:24Z</time>
      </trkpt>
      <trkpt lat="22.55813" lon="113.969384">
        <ele>29.3</ele>
        <time>2023-09-16T12:37:25Z</time>
      </trkpt>
      <trkpt lat="22.558126" lon="113.969436">
        <ele>29.3</ele>
        <time>2023-09-16T12:37:26Z</time>
      </trkpt>
      <trkpt lat="22.558122" lon="113.969485">
        <ele>29.3</ele>
        <time>2023-09-16T12:37:27Z</time>
      </trkpt>
      <trkpt lat="22.558118" lon="113.969535">
        <ele>29.3</ele>
        <time>2023-09-16T12:37:28Z</time>
      </trkpt>
      <trkpt lat="22.558112" lon="113.96959">
        <ele>29.3</ele>
        <time>2023-09-16T12:37:29Z</time>
      </trkpt>
      <trkpt lat="22.558106" lon="113.969643">
        <ele>29.3</ele>
        <time>2023-09-16T12:37:30Z</time>
      </trkpt>
      <trkpt lat="22.5581" lon="113.969695">
        <ele>29.3</ele>
        <time>2023-09-16T12:37:31Z</time>
      </trkpt>
      <trkpt lat="22.558096" lon="113.969745">
        <ele>29.3</ele>
        <time>2023-09-16T12:37:32Z</time>
      </trkpt>
      <trkpt lat="22.558092" lon="113.969798">
        <ele>29.3</ele>
        <time>2023-09-16T12:37:33Z</time>
      </trkpt>
      <trkpt lat="22.558089" lon="113.969854">
        <ele>29.4</ele>
        <time>2023-09-16T12:37:34Z</time>
      </trkpt>
      <trkpt lat="22.558084" lon="113.969902">
        <ele>29.4</ele>
        <time>2023-09-16T12:37:35Z</time>
      </trkpt>
      <trkpt lat="22.558076" lon="113.969944">
        <ele>29.4</ele>
        <time>2023-09-16T12:37:36Z</time>
      </trkpt>
      <trkpt lat="22.55807" lon="113.969984">
        <ele>29.4</ele>
        <time>2023-09-16T12:37:37Z</time>
      </trkpt>
      <trkpt lat="22.55807" lon="113.970023">
        <ele>29.4</ele>
        <time>2023-09-16T12:37:38Z</time>
      </trkpt>
      <trkpt lat="22.558085" lon="113.970056">
        <ele>29.4</ele>
        <time>2023-09-16T12:37:39Z</time>
      </trkpt>
      <trkpt lat="22.558112" lon="113.970082">
        <ele>29.4</ele>
        <time>2023-09-16T12:37:40Z</time>
      </trkpt>
      <trkpt lat="22.558147" lon="113.970101">
        <ele>29.4</ele>
        <time>2023-09-16T12:37:41Z</time>
      </trkpt>
      <trkpt lat="22.558187" lon="113.970117">
        <ele>29.4</ele>
        <time>2023-09-16T12:37:42Z</time>
      </trkpt>
      <trkpt lat="22.558229" lon="113.970123">
        <ele>29.4</ele>
        <time>2023-09-16T12:37:43Z</time>
      </trkpt>
      <trkpt lat="22.558272" lon="113.970123">
        <ele>29.4</ele>
        <time>2023-09-16T12:37:44Z</time>
      </trkpt>
      <trkpt lat="22.558316" lon="113.970123">
        <ele>29.4</ele>
        <time>2023-09-16T12:37:45Z</time>
      </trkpt>
      <trkpt lat="22.558364" lon="113.970132">
        <ele>29.5</ele>
        <time>2023-09-16T12:37:46Z</time>
      </trkpt>
      <trkpt lat="22.558414" lon="113.970143">
        <ele>29.5</ele>
        <time>2023-09-16T12:37:47Z</time>
      </trkpt>
      <trkpt lat="22.558469" lon="113.970155">
        <ele>29.5</ele>
        <time>2023-09-16T12:37:48Z</time>
      </trkpt>
      <trkpt lat="22.558526" lon="113.97017">
        <ele>29.5</ele>
        <time>2023-09-16T12:37:49Z</time>
      </trkpt>
      <trkpt lat="22.558582" lon="113.970185">
        <ele>29.5</ele>
        <time>2023-09-16T12:37:50Z</time>
      </trkpt>
      <trkpt lat="22.558635" lon="113.970201">
        <ele>29.5</ele>
        <time>2023-09-16T12:37:51Z</time>
      </trkpt>
      <trkpt lat="22.558684" lon="113.970216">
        <ele>29.5</ele>
        <time>2023-09-16T12:37:52Z</time>
      </trkpt>
      <trkpt lat="22.558735" lon="113.970227">
        <ele>29.5</ele>
        <time>2023-09-16T12:37:53Z</time>
      </trkpt>
      <trkpt lat="22.558786" lon="113.970239">
        <ele>29.5</ele>
        <time>2023-09-16T12:37:54Z</time>
      </trkpt>
      <trkpt lat="22.558835" lon="113.970254">
        <ele>29.5</ele>
        <time>2023-09-16T12:37:55Z</time>
      </trkpt>
      <trkpt lat="22.558879" lon="113.970269">
        <ele>29.5</ele>
        <time>2023-09-16T12:37:56Z</time>
      </trkpt>
      <trkpt lat="22.558919" lon="113.970284">
        <ele>29.5</ele>
        <time>2023-09-16T12:37:57Z</time>
      </trkpt>
      <trkpt lat="22.558955" lon="113.970304">
        <ele>29.5</ele>
        <time>2023-09-16T12:37:58Z</time>
      </trkpt>
      <trkpt lat="22.558989" lon="113.970331">
        <ele>29.5</ele>
        <time>2023-09-16T12:37:59Z</time>
      </trkpt>
      <trkpt lat="22.559022" lon="113.970353">
        <ele>29.5</ele>
        <time>2023-09-16T12:38:00Z</time>
      </trkpt>
      <trkpt lat="22.559057" lon="113.970368">
        <ele>29.5</ele>
        <time>2023-09-16T12:38:01Z</time>
      </trkpt>
      <trkpt lat="22.559103" lon="113.970375">
        <ele>29.5</ele>
        <time>2023-09-16T12:38:02Z</time>
      </trkpt>
      <trkpt lat="22.559147" lon="113.970383">
        <ele>29.5</ele>
        <time>2023-09-16T12:38:03Z</time>
      </trkpt>
      <trkpt lat="22.559185" lon="113.970399">
        <ele>29.5</ele>
        <time>2023-09-16T12:38:04Z</time>
      </trkpt>
      <trkpt lat="22.559218" lon="113.97041">
        <ele>29.5</ele>
        <time>2023-09-16T12:38:05Z</time>
      </trkpt>
      <trkpt lat="22.559252" lon="113.970422">
        <ele>29.5</ele>
        <time>2023-09-16T12:38:06Z</time>
      </trkpt>
      <trkpt lat="22.559288" lon="113.970437">
        <ele>29.5</ele>
        <time>2023-09-16T12:38:07Z</time>
      </trkpt>
      <trkpt lat="22.559324" lon="113.970453">
        <ele>29.5</ele>
        <time>2023-09-16T12:38:08Z</time>
      </trkpt>
      <trkpt lat="22.559367" lon="113.970459">
        <ele>29.5</ele>
        <time>2023-09-16T12:38:09Z</time>
      </trkpt>
      <trkpt lat="22.559407" lon="113.970459">
        <ele>29.5</ele>
        <time>2023-09-16T12:38:10Z</time>
      </trkpt>
      <trkpt lat="22.559442" lon="113.970459">
        <ele>29.5</ele>
        <time>2023-09-16T12:38:11Z</time>
      </trkpt>
      <trkpt lat="22.559476" lon="113.970455">
        <ele>29.5</ele>
        <time>2023-09-16T12:38:12Z</time>
      </trkpt>
      <trkpt lat="22.559509" lon="113.970443">
        <ele>29.5</ele>
        <time>2023-09-16T12:38:13Z</time>
      </trkpt>
      <trkpt lat="22.559536" lon="113.970427">
        <ele>29.5</ele>
        <time>2023-09-16T12:38:14Z</time>
      </trkpt>
      <trkpt lat="22.559555" lon="113.970416">
        <ele>29.5</ele>
        <time>2023-09-16T12:38:15Z</time>
      </trkpt>
      <trkpt lat="22.559564" lon="113.970404">
        <ele>29.5</ele>
        <time>2023-09-16T12:38:16Z</time>
      </trkpt>
      <trkpt lat="22.55957" lon="113.970389">
        <ele>29.5</ele>
        <time>2023-09-16T12:38:17Z</time>
      </trkpt>
      <trkpt lat="22.55958" lon="113.970374">
        <ele>29.5</ele>
        <time>2023-09-16T12:38:18Z</time>
      </trkpt>
      <trkpt lat="22.559596" lon="113.970372">
        <ele>29.5</ele>
        <time>2023-09-16T12:38:19Z</time>
      </trkpt>
      <trkpt lat="22.559616" lon="113.970383">
        <ele>29.5</ele>
        <time>2023-09-16T12:38:20Z</time>
      </trkpt>
      <trkpt lat="22.559633" lon="113.970399">
        <ele>29.5</ele>
        <time>2023-09-16T12:38:21Z</time>
      </trkpt>
    </trkseg>
  </trk>
</gpx>