<?xml version="1.0" encoding="UTF-8"?>
<gpx xmlns="http://www.topografix.com/GPX/1/1" xmlns:xsi="http://www.w3.org/2001/XMLSchema-instance" xsi:schemaLocation="http://www.topografix.com/GPX/1/1 http://www.topografix.com/GPX/1/1/gpx.xsd" version="1.1" creator="鹏">
  <metadata>
    <name>XC 🚴（XTC800） (Completed)</name>
    <desc>Distance: 1.164km, Estimated duration: 0.14h, Elevation up: 2.0m, Elevation down: 4.0m</desc>
    <author>
      <name>鹏</name>
      <link href="https://www.komoot.de/user/3342641231843">
        <text>View 鹏's Profile on Komoot</text>
      </link>
    </author>
    <link href="https://www.komoot.de/tour/1354354944">
      <text>View tour on Komoot</text>
    </link>
  </metadata>
  <trk>
    <name>XC 🚴（XTC800） (Completed)</name>
    <desc>Distance: 1.164km, Estimated duration: 0.14h, Elevation up: 2.0m, Elevation down: 4.0m</desc>
    <link href="https://www.komoot.de/tour/1354354944">
      <text>View tour on Komoot</text>
    </link>
    <trkseg>
      <trkpt lat="22.559004" lon="113.961159">
        <ele>40.6</ele>
        <time>2023-10-21T07:08:54Z</time>
      </trkpt>
      <trkpt lat="22.559" lon="113.961182">
        <ele>40.6</ele>
        <time>2023-10-21T07:09:07Z</time>
      </trkpt>
      <trkpt lat="22.558998" lon="113.961214">
        <ele>40.6</ele>
        <time>2023-10-21T07:09:08Z</time>
      </trkpt>
      <trkpt lat="22.559" lon="113.961256">
        <ele>40.6</ele>
        <time>2023-10-21T07:09:09Z</time>
      </trkpt>
      <trkpt lat="22.559006" lon="113.961296">
        <ele>40.6</ele>
        <time>2023-10-21T07:09:10Z</time>
      </trkpt>
      <trkpt lat="22.559013" lon="113.961339">
        <ele>40.6</ele>
        <time>2023-10-21T07:09:11Z</time>
      </trkpt>
      <trkpt lat="22.559027" lon="113.961377">
        <ele>40.6</ele>
        <time>2023-10-21T07:09:12Z</time>
      </trkpt>
      <trkpt lat="22.559053" lon="113.961408">
        <ele>40.6</ele>
        <time>2023-10-21T07:09:13Z</time>
      </trkpt>
      <trkpt lat="22.559083" lon="113.961438">
        <ele>40.6</ele>
        <time>2023-10-21T07:09:14Z</time>
      </trkpt>
      <trkpt lat="22.559104" lon="113.961462">
        <ele>40.6</ele>
        <time>2023-10-21T07:09:15Z</time>
      </trkpt>
      <trkpt lat="22.559114" lon="113.961474">
        <ele>40.6</ele>
        <time>2023-10-21T07:09:16Z</time>
      </trkpt>
      <trkpt lat="22.559129" lon="113.961479">
        <ele>40.6</ele>
        <time>2023-10-21T07:09:17Z</time>
      </trkpt>
      <trkpt lat="22.559148" lon="113.961482">
        <ele>40.6</ele>
        <time>2023-10-21T07:09:18Z</time>
      </trkpt>
      <trkpt lat="22.559169" lon="113.961487">
        <ele>40.6</ele>
        <time>2023-10-21T07:09:19Z</time>
      </trkpt>
      <trkpt lat="22.559194" lon="113.96149">
        <ele>40.6</ele>
        <time>2023-10-21T07:09:20Z</time>
      </trkpt>
      <trkpt lat="22.559217" lon="113.961497">
        <ele>40.6</ele>
        <time>2023-10-21T07:09:21Z</time>
      </trkpt>
      <trkpt lat="22.559241" lon="113.961505">
        <ele>40.6</ele>
        <time>2023-10-21T07:09:22Z</time>
      </trkpt>
      <trkpt lat="22.559263" lon="113.961513">
        <ele>40.6</ele>
        <time>2023-10-21T07:09:23Z</time>
      </trkpt>
      <trkpt lat="22.559287" lon="113.961517">
        <ele>40.6</ele>
        <time>2023-10-21T07:09:24Z</time>
      </trkpt>
      <trkpt lat="22.559312" lon="113.961521">
        <ele>40.6</ele>
        <time>2023-10-21T07:09:25Z</time>
      </trkpt>
      <trkpt lat="22.559336" lon="113.961526">
        <ele>40.6</ele>
        <time>2023-10-21T07:09:26Z</time>
      </trkpt>
      <trkpt lat="22.559363" lon="113.96153">
        <ele>40.6</ele>
        <time>2023-10-21T07:09:27Z</time>
      </trkpt>
      <trkpt lat="22.559392" lon="113.961534">
        <ele>40.6</ele>
        <time>2023-10-21T07:09:28Z</time>
      </trkpt>
      <trkpt lat="22.559422" lon="113.961538">
        <ele>40.6</ele>
        <time>2023-10-21T07:09:29Z</time>
      </trkpt>
      <trkpt lat="22.559451" lon="113.961543">
        <ele>40.6</ele>
        <time>2023-10-21T07:09:30Z</time>
      </trkpt>
      <trkpt lat="22.559478" lon="113.961551">
        <ele>40.6</ele>
        <time>2023-10-21T07:09:31Z</time>
      </trkpt>
      <trkpt lat="22.559503" lon="113.961558">
        <ele>40.6</ele>
        <time>2023-10-21T07:09:32Z</time>
      </trkpt>
      <trkpt lat="22.559527" lon="113.961566">
        <ele>40.6</ele>
        <time>2023-10-21T07:09:33Z</time>
      </trkpt>
      <trkpt lat="22.559549" lon="113.961575">
        <ele>40.6</ele>
        <time>2023-10-21T07:09:34Z</time>
      </trkpt>
      <trkpt lat="22.559569" lon="113.961587">
        <ele>40.6</ele>
        <time>2023-10-21T07:09:35Z</time>
      </trkpt>
      <trkpt lat="22.559582" lon="113.961597">
        <ele>40.6</ele>
        <time>2023-10-21T07:09:36Z</time>
      </trkpt>
      <trkpt lat="22.559593" lon="113.961611">
        <ele>40.6</ele>
        <time>2023-10-21T07:09:37Z</time>
      </trkpt>
      <trkpt lat="22.559618" lon="113.961627">
        <ele>40.6</ele>
        <time>2023-10-21T07:09:38Z</time>
      </trkpt>
      <trkpt lat="22.55965" lon="113.961638">
        <ele>40.6</ele>
        <time>2023-10-21T07:09:39Z</time>
      </trkpt>
      <trkpt lat="22.559681" lon="113.96165">
        <ele>40.6</ele>
        <time>2023-10-21T07:09:40Z</time>
      </trkpt>
      <trkpt lat="22.559712" lon="113.961658">
        <ele>40.7</ele>
        <time>2023-10-21T07:09:41Z</time>
      </trkpt>
      <trkpt lat="22.559742" lon="113.96167">
        <ele>40.7</ele>
        <time>2023-10-21T07:09:42Z</time>
      </trkpt>
      <trkpt lat="22.559768" lon="113.961681">
        <ele>40.7</ele>
        <time>2023-10-21T07:09:43Z</time>
      </trkpt>
      <trkpt lat="22.55979" lon="113.961692">
        <ele>40.7</ele>
        <time>2023-10-21T07:09:44Z</time>
      </trkpt>
      <trkpt lat="22.559812" lon="113.961704">
        <ele>40.7</ele>
        <time>2023-10-21T07:09:45Z</time>
      </trkpt>
      <trkpt lat="22.559832" lon="113.961715">
        <ele>40.7</ele>
        <time>2023-10-21T07:09:46Z</time>
      </trkpt>
      <trkpt lat="22.559853" lon="113.961727">
        <ele>40.7</ele>
        <time>2023-10-21T07:09:47Z</time>
      </trkpt>
      <trkpt lat="22.559871" lon="113.961737">
        <ele>40.7</ele>
        <time>2023-10-21T07:09:48Z</time>
      </trkpt>
      <trkpt lat="22.559886" lon="113.961749">
        <ele>40.8</ele>
        <time>2023-10-21T07:09:49Z</time>
      </trkpt>
      <trkpt lat="22.559905" lon="113.961757">
        <ele>40.8</ele>
        <time>2023-10-21T07:09:50Z</time>
      </trkpt>
      <trkpt lat="22.559921" lon="113.961765">
        <ele>40.8</ele>
        <time>2023-10-21T07:09:51Z</time>
      </trkpt>
      <trkpt lat="22.559935" lon="113.961769">
        <ele>40.8</ele>
        <time>2023-10-21T07:09:52Z</time>
      </trkpt>
      <trkpt lat="22.559956" lon="113.961776">
        <ele>40.8</ele>
        <time>2023-10-21T07:09:53Z</time>
      </trkpt>
      <trkpt lat="22.559978" lon="113.961791">
        <ele>40.8</ele>
        <time>2023-10-21T07:09:54Z</time>
      </trkpt>
      <trkpt lat="22.560001" lon="113.961803">
        <ele>40.8</ele>
        <time>2023-10-21T07:09:55Z</time>
      </trkpt>
      <trkpt lat="22.560024" lon="113.961811">
        <ele>40.8</ele>
        <time>2023-10-21T07:09:56Z</time>
      </trkpt>
      <trkpt lat="22.560043" lon="113.961818">
        <ele>40.8</ele>
        <time>2023-10-21T07:09:57Z</time>
      </trkpt>
      <trkpt lat="22.560059" lon="113.96183">
        <ele>40.9</ele>
        <time>2023-10-21T07:09:58Z</time>
      </trkpt>
      <trkpt lat="22.560079" lon="113.961845">
        <ele>40.9</ele>
        <time>2023-10-21T07:09:59Z</time>
      </trkpt>
      <trkpt lat="22.560102" lon="113.961866">
        <ele>40.9</ele>
        <time>2023-10-21T07:10:00Z</time>
      </trkpt>
      <trkpt lat="22.560122" lon="113.9619">
        <ele>40.9</ele>
        <time>2023-10-21T07:10:01Z</time>
      </trkpt>
      <trkpt lat="22.56014" lon="113.961938">
        <ele>40.9</ele>
        <time>2023-10-21T07:10:02Z</time>
      </trkpt>
      <trkpt lat="22.560155" lon="113.961969">
        <ele>40.9</ele>
        <time>2023-10-21T07:10:03Z</time>
      </trkpt>
      <trkpt lat="22.560173" lon="113.961992">
        <ele>41</ele>
        <time>2023-10-21T07:10:04Z</time>
      </trkpt>
      <trkpt lat="22.560198" lon="113.962019">
        <ele>41</ele>
        <time>2023-10-21T07:10:05Z</time>
      </trkpt>
      <trkpt lat="22.560219" lon="113.962049">
        <ele>41</ele>
        <time>2023-10-21T07:10:06Z</time>
      </trkpt>
      <trkpt lat="22.560228" lon="113.962077">
        <ele>41</ele>
        <time>2023-10-21T07:10:07Z</time>
      </trkpt>
      <trkpt lat="22.560232" lon="113.962099">
        <ele>41</ele>
        <time>2023-10-21T07:10:08Z</time>
      </trkpt>
      <trkpt lat="22.560234" lon="113.962126">
        <ele>41</ele>
        <time>2023-10-21T07:10:09Z</time>
      </trkpt>
      <trkpt lat="22.560233" lon="113.962156">
        <ele>41</ele>
        <time>2023-10-21T07:10:10Z</time>
      </trkpt>
      <trkpt lat="22.56023" lon="113.962177">
        <ele>41</ele>
        <time>2023-10-21T07:10:11Z</time>
      </trkpt>
      <trkpt lat="22.560224" lon="113.962184">
        <ele>41.1</ele>
        <time>2023-10-21T07:10:12Z</time>
      </trkpt>
      <trkpt lat="22.560219" lon="113.962192">
        <ele>41.1</ele>
        <time>2023-10-21T07:10:13Z</time>
      </trkpt>
      <trkpt lat="22.560215" lon="113.962199">
        <ele>41.1</ele>
        <time>2023-10-21T07:10:14Z</time>
      </trkpt>
      <trkpt lat="22.56021" lon="113.962207">
        <ele>41.1</ele>
        <time>2023-10-21T07:10:15Z</time>
      </trkpt>
      <trkpt lat="22.560209" lon="113.962212">
        <ele>41.1</ele>
        <time>2023-10-21T07:10:16Z</time>
      </trkpt>
      <trkpt lat="22.560208" lon="113.962215">
        <ele>41.1</ele>
        <time>2023-10-21T07:10:17Z</time>
      </trkpt>
      <trkpt lat="22.560206" lon="113.962222">
        <ele>41.1</ele>
        <time>2023-10-21T07:10:18Z</time>
      </trkpt>
      <trkpt lat="22.560208" lon="113.96223">
        <ele>41.1</ele>
        <time>2023-10-21T07:10:19Z</time>
      </trkpt>
      <trkpt lat="22.56024" lon="113.96234">
        <ele>41.1</ele>
        <time>2023-10-21T07:10:44Z</time>
      </trkpt>
      <trkpt lat="22.560238" lon="113.96236">
        <ele>41.1</ele>
        <time>2023-10-21T07:10:45Z</time>
      </trkpt>
      <trkpt lat="22.56024" lon="113.962383">
        <ele>41.2</ele>
        <time>2023-10-21T07:10:46Z</time>
      </trkpt>
      <trkpt lat="22.560244" lon="113.962405">
        <ele>41.2</ele>
        <time>2023-10-21T07:10:47Z</time>
      </trkpt>
      <trkpt lat="22.560251" lon="113.962428">
        <ele>41.2</ele>
        <time>2023-10-21T07:10:48Z</time>
      </trkpt>
      <trkpt lat="22.560258" lon="113.962454">
        <ele>41.2</ele>
        <time>2023-10-21T07:10:49Z</time>
      </trkpt>
      <trkpt lat="22.560258" lon="113.962481">
        <ele>41.2</ele>
        <time>2023-10-21T07:10:50Z</time>
      </trkpt>
      <trkpt lat="22.560248" lon="113.962511">
        <ele>41.2</ele>
        <time>2023-10-21T07:10:51Z</time>
      </trkpt>
      <trkpt lat="22.560236" lon="113.962545">
        <ele>41.2</ele>
        <time>2023-10-21T07:10:52Z</time>
      </trkpt>
      <trkpt lat="22.560227" lon="113.962579">
        <ele>41.2</ele>
        <time>2023-10-21T07:10:53Z</time>
      </trkpt>
      <trkpt lat="22.560221" lon="113.962614">
        <ele>41.3</ele>
        <time>2023-10-21T07:10:54Z</time>
      </trkpt>
      <trkpt lat="22.560216" lon="113.962648">
        <ele>41.3</ele>
        <time>2023-10-21T07:10:55Z</time>
      </trkpt>
      <trkpt lat="22.560211" lon="113.962687">
        <ele>41.3</ele>
        <time>2023-10-21T07:10:56Z</time>
      </trkpt>
      <trkpt lat="22.560208" lon="113.962721">
        <ele>41.3</ele>
        <time>2023-10-21T07:10:57Z</time>
      </trkpt>
      <trkpt lat="22.560205" lon="113.962755">
        <ele>41.3</ele>
        <time>2023-10-21T07:10:58Z</time>
      </trkpt>
      <trkpt lat="22.560204" lon="113.962792">
        <ele>41.4</ele>
        <time>2023-10-21T07:10:59Z</time>
      </trkpt>
      <trkpt lat="22.560201" lon="113.962827">
        <ele>41.4</ele>
        <time>2023-10-21T07:11:00Z</time>
      </trkpt>
      <trkpt lat="22.5602" lon="113.962861">
        <ele>41.4</ele>
        <time>2023-10-21T07:11:01Z</time>
      </trkpt>
      <trkpt lat="22.560197" lon="113.962899">
        <ele>41.4</ele>
        <time>2023-10-21T07:11:02Z</time>
      </trkpt>
      <trkpt lat="22.56019" lon="113.962937">
        <ele>41.4</ele>
        <time>2023-10-21T07:11:03Z</time>
      </trkpt>
      <trkpt lat="22.560179" lon="113.962976">
        <ele>41.4</ele>
        <time>2023-10-21T07:11:04Z</time>
      </trkpt>
      <trkpt lat="22.56017" lon="113.96301">
        <ele>41.5</ele>
        <time>2023-10-21T07:11:05Z</time>
      </trkpt>
      <trkpt lat="22.560161" lon="113.963047">
        <ele>41.5</ele>
        <time>2023-10-21T07:11:06Z</time>
      </trkpt>
      <trkpt lat="22.560151" lon="113.963093">
        <ele>41.5</ele>
        <time>2023-10-21T07:11:07Z</time>
      </trkpt>
      <trkpt lat="22.560143" lon="113.963142">
        <ele>41.5</ele>
        <time>2023-10-21T07:11:08Z</time>
      </trkpt>
      <trkpt lat="22.560137" lon="113.963191">
        <ele>41.5</ele>
        <time>2023-10-21T07:11:09Z</time>
      </trkpt>
      <trkpt lat="22.560135" lon="113.963238">
        <ele>41.6</ele>
        <time>2023-10-21T07:11:10Z</time>
      </trkpt>
      <trkpt lat="22.560136" lon="113.963277">
        <ele>41.6</ele>
        <time>2023-10-21T07:11:11Z</time>
      </trkpt>
      <trkpt lat="22.560134" lon="113.963314">
        <ele>41.6</ele>
        <time>2023-10-21T07:11:12Z</time>
      </trkpt>
      <trkpt lat="22.560129" lon="113.963354">
        <ele>41.6</ele>
        <time>2023-10-21T07:11:13Z</time>
      </trkpt>
      <trkpt lat="22.560124" lon="113.963391">
        <ele>41.6</ele>
        <time>2023-10-21T07:11:14Z</time>
      </trkpt>
      <trkpt lat="22.560118" lon="113.963436">
        <ele>41.6</ele>
        <time>2023-10-21T07:11:15Z</time>
      </trkpt>
      <trkpt lat="22.560109" lon="113.963482">
        <ele>41.6</ele>
        <time>2023-10-21T07:11:16Z</time>
      </trkpt>
      <trkpt lat="22.560098" lon="113.963524">
        <ele>41.6</ele>
        <time>2023-10-21T07:11:17Z</time>
      </trkpt>
      <trkpt lat="22.560088" lon="113.963566">
        <ele>41.6</ele>
        <time>2023-10-21T07:11:18Z</time>
      </trkpt>
      <trkpt lat="22.560079" lon="113.963609">
        <ele>41.6</ele>
        <time>2023-10-21T07:11:19Z</time>
      </trkpt>
      <trkpt lat="22.560071" lon="113.963647">
        <ele>41.6</ele>
        <time>2023-10-21T07:11:20Z</time>
      </trkpt>
      <trkpt lat="22.560066" lon="113.963685">
        <ele>41.7</ele>
        <time>2023-10-21T07:11:21Z</time>
      </trkpt>
      <trkpt lat="22.56006" lon="113.963727">
        <ele>41.7</ele>
        <time>2023-10-21T07:11:22Z</time>
      </trkpt>
      <trkpt lat="22.560055" lon="113.963772">
        <ele>41.7</ele>
        <time>2023-10-21T07:11:23Z</time>
      </trkpt>
      <trkpt lat="22.560054" lon="113.963821">
        <ele>41.7</ele>
        <time>2023-10-21T07:11:24Z</time>
      </trkpt>
      <trkpt lat="22.560054" lon="113.963865">
        <ele>41.7</ele>
        <time>2023-10-21T07:11:25Z</time>
      </trkpt>
      <trkpt lat="22.560051" lon="113.963899">
        <ele>41.7</ele>
        <time>2023-10-21T07:11:26Z</time>
      </trkpt>
      <trkpt lat="22.560046" lon="113.963938">
        <ele>41.7</ele>
        <time>2023-10-21T07:11:27Z</time>
      </trkpt>
      <trkpt lat="22.560041" lon="113.963972">
        <ele>41.7</ele>
        <time>2023-10-21T07:11:28Z</time>
      </trkpt>
      <trkpt lat="22.560035" lon="113.964002">
        <ele>41.7</ele>
        <time>2023-10-21T07:11:29Z</time>
      </trkpt>
      <trkpt lat="22.56003" lon="113.964029">
        <ele>41.7</ele>
        <time>2023-10-21T07:11:30Z</time>
      </trkpt>
      <trkpt lat="22.560024" lon="113.964052">
        <ele>41.7</ele>
        <time>2023-10-21T07:11:31Z</time>
      </trkpt>
      <trkpt lat="22.56002" lon="113.964076">
        <ele>41.7</ele>
        <time>2023-10-21T07:11:32Z</time>
      </trkpt>
      <trkpt lat="22.560023" lon="113.964104">
        <ele>41.7</ele>
        <time>2023-10-21T07:11:33Z</time>
      </trkpt>
      <trkpt lat="22.560025" lon="113.964134">
        <ele>41.7</ele>
        <time>2023-10-21T07:11:34Z</time>
      </trkpt>
      <trkpt lat="22.560024" lon="113.964168">
        <ele>41.8</ele>
        <time>2023-10-21T07:11:35Z</time>
      </trkpt>
      <trkpt lat="22.560021" lon="113.964209">
        <ele>41.8</ele>
        <time>2023-10-21T07:11:36Z</time>
      </trkpt>
      <trkpt lat="22.560013" lon="113.964253">
        <ele>41.8</ele>
        <time>2023-10-21T07:11:37Z</time>
      </trkpt>
      <trkpt lat="22.560005" lon="113.964292">
        <ele>41.8</ele>
        <time>2023-10-21T07:11:38Z</time>
      </trkpt>
      <trkpt lat="22.559998" lon="113.964323">
        <ele>41.8</ele>
        <time>2023-10-21T07:11:39Z</time>
      </trkpt>
      <trkpt lat="22.559993" lon="113.964356">
        <ele>41.8</ele>
        <time>2023-10-21T07:11:40Z</time>
      </trkpt>
      <trkpt lat="22.559991" lon="113.964388">
        <ele>41.8</ele>
        <time>2023-10-21T07:11:41Z</time>
      </trkpt>
      <trkpt lat="22.559986" lon="113.964417">
        <ele>41.8</ele>
        <time>2023-10-21T07:11:42Z</time>
      </trkpt>
      <trkpt lat="22.559976" lon="113.964452">
        <ele>41.8</ele>
        <time>2023-10-21T07:11:43Z</time>
      </trkpt>
      <trkpt lat="22.559961" lon="113.964484">
        <ele>41.8</ele>
        <time>2023-10-21T07:11:44Z</time>
      </trkpt>
      <trkpt lat="22.559948" lon="113.964517">
        <ele>41.8</ele>
        <time>2023-10-21T07:11:45Z</time>
      </trkpt>
      <trkpt lat="22.559943" lon="113.964558">
        <ele>41.8</ele>
        <time>2023-10-21T07:11:46Z</time>
      </trkpt>
      <trkpt lat="22.559945" lon="113.964607">
        <ele>41.8</ele>
        <time>2023-10-21T07:11:47Z</time>
      </trkpt>
      <trkpt lat="22.55995" lon="113.96466">
        <ele>41.9</ele>
        <time>2023-10-21T07:11:48Z</time>
      </trkpt>
      <trkpt lat="22.559953" lon="113.964707">
        <ele>41.9</ele>
        <time>2023-10-21T07:11:49Z</time>
      </trkpt>
      <trkpt lat="22.559954" lon="113.964746">
        <ele>41.9</ele>
        <time>2023-10-21T07:11:50Z</time>
      </trkpt>
      <trkpt lat="22.559955" lon="113.964781">
        <ele>41.9</ele>
        <time>2023-10-21T07:11:51Z</time>
      </trkpt>
      <trkpt lat="22.559953" lon="113.964811">
        <ele>41.9</ele>
        <time>2023-10-21T07:11:52Z</time>
      </trkpt>
      <trkpt lat="22.559952" lon="113.964843">
        <ele>41.9</ele>
        <time>2023-10-21T07:11:53Z</time>
      </trkpt>
      <trkpt lat="22.559952" lon="113.96487">
        <ele>41.9</ele>
        <time>2023-10-21T07:11:54Z</time>
      </trkpt>
      <trkpt lat="22.559952" lon="113.964896">
        <ele>41.9</ele>
        <time>2023-10-21T07:11:55Z</time>
      </trkpt>
      <trkpt lat="22.559953" lon="113.964926">
        <ele>41.9</ele>
        <time>2023-10-21T07:11:56Z</time>
      </trkpt>
      <trkpt lat="22.559952" lon="113.964962">
        <ele>41.9</ele>
        <time>2023-10-21T07:11:57Z</time>
      </trkpt>
      <trkpt lat="22.559948" lon="113.965009">
        <ele>41.9</ele>
        <time>2023-10-21T07:11:58Z</time>
      </trkpt>
      <trkpt lat="22.559944" lon="113.965054">
        <ele>41.9</ele>
        <time>2023-10-21T07:11:59Z</time>
      </trkpt>
      <trkpt lat="22.559935" lon="113.965106">
        <ele>42</ele>
        <time>2023-10-21T07:12:00Z</time>
      </trkpt>
      <trkpt lat="22.55992" lon="113.965167">
        <ele>41.9</ele>
        <time>2023-10-21T07:12:01Z</time>
      </trkpt>
      <trkpt lat="22.559904" lon="113.965225">
        <ele>41.8</ele>
        <time>2023-10-21T07:12:02Z</time>
      </trkpt>
      <trkpt lat="22.55989" lon="113.965272">
        <ele>41.8</ele>
        <time>2023-10-21T07:12:03Z</time>
      </trkpt>
      <trkpt lat="22.559878" lon="113.965314">
        <ele>41.7</ele>
        <time>2023-10-21T07:12:04Z</time>
      </trkpt>
      <trkpt lat="22.559868" lon="113.965356">
        <ele>41.6</ele>
        <time>2023-10-21T07:12:05Z</time>
      </trkpt>
      <trkpt lat="22.559863" lon="113.965391">
        <ele>41.6</ele>
        <time>2023-10-21T07:12:06Z</time>
      </trkpt>
      <trkpt lat="22.559867" lon="113.965422">
        <ele>41.6</ele>
        <time>2023-10-21T07:12:07Z</time>
      </trkpt>
      <trkpt lat="22.559872" lon="113.965448">
        <ele>41.5</ele>
        <time>2023-10-21T07:12:08Z</time>
      </trkpt>
      <trkpt lat="22.559876" lon="113.965471">
        <ele>41.5</ele>
        <time>2023-10-21T07:12:09Z</time>
      </trkpt>
      <trkpt lat="22.559877" lon="113.965497">
        <ele>41.5</ele>
        <time>2023-10-21T07:12:10Z</time>
      </trkpt>
      <trkpt lat="22.559877" lon="113.965531">
        <ele>41.4</ele>
        <time>2023-10-21T07:12:11Z</time>
      </trkpt>
      <trkpt lat="22.559875" lon="113.96557">
        <ele>41.4</ele>
        <time>2023-10-21T07:12:12Z</time>
      </trkpt>
      <trkpt lat="22.559867" lon="113.965604">
        <ele>41.3</ele>
        <time>2023-10-21T07:12:13Z</time>
      </trkpt>
      <trkpt lat="22.559857" lon="113.965638">
        <ele>41.3</ele>
        <time>2023-10-21T07:12:14Z</time>
      </trkpt>
      <trkpt lat="22.55985" lon="113.965673">
        <ele>41.2</ele>
        <time>2023-10-21T07:12:15Z</time>
      </trkpt>
      <trkpt lat="22.559844" lon="113.96571">
        <ele>41.2</ele>
        <time>2023-10-21T07:12:16Z</time>
      </trkpt>
      <trkpt lat="22.559834" lon="113.96575">
        <ele>41.1</ele>
        <time>2023-10-21T07:12:17Z</time>
      </trkpt>
      <trkpt lat="22.559825" lon="113.965783">
        <ele>41.1</ele>
        <time>2023-10-21T07:12:18Z</time>
      </trkpt>
      <trkpt lat="22.559818" lon="113.965821">
        <ele>41.1</ele>
        <time>2023-10-21T07:12:19Z</time>
      </trkpt>
      <trkpt lat="22.559815" lon="113.965859">
        <ele>41</ele>
        <time>2023-10-21T07:12:20Z</time>
      </trkpt>
      <trkpt lat="22.559819" lon="113.965894">
        <ele>41</ele>
        <time>2023-10-21T07:12:21Z</time>
      </trkpt>
      <trkpt lat="22.559824" lon="113.965928">
        <ele>40.9</ele>
        <time>2023-10-21T07:12:22Z</time>
      </trkpt>
      <trkpt lat="22.559825" lon="113.965966">
        <ele>40.9</ele>
        <time>2023-10-21T07:12:23Z</time>
      </trkpt>
      <trkpt lat="22.559812" lon="113.966001">
        <ele>40.8</ele>
        <time>2023-10-21T07:12:24Z</time>
      </trkpt>
      <trkpt lat="22.559789" lon="113.966032">
        <ele>40.8</ele>
        <time>2023-10-21T07:12:25Z</time>
      </trkpt>
      <trkpt lat="22.55977" lon="113.966062">
        <ele>40.7</ele>
        <time>2023-10-21T07:12:26Z</time>
      </trkpt>
      <trkpt lat="22.559755" lon="113.966093">
        <ele>40.7</ele>
        <time>2023-10-21T07:12:27Z</time>
      </trkpt>
      <trkpt lat="22.559739" lon="113.96612">
        <ele>40.6</ele>
        <time>2023-10-21T07:12:28Z</time>
      </trkpt>
      <trkpt lat="22.559726" lon="113.96615">
        <ele>40.6</ele>
        <time>2023-10-21T07:12:29Z</time>
      </trkpt>
      <trkpt lat="22.559719" lon="113.966187">
        <ele>40.6</ele>
        <time>2023-10-21T07:12:30Z</time>
      </trkpt>
      <trkpt lat="22.559717" lon="113.966222">
        <ele>40.5</ele>
        <time>2023-10-21T07:12:31Z</time>
      </trkpt>
      <trkpt lat="22.559718" lon="113.966253">
        <ele>40.5</ele>
        <time>2023-10-21T07:12:32Z</time>
      </trkpt>
      <trkpt lat="22.559717" lon="113.966287">
        <ele>40.4</ele>
        <time>2023-10-21T07:12:33Z</time>
      </trkpt>
      <trkpt lat="22.559712" lon="113.966319">
        <ele>40.4</ele>
        <time>2023-10-21T07:12:34Z</time>
      </trkpt>
      <trkpt lat="22.559709" lon="113.966341">
        <ele>40.4</ele>
        <time>2023-10-21T07:12:35Z</time>
      </trkpt>
      <trkpt lat="22.559703" lon="113.966364">
        <ele>40.3</ele>
        <time>2023-10-21T07:12:36Z</time>
      </trkpt>
      <trkpt lat="22.55969" lon="113.966384">
        <ele>40.3</ele>
        <time>2023-10-21T07:12:37Z</time>
      </trkpt>
      <trkpt lat="22.559677" lon="113.966399">
        <ele>40.3</ele>
        <time>2023-10-21T07:12:38Z</time>
      </trkpt>
      <trkpt lat="22.559671" lon="113.966411">
        <ele>40.3</ele>
        <time>2023-10-21T07:12:39Z</time>
      </trkpt>
      <trkpt lat="22.559671" lon="113.966422">
        <ele>40.2</ele>
        <time>2023-10-21T07:12:40Z</time>
      </trkpt>
      <trkpt lat="22.559669" lon="113.96644">
        <ele>40.2</ele>
        <time>2023-10-21T07:12:41Z</time>
      </trkpt>
      <trkpt lat="22.559666" lon="113.966463">
        <ele>40.2</ele>
        <time>2023-10-21T07:12:42Z</time>
      </trkpt>
      <trkpt lat="22.559663" lon="113.966483">
        <ele>40.2</ele>
        <time>2023-10-21T07:12:43Z</time>
      </trkpt>
      <trkpt lat="22.559662" lon="113.966498">
        <ele>40.2</ele>
        <time>2023-10-21T07:12:44Z</time>
      </trkpt>
      <trkpt lat="22.559662" lon="113.966513">
        <ele>40.1</ele>
        <time>2023-10-21T07:12:45Z</time>
      </trkpt>
      <trkpt lat="22.559661" lon="113.966532">
        <ele>40.1</ele>
        <time>2023-10-21T07:12:46Z</time>
      </trkpt>
      <trkpt lat="22.559658" lon="113.966558">
        <ele>40.1</ele>
        <time>2023-10-21T07:12:47Z</time>
      </trkpt>
      <trkpt lat="22.559654" lon="113.966585">
        <ele>40</ele>
        <time>2023-10-21T07:12:48Z</time>
      </trkpt>
      <trkpt lat="22.559644" lon="113.966609">
        <ele>40</ele>
        <time>2023-10-21T07:12:49Z</time>
      </trkpt>
      <trkpt lat="22.559635" lon="113.966635">
        <ele>40</ele>
        <time>2023-10-21T07:12:50Z</time>
      </trkpt>
      <trkpt lat="22.559632" lon="113.966661">
        <ele>39.9</ele>
        <time>2023-10-21T07:12:51Z</time>
      </trkpt>
      <trkpt lat="22.559628" lon="113.966684">
        <ele>39.9</ele>
        <time>2023-10-21T07:12:52Z</time>
      </trkpt>
      <trkpt lat="22.559613" lon="113.966704">
        <ele>39.9</ele>
        <time>2023-10-21T07:12:53Z</time>
      </trkpt>
      <trkpt lat="22.559595" lon="113.966723">
        <ele>39.8</ele>
        <time>2023-10-21T07:12:54Z</time>
      </trkpt>
      <trkpt lat="22.559581" lon="113.966742">
        <ele>39.8</ele>
        <time>2023-10-21T07:12:55Z</time>
      </trkpt>
      <trkpt lat="22.559573" lon="113.966757">
        <ele>39.8</ele>
        <time>2023-10-21T07:12:56Z</time>
      </trkpt>
      <trkpt lat="22.55957" lon="113.966773">
        <ele>39.8</ele>
        <time>2023-10-21T07:12:57Z</time>
      </trkpt>
      <trkpt lat="22.559576" lon="113.966792">
        <ele>39.8</ele>
        <time>2023-10-21T07:12:58Z</time>
      </trkpt>
      <trkpt lat="22.559591" lon="113.966811">
        <ele>39.7</ele>
        <time>2023-10-21T07:12:59Z</time>
      </trkpt>
      <trkpt lat="22.559605" lon="113.966826">
        <ele>39.7</ele>
        <time>2023-10-21T07:13:00Z</time>
      </trkpt>
      <trkpt lat="22.559613" lon="113.966842">
        <ele>39.7</ele>
        <time>2023-10-21T07:13:01Z</time>
      </trkpt>
      <trkpt lat="22.559617" lon="113.96686">
        <ele>39.6</ele>
        <time>2023-10-21T07:13:02Z</time>
      </trkpt>
      <trkpt lat="22.559614" lon="113.966886">
        <ele>39.6</ele>
        <time>2023-10-21T07:13:03Z</time>
      </trkpt>
      <trkpt lat="22.559594" lon="113.96692">
        <ele>39.6</ele>
        <time>2023-10-21T07:13:04Z</time>
      </trkpt>
      <trkpt lat="22.559564" lon="113.966961">
        <ele>39.5</ele>
        <time>2023-10-21T07:13:05Z</time>
      </trkpt>
      <trkpt lat="22.559537" lon="113.96701">
        <ele>39.5</ele>
        <time>2023-10-21T07:13:06Z</time>
      </trkpt>
      <trkpt lat="22.55952" lon="113.967065">
        <ele>39.5</ele>
        <time>2023-10-21T07:13:07Z</time>
      </trkpt>
      <trkpt lat="22.559517" lon="113.967115">
        <ele>39.5</ele>
        <time>2023-10-21T07:13:08Z</time>
      </trkpt>
      <trkpt lat="22.559512" lon="113.967164">
        <ele>39.5</ele>
        <time>2023-10-21T07:13:09Z</time>
      </trkpt>
      <trkpt lat="22.559501" lon="113.967213">
        <ele>39.5</ele>
        <time>2023-10-21T07:13:10Z</time>
      </trkpt>
      <trkpt lat="22.559487" lon="113.967259">
        <ele>39.5</ele>
        <time>2023-10-21T07:13:11Z</time>
      </trkpt>
      <trkpt lat="22.55947" lon="113.967305">
        <ele>39.5</ele>
        <time>2023-10-21T07:13:12Z</time>
      </trkpt>
      <trkpt lat="22.559452" lon="113.96735">
        <ele>39.5</ele>
        <time>2023-10-21T07:13:13Z</time>
      </trkpt>
      <trkpt lat="22.559431" lon="113.96739">
        <ele>39.4</ele>
        <time>2023-10-21T07:13:14Z</time>
      </trkpt>
      <trkpt lat="22.559415" lon="113.96742">
        <ele>39.4</ele>
        <time>2023-10-21T07:13:15Z</time>
      </trkpt>
      <trkpt lat="22.559403" lon="113.967451">
        <ele>39.4</ele>
        <time>2023-10-21T07:13:16Z</time>
      </trkpt>
      <trkpt lat="22.559395" lon="113.967481">
        <ele>39.4</ele>
        <time>2023-10-21T07:13:17Z</time>
      </trkpt>
      <trkpt lat="22.559388" lon="113.967506">
        <ele>39.4</ele>
        <time>2023-10-21T07:13:18Z</time>
      </trkpt>
      <trkpt lat="22.559385" lon="113.967524">
        <ele>39.4</ele>
        <time>2023-10-21T07:13:19Z</time>
      </trkpt>
      <trkpt lat="22.559377" lon="113.967547">
        <ele>39.4</ele>
        <time>2023-10-21T07:13:20Z</time>
      </trkpt>
      <trkpt lat="22.559367" lon="113.96757">
        <ele>39.4</ele>
        <time>2023-10-21T07:13:21Z</time>
      </trkpt>
      <trkpt lat="22.559356" lon="113.967586">
        <ele>39.4</ele>
        <time>2023-10-21T07:13:22Z</time>
      </trkpt>
      <trkpt lat="22.559345" lon="113.967594">
        <ele>39.4</ele>
        <time>2023-10-21T07:13:23Z</time>
      </trkpt>
      <trkpt lat="22.55934" lon="113.967601">
        <ele>39.4</ele>
        <time>2023-10-21T07:13:24Z</time>
      </trkpt>
      <trkpt lat="22.559341" lon="113.967612">
        <ele>39.4</ele>
        <time>2023-10-21T07:13:25Z</time>
      </trkpt>
      <trkpt lat="22.559341" lon="113.967627">
        <ele>39.4</ele>
        <time>2023-10-21T07:13:26Z</time>
      </trkpt>
      <trkpt lat="22.559339" lon="113.967645">
        <ele>39.4</ele>
        <time>2023-10-21T07:13:27Z</time>
      </trkpt>
      <trkpt lat="22.55934" lon="113.967665">
        <ele>39.4</ele>
        <time>2023-10-21T07:13:28Z</time>
      </trkpt>
      <trkpt lat="22.559331" lon="113.96769">
        <ele>39.4</ele>
        <time>2023-10-21T07:13:29Z</time>
      </trkpt>
      <trkpt lat="22.559312" lon="113.967726">
        <ele>39.4</ele>
        <time>2023-10-21T07:13:30Z</time>
      </trkpt>
      <trkpt lat="22.559283" lon="113.967756">
        <ele>39.4</ele>
        <time>2023-10-21T07:13:31Z</time>
      </trkpt>
      <trkpt lat="22.559265" lon="113.967787">
        <ele>39.4</ele>
        <time>2023-10-21T07:13:32Z</time>
      </trkpt>
      <trkpt lat="22.559273" lon="113.967816">
        <ele>39.4</ele>
        <time>2023-10-21T07:13:33Z</time>
      </trkpt>
      <trkpt lat="22.559281" lon="113.967863">
        <ele>39.4</ele>
        <time>2023-10-21T07:13:34Z</time>
      </trkpt>
      <trkpt lat="22.559288" lon="113.967923">
        <ele>39.4</ele>
        <time>2023-10-21T07:13:35Z</time>
      </trkpt>
      <trkpt lat="22.559304" lon="113.967957">
        <ele>39.3</ele>
        <time>2023-10-21T07:13:36Z</time>
      </trkpt>
      <trkpt lat="22.559328" lon="113.967992">
        <ele>39.3</ele>
        <time>2023-10-21T07:13:37Z</time>
      </trkpt>
      <trkpt lat="22.559343" lon="113.968019">
        <ele>39.3</ele>
        <time>2023-10-21T07:13:38Z</time>
      </trkpt>
      <trkpt lat="22.559353" lon="113.968045">
        <ele>39.3</ele>
        <time>2023-10-21T07:13:39Z</time>
      </trkpt>
      <trkpt lat="22.559357" lon="113.968074">
        <ele>39.3</ele>
        <time>2023-10-21T07:13:40Z</time>
      </trkpt>
      <trkpt lat="22.559359" lon="113.968113">
        <ele>39.3</ele>
        <time>2023-10-21T07:13:41Z</time>
      </trkpt>
      <trkpt lat="22.559357" lon="113.968162">
        <ele>39.3</ele>
        <time>2023-10-21T07:13:42Z</time>
      </trkpt>
      <trkpt lat="22.559353" lon="113.968197">
        <ele>39.3</ele>
        <time>2023-10-21T07:13:43Z</time>
      </trkpt>
      <trkpt lat="22.559347" lon="113.96823">
        <ele>39.3</ele>
        <time>2023-10-21T07:13:44Z</time>
      </trkpt>
      <trkpt lat="22.559336" lon="113.968266">
        <ele>39.3</ele>
        <time>2023-10-21T07:13:45Z</time>
      </trkpt>
      <trkpt lat="22.559327" lon="113.96829">
        <ele>39.3</ele>
        <time>2023-10-21T07:13:46Z</time>
      </trkpt>
      <trkpt lat="22.559322" lon="113.968312">
        <ele>39.3</ele>
        <time>2023-10-21T07:13:47Z</time>
      </trkpt>
      <trkpt lat="22.559319" lon="113.968336">
        <ele>39.3</ele>
        <time>2023-10-21T07:13:48Z</time>
      </trkpt>
      <trkpt lat="22.559314" lon="113.968349">
        <ele>39.3</ele>
        <time>2023-10-21T07:13:49Z</time>
      </trkpt>
      <trkpt lat="22.55931" lon="113.968353">
        <ele>39.3</ele>
        <time>2023-10-21T07:13:50Z</time>
      </trkpt>
      <trkpt lat="22.559307" lon="113.968356">
        <ele>39.3</ele>
        <time>2023-10-21T07:13:51Z</time>
      </trkpt>
      <trkpt lat="22.559307" lon="113.968364">
        <ele>39.3</ele>
        <time>2023-10-21T07:13:52Z</time>
      </trkpt>
      <trkpt lat="22.559303" lon="113.968377">
        <ele>39.3</ele>
        <time>2023-10-21T07:13:53Z</time>
      </trkpt>
      <trkpt lat="22.559304" lon="113.968403">
        <ele>39.3</ele>
        <time>2023-10-21T07:13:54Z</time>
      </trkpt>
      <trkpt lat="22.559315" lon="113.968433">
        <ele>39.3</ele>
        <time>2023-10-21T07:13:55Z</time>
      </trkpt>
      <trkpt lat="22.559313" lon="113.96847">
        <ele>39.3</ele>
        <time>2023-10-21T07:13:56Z</time>
      </trkpt>
      <trkpt lat="22.559303" lon="113.968519">
        <ele>39.2</ele>
        <time>2023-10-21T07:13:57Z</time>
      </trkpt>
      <trkpt lat="22.559291" lon="113.96857">
        <ele>39.2</ele>
        <time>2023-10-21T07:13:58Z</time>
      </trkpt>
      <trkpt lat="22.559281" lon="113.968612">
        <ele>39.2</ele>
        <time>2023-10-21T07:13:59Z</time>
      </trkpt>
      <trkpt lat="22.559263" lon="113.968657">
        <ele>39.2</ele>
        <time>2023-10-21T07:14:00Z</time>
      </trkpt>
      <trkpt lat="22.559244" lon="113.968706">
        <ele>39.2</ele>
        <time>2023-10-21T07:14:01Z</time>
      </trkpt>
      <trkpt lat="22.55923" lon="113.968749">
        <ele>39.2</ele>
        <time>2023-10-21T07:14:02Z</time>
      </trkpt>
      <trkpt lat="22.559214" lon="113.96879">
        <ele>39.2</ele>
        <time>2023-10-21T07:14:03Z</time>
      </trkpt>
      <trkpt lat="22.559204" lon="113.968833">
        <ele>39.2</ele>
        <time>2023-10-21T07:14:04Z</time>
      </trkpt>
      <trkpt lat="22.5592" lon="113.968874">
        <ele>39.3</ele>
        <time>2023-10-21T07:14:05Z</time>
      </trkpt>
      <trkpt lat="22.559197" lon="113.96892">
        <ele>39.3</ele>
        <time>2023-10-21T07:14:06Z</time>
      </trkpt>
      <trkpt lat="22.559187" lon="113.968959">
        <ele>39.3</ele>
        <time>2023-10-21T07:14:07Z</time>
      </trkpt>
      <trkpt lat="22.559167" lon="113.968993">
        <ele>39.3</ele>
        <time>2023-10-21T07:14:08Z</time>
      </trkpt>
      <trkpt lat="22.559149" lon="113.969028">
        <ele>39.3</ele>
        <time>2023-10-21T07:14:09Z</time>
      </trkpt>
      <trkpt lat="22.559134" lon="113.969065">
        <ele>39.3</ele>
        <time>2023-10-21T07:14:10Z</time>
      </trkpt>
      <trkpt lat="22.559129" lon="113.969107">
        <ele>39.3</ele>
        <time>2023-10-21T07:14:11Z</time>
      </trkpt>
      <trkpt lat="22.559127" lon="113.969148">
        <ele>39.4</ele>
        <time>2023-10-21T07:14:12Z</time>
      </trkpt>
      <trkpt lat="22.559125" lon="113.969195">
        <ele>39.4</ele>
        <time>2023-10-21T07:14:13Z</time>
      </trkpt>
      <trkpt lat="22.559123" lon="113.969238">
        <ele>39.4</ele>
        <time>2023-10-21T07:14:14Z</time>
      </trkpt>
      <trkpt lat="22.55912" lon="113.969282">
        <ele>39.4</ele>
        <time>2023-10-21T07:14:15Z</time>
      </trkpt>
      <trkpt lat="22.559113" lon="113.969332">
        <ele>39.4</ele>
        <time>2023-10-21T07:14:16Z</time>
      </trkpt>
      <trkpt lat="22.559102" lon="113.969381">
        <ele>39.4</ele>
        <time>2023-10-21T07:14:17Z</time>
      </trkpt>
      <trkpt lat="22.559091" lon="113.969436">
        <ele>39.5</ele>
        <time>2023-10-21T07:14:18Z</time>
      </trkpt>
      <trkpt lat="22.559081" lon="113.969485">
        <ele>39.5</ele>
        <time>2023-10-21T07:14:19Z</time>
      </trkpt>
      <trkpt lat="22.559067" lon="113.96953">
        <ele>39.5</ele>
        <time>2023-10-21T07:14:20Z</time>
      </trkpt>
      <trkpt lat="22.559054" lon="113.969576">
        <ele>39.5</ele>
        <time>2023-10-21T07:14:21Z</time>
      </trkpt>
      <trkpt lat="22.559041" lon="113.969622">
        <ele>39.5</ele>
        <time>2023-10-21T07:14:22Z</time>
      </trkpt>
      <trkpt lat="22.559031" lon="113.969668">
        <ele>39.6</ele>
        <time>2023-10-21T07:14:23Z</time>
      </trkpt>
      <trkpt lat="22.559024" lon="113.969711">
        <ele>39.6</ele>
        <time>2023-10-21T07:14:24Z</time>
      </trkpt>
      <trkpt lat="22.559016" lon="113.969748">
        <ele>39.6</ele>
        <time>2023-10-21T07:14:25Z</time>
      </trkpt>
      <trkpt lat="22.559006" lon="113.969789">
        <ele>39.6</ele>
        <time>2023-10-21T07:14:26Z</time>
      </trkpt>
      <trkpt lat="22.558996" lon="113.969832">
        <ele>39.6</ele>
        <time>2023-10-21T07:14:27Z</time>
      </trkpt>
      <trkpt lat="22.558987" lon="113.969871">
        <ele>39.6</ele>
        <time>2023-10-21T07:14:28Z</time>
      </trkpt>
      <trkpt lat="22.558978" lon="113.969911">
        <ele>39.6</ele>
        <time>2023-10-21T07:14:29Z</time>
      </trkpt>
      <trkpt lat="22.558971" lon="113.969951">
        <ele>39.7</ele>
        <time>2023-10-21T07:14:30Z</time>
      </trkpt>
      <trkpt lat="22.558966" lon="113.969988">
        <ele>39.7</ele>
        <time>2023-10-21T07:14:31Z</time>
      </trkpt>
      <trkpt lat="22.558969" lon="113.970035">
        <ele>39.7</ele>
        <time>2023-10-21T07:14:32Z</time>
      </trkpt>
      <trkpt lat="22.55897" lon="113.970077">
        <ele>39.7</ele>
        <time>2023-10-21T07:14:33Z</time>
      </trkpt>
      <trkpt lat="22.558966" lon="113.970117">
        <ele>39.7</ele>
        <time>2023-10-21T07:14:34Z</time>
      </trkpt>
      <trkpt lat="22.55896" lon="113.970161">
        <ele>39.7</ele>
        <time>2023-10-21T07:14:35Z</time>
      </trkpt>
      <trkpt lat="22.558955" lon="113.9702">
        <ele>39.8</ele>
        <time>2023-10-21T07:14:36Z</time>
      </trkpt>
      <trkpt lat="22.558955" lon="113.970237">
        <ele>39.8</ele>
        <time>2023-10-21T07:14:37Z</time>
      </trkpt>
      <trkpt lat="22.55896" lon="113.970275">
        <ele>39.8</ele>
        <time>2023-10-21T07:14:38Z</time>
      </trkpt>
      <trkpt lat="22.558972" lon="113.970311">
        <ele>39.8</ele>
        <time>2023-10-21T07:14:39Z</time>
      </trkpt>
      <trkpt lat="22.55899" lon="113.97034">
        <ele>39.8</ele>
        <time>2023-10-21T07:14:40Z</time>
      </trkpt>
      <trkpt lat="22.559014" lon="113.970368">
        <ele>39.8</ele>
        <time>2023-10-21T07:14:41Z</time>
      </trkpt>
      <trkpt lat="22.559043" lon="113.970385">
        <ele>39.8</ele>
        <time>2023-10-21T07:14:42Z</time>
      </trkpt>
      <trkpt lat="22.559082" lon="113.970393">
        <ele>39.8</ele>
        <time>2023-10-21T07:14:43Z</time>
      </trkpt>
      <trkpt lat="22.559128" lon="113.970401">
        <ele>39.9</ele>
        <time>2023-10-21T07:14:44Z</time>
      </trkpt>
      <trkpt lat="22.559168" lon="113.970408">
        <ele>39.9</ele>
        <time>2023-10-21T07:14:45Z</time>
      </trkpt>
      <trkpt lat="22.559204" lon="113.970419">
        <ele>39.9</ele>
        <time>2023-10-21T07:14:46Z</time>
      </trkpt>
      <trkpt lat="22.55924" lon="113.970431">
        <ele>39.9</ele>
        <time>2023-10-21T07:14:47Z</time>
      </trkpt>
      <trkpt lat="22.559274" lon="113.970439">
        <ele>39.9</ele>
        <time>2023-10-21T07:14:48Z</time>
      </trkpt>
      <trkpt lat="22.559306" lon="113.970449">
        <ele>39.9</ele>
        <time>2023-10-21T07:14:49Z</time>
      </trkpt>
      <trkpt lat="22.559337" lon="113.970456">
        <ele>39.9</ele>
        <time>2023-10-21T07:14:50Z</time>
      </trkpt>
      <trkpt lat="22.559371" lon="113.970454">
        <ele>39.9</ele>
        <time>2023-10-21T07:14:51Z</time>
      </trkpt>
      <trkpt lat="22.559405" lon="113.970459">
        <ele>39.9</ele>
        <time>2023-10-21T07:14:52Z</time>
      </trkpt>
      <trkpt lat="22.559434" lon="113.970456">
        <ele>39.9</ele>
        <time>2023-10-21T07:14:53Z</time>
      </trkpt>
      <trkpt lat="22.559459" lon="113.970448">
        <ele>39.9</ele>
        <time>2023-10-21T07:14:54Z</time>
      </trkpt>
      <trkpt lat="22.559481" lon="113.970444">
        <ele>39.9</ele>
        <time>2023-10-21T07:14:55Z</time>
      </trkpt>
      <trkpt lat="22.559507" lon="113.970444">
        <ele>39.9</ele>
        <time>2023-10-21T07:14:56Z</time>
      </trkpt>
      <trkpt lat="22.559527" lon="113.970441">
        <ele>39.9</ele>
        <time>2023-10-21T07:14:57Z</time>
      </trkpt>
      <trkpt lat="22.559536" lon="113.970433">
        <ele>39.9</ele>
        <time>2023-10-21T07:14:58Z</time>
      </trkpt>
      <trkpt lat="22.559545" lon="113.970423">
        <ele>39.9</ele>
        <time>2023-10-21T07:14:59Z</time>
      </trkpt>
      <trkpt lat="22.559556" lon="113.970408">
        <ele>39.9</ele>
        <time>2023-10-21T07:15:00Z</time>
      </trkpt>
      <trkpt lat="22.559565" lon="113.970392">
        <ele>39.9</ele>
        <time>2023-10-21T07:15:01Z</time>
      </trkpt>
      <trkpt lat="22.559584" lon="113.97038">
        <ele>39.9</ele>
        <time>2023-10-21T07:15:02Z</time>
      </trkpt>
      <trkpt lat="22.559604" lon="113.970378">
        <ele>39.9</ele>
        <time>2023-10-21T07:15:03Z</time>
      </trkpt>
      <trkpt lat="22.559623" lon="113.970386">
        <ele>39.9</ele>
        <time>2023-10-21T07:15:04Z</time>
      </trkpt>
      <trkpt lat="22.559636" lon="113.970393">
        <ele>39.9</ele>
        <time>2023-10-21T07:15:05Z</time>
      </trkpt>
      <trkpt lat="22.559649" lon="113.970401">
        <ele>39.9</ele>
        <time>2023-10-21T07:15:06Z</time>
      </trkpt>
      <trkpt lat="22.559662" lon="113.970406">
        <ele>39.9</ele>
        <time>2023-10-21T07:15:07Z</time>
      </trkpt>
      <trkpt lat="22.55967" lon="113.970406">
        <ele>39.9</ele>
        <time>2023-10-21T07:15:08Z</time>
      </trkpt>
      <trkpt lat="22.55956" lon="113.970193">
        <ele>39.9</ele>
        <time>2023-10-21T07:16:52Z</time>
      </trkpt>
      <trkpt lat="22.559567" lon="113.970173">
        <ele>39.9</ele>
        <time>2023-10-21T07:16:53Z</time>
      </trkpt>
      <trkpt lat="22.559573" lon="113.970158">
        <ele>39.9</ele>
        <time>2023-10-21T07:16:54Z</time>
      </trkpt>
      <trkpt lat="22.559581" lon="113.970144">
        <ele>39.9</ele>
        <time>2023-10-21T07:16:55Z</time>
      </trkpt>
      <trkpt lat="22.559587" lon="113.970124">
        <ele>39.9</ele>
        <time>2023-10-21T07:16:56Z</time>
      </trkpt>
      <trkpt lat="22.559586" lon="113.970112">
        <ele>39.9</ele>
        <time>2023-10-21T07:16:57Z</time>
      </trkpt>
      <trkpt lat="22.55958" lon="113.970102">
        <ele>39.9</ele>
        <time>2023-10-21T07:16:58Z</time>
      </trkpt>
      <trkpt lat="22.559576" lon="113.970086">
        <ele>39.9</ele>
        <time>2023-10-21T07:16:59Z</time>
      </trkpt>
      <trkpt lat="22.559574" lon="113.970071">
        <ele>39.9</ele>
        <time>2023-10-21T07:17:00Z</time>
      </trkpt>
      <trkpt lat="22.559576" lon="113.970052">
        <ele>39.9</ele>
        <time>2023-10-21T07:17:01Z</time>
      </trkpt>
      <trkpt lat="22.55958" lon="113.970036">
        <ele>39.9</ele>
        <time>2023-10-21T07:17:02Z</time>
      </trkpt>
      <trkpt lat="22.559582" lon="113.970028">
        <ele>39.9</ele>
        <time>2023-10-21T07:17:03Z</time>
      </trkpt>
      <trkpt lat="22.559588" lon="113.970018">
        <ele>39.9</ele>
        <time>2023-10-21T07:17:04Z</time>
      </trkpt>
      <trkpt lat="22.559592" lon="113.970009">
        <ele>39.9</ele>
        <time>2023-10-21T07:17:05Z</time>
      </trkpt>
      <trkpt lat="22.55959" lon="113.970002">
        <ele>39.9</ele>
        <time>2023-10-21T07:17:06Z</time>
      </trkpt>
      <trkpt lat="22.559587" lon="113.96999">
        <ele>39.9</ele>
        <time>2023-10-21T07:17:07Z</time>
      </trkpt>
      <trkpt lat="22.55959" lon="113.96998">
        <ele>39.9</ele>
        <time>2023-10-21T07:17:08Z</time>
      </trkpt>
      <trkpt lat="22.559593" lon="113.969971">
        <ele>39.9</ele>
        <time>2023-10-21T07:17:09Z</time>
      </trkpt>
      <trkpt lat="22.559598" lon="113.969967">
        <ele>39.9</ele>
        <time>2023-10-21T07:17:10Z</time>
      </trkpt>
      <trkpt lat="22.559602" lon="113.969957">
        <ele>39.9</ele>
        <time>2023-10-21T07:17:11Z</time>
      </trkpt>
      <trkpt lat="22.559604" lon="113.969945">
        <ele>39.9</ele>
        <time>2023-10-21T07:17:12Z</time>
      </trkpt>
    </trkseg>
  </trk>
</gpx>