<?xml version="1.0" encoding="UTF-8"?>
<gpx xmlns="http://www.topografix.com/GPX/1/1" xmlns:xsi="http://www.w3.org/2001/XMLSchema-instance" xsi:schemaLocation="http://www.topografix.com/GPX/1/1 http://www.topografix.com/GPX/1/1/gpx.xsd" version="1.1" creator="鹏">
  <metadata>
    <name>Gravel Ride (Completed)</name>
    <desc>Distance: 5.055km, Estimated duration: 0.32h, Elevation up: 17.11692518788642m, Elevation down: 23.77717551882566m</desc>
    <author>
      <name>鹏</name>
      <link href="https://www.komoot.de/user/3342641231843">
        <text>View 鹏's Profile on Komoot</text>
      </link>
    </author>
    <link href="https://www.komoot.de/tour/1360510151">
      <text>View tour on Komoot</text>
    </link>
  </metadata>
  <trk>
    <name>Gravel Ride (Completed)</name>
    <desc>Distance: 5.055km, Estimated duration: 0.32h, Elevation up: 17.11692518788642m, Elevation down: 23.77717551882566m</desc>
    <link href="https://www.komoot.de/tour/1360510151">
      <text>View tour on Komoot</text>
    </link>
    <trkseg>
      <trkpt lat="22.228939" lon="113.300731">
        <ele>14.9</ele>
        <time>2023-10-28T08:10:12.163000+0800</time>
      </trkpt>
      <trkpt lat="22.22888" lon="113.300658">
        <ele>14.9</ele>
        <time>2023-10-28T08:10:30.312000+0800</time>
      </trkpt>
      <trkpt lat="22.228868" lon="113.300554">
        <ele>14.9</ele>
        <time>2023-10-28T08:10:37.326000+0800</time>
      </trkpt>
      <trkpt lat="22.228916" lon="113.300462">
        <ele>14.9</ele>
        <time>2023-10-28T08:10:45.343000+0800</time>
      </trkpt>
      <trkpt lat="22.228956" lon="113.300367">
        <ele>14.9</ele>
        <time>2023-10-28T08:10:53.280000+0800</time>
      </trkpt>
      <trkpt lat="22.228994" lon="113.300272">
        <ele>14.9</ele>
        <time>2023-10-28T08:11:05.312000+0800</time>
      </trkpt>
      <trkpt lat="22.229044" lon="113.300182">
        <ele>14.9</ele>
        <time>2023-10-28T08:11:12.282000+0800</time>
      </trkpt>
      <trkpt lat="22.229003" lon="113.300096">
        <ele>14.9</ele>
        <time>2023-10-28T08:11:20.322000+0800</time>
      </trkpt>
      <trkpt lat="22.228924" lon="113.300028">
        <ele>14.9</ele>
        <time>2023-10-28T08:11:27.302000+0800</time>
      </trkpt>
      <trkpt lat="22.228832" lon="113.29998">
        <ele>14.9</ele>
        <time>2023-10-28T08:11:37.321000+0800</time>
      </trkpt>
      <trkpt lat="22.228753" lon="113.299932">
        <ele>14.9</ele>
        <time>2023-10-28T08:11:45.303000+0800</time>
      </trkpt>
      <trkpt lat="22.228676" lon="113.299877">
        <ele>14.8</ele>
        <time>2023-10-28T08:11:52.293000+0800</time>
      </trkpt>
      <trkpt lat="22.2286" lon="113.299822">
        <ele>14.6</ele>
        <time>2023-10-28T08:12:01.293000+0800</time>
      </trkpt>
      <trkpt lat="22.228512" lon="113.299844">
        <ele>14.5</ele>
        <time>2023-10-28T08:12:11.306000+0800</time>
      </trkpt>
      <trkpt lat="22.228446" lon="113.299931">
        <ele>14.4</ele>
        <time>2023-10-28T08:12:20.296000+0800</time>
      </trkpt>
      <trkpt lat="22.22837" lon="113.299995">
        <ele>14.3</ele>
        <time>2023-10-28T08:12:29.277000+0800</time>
      </trkpt>
      <trkpt lat="22.228275" lon="113.300036">
        <ele>14.2</ele>
        <time>2023-10-28T08:12:36.321000+0800</time>
      </trkpt>
      <trkpt lat="22.228194" lon="113.30008">
        <ele>14.1</ele>
        <time>2023-10-28T08:12:43.271000+0800</time>
      </trkpt>
      <trkpt lat="22.228122" lon="113.300152">
        <ele>14</ele>
        <time>2023-10-28T08:12:52.337000+0800</time>
      </trkpt>
      <trkpt lat="22.228049" lon="113.300224">
        <ele>13.8</ele>
        <time>2023-10-28T08:12:59.319000+0800</time>
      </trkpt>
      <trkpt lat="22.227976" lon="113.300285">
        <ele>13.7</ele>
        <time>2023-10-28T08:13:09.305000+0800</time>
      </trkpt>
      <trkpt lat="22.227893" lon="113.300355">
        <ele>13.6</ele>
        <time>2023-10-28T08:13:17.314000+0800</time>
      </trkpt>
      <trkpt lat="22.227818" lon="113.300419">
        <ele>13.5</ele>
        <time>2023-10-28T08:13:23.275000+0800</time>
      </trkpt>
      <trkpt lat="22.227746" lon="113.300496">
        <ele>13.4</ele>
        <time>2023-10-28T08:13:34.288000+0800</time>
      </trkpt>
      <trkpt lat="22.227664" lon="113.300566">
        <ele>13.3</ele>
        <time>2023-10-28T08:13:41.349000+0800</time>
      </trkpt>
      <trkpt lat="22.227588" lon="113.300618">
        <ele>13.1</ele>
        <time>2023-10-28T08:13:52.307000+0800</time>
      </trkpt>
      <trkpt lat="22.227501" lon="113.300669">
        <ele>13</ele>
        <time>2023-10-28T08:13:59.317000+0800</time>
      </trkpt>
      <trkpt lat="22.227443" lon="113.300758">
        <ele>12.9</ele>
        <time>2023-10-28T08:14:09.340000+0800</time>
      </trkpt>
      <trkpt lat="22.227371" lon="113.300835">
        <ele>12.8</ele>
        <time>2023-10-28T08:14:16.287000+0800</time>
      </trkpt>
      <trkpt lat="22.227306" lon="113.300907">
        <ele>12.4</ele>
        <time>2023-10-28T08:14:25.321000+0800</time>
      </trkpt>
      <trkpt lat="22.227215" lon="113.300955">
        <ele>12</ele>
        <time>2023-10-28T08:14:32.335000+0800</time>
      </trkpt>
      <trkpt lat="22.227143" lon="113.301016">
        <ele>11.7</ele>
        <time>2023-10-28T08:14:38.294000+0800</time>
      </trkpt>
      <trkpt lat="22.227064" lon="113.301068">
        <ele>11.4</ele>
        <time>2023-10-28T08:14:47.331000+0800</time>
      </trkpt>
      <trkpt lat="22.22699" lon="113.301138">
        <ele>11</ele>
        <time>2023-10-28T08:14:57.302000+0800</time>
      </trkpt>
      <trkpt lat="22.226918" lon="113.301218">
        <ele>10.6</ele>
        <time>2023-10-28T08:15:03.294000+0800</time>
      </trkpt>
      <trkpt lat="22.22682" lon="113.301244">
        <ele>10.3</ele>
        <time>2023-10-28T08:15:15.287000+0800</time>
      </trkpt>
      <trkpt lat="22.226731" lon="113.301223">
        <ele>9.9</ele>
        <time>2023-10-28T08:15:22.305000+0800</time>
      </trkpt>
      <trkpt lat="22.22663" lon="113.301262">
        <ele>9.5</ele>
        <time>2023-10-28T08:15:32.280000+0800</time>
      </trkpt>
      <trkpt lat="22.226526" lon="113.301299">
        <ele>9.1</ele>
        <time>2023-10-28T08:15:42.315000+0800</time>
      </trkpt>
      <trkpt lat="22.226441" lon="113.301343">
        <ele>8.8</ele>
        <time>2023-10-28T08:15:48.299000+0800</time>
      </trkpt>
      <trkpt lat="22.226351" lon="113.301322">
        <ele>8.5</ele>
        <time>2023-10-28T08:15:58.289000+0800</time>
      </trkpt>
      <trkpt lat="22.226164" lon="113.301415">
        <ele>7.7</ele>
        <time>2023-10-28T08:17:13.267000+0800</time>
      </trkpt>
      <trkpt lat="22.226083" lon="113.301461">
        <ele>7.4</ele>
        <time>2023-10-28T08:17:27.251000+0800</time>
      </trkpt>
      <trkpt lat="22.225998" lon="113.301515">
        <ele>7</ele>
        <time>2023-10-28T08:17:34.268000+0800</time>
      </trkpt>
      <trkpt lat="22.225898" lon="113.301527">
        <ele>6.7</ele>
        <time>2023-10-28T08:17:43.273000+0800</time>
      </trkpt>
      <trkpt lat="22.225845" lon="113.301445">
        <ele>6.3</ele>
        <time>2023-10-28T08:17:51.255000+0800</time>
      </trkpt>
      <trkpt lat="22.225773" lon="113.301373">
        <ele>6.1</ele>
        <time>2023-10-28T08:18:01.262000+0800</time>
      </trkpt>
      <trkpt lat="22.225717" lon="113.301287">
        <ele>6</ele>
        <time>2023-10-28T08:18:09.268000+0800</time>
      </trkpt>
      <trkpt lat="22.225669" lon="113.301188">
        <ele>5.8</ele>
        <time>2023-10-28T08:18:18.289000+0800</time>
      </trkpt>
      <trkpt lat="22.225598" lon="113.301114">
        <ele>5.7</ele>
        <time>2023-10-28T08:18:26.270000+0800</time>
      </trkpt>
      <trkpt lat="22.225527" lon="113.301054">
        <ele>5.5</ele>
        <time>2023-10-28T08:18:34.269000+0800</time>
      </trkpt>
      <trkpt lat="22.225464" lon="113.300973">
        <ele>5.4</ele>
        <time>2023-10-28T08:18:44.286000+0800</time>
      </trkpt>
      <trkpt lat="22.225428" lon="113.300874">
        <ele>5.3</ele>
        <time>2023-10-28T08:18:51.262000+0800</time>
      </trkpt>
      <trkpt lat="22.225391" lon="113.300783">
        <ele>5.1</ele>
        <time>2023-10-28T08:18:58.257000+0800</time>
      </trkpt>
      <trkpt lat="22.225321" lon="113.300705">
        <ele>5</ele>
        <time>2023-10-28T08:19:06.251000+0800</time>
      </trkpt>
      <trkpt lat="22.22527" lon="113.300616">
        <ele>4.8</ele>
        <time>2023-10-28T08:19:13.264000+0800</time>
      </trkpt>
      <trkpt lat="22.225203" lon="113.300548">
        <ele>4.7</ele>
        <time>2023-10-28T08:19:20.271000+0800</time>
      </trkpt>
      <trkpt lat="22.225148" lon="113.30047">
        <ele>4.6</ele>
        <time>2023-10-28T08:19:28.279000+0800</time>
      </trkpt>
      <trkpt lat="22.225073" lon="113.300411">
        <ele>4.4</ele>
        <time>2023-10-28T08:19:37.263000+0800</time>
      </trkpt>
      <trkpt lat="22.22502" lon="113.300325">
        <ele>4.3</ele>
        <time>2023-10-28T08:19:45.270000+0800</time>
      </trkpt>
      <trkpt lat="22.224978" lon="113.300238">
        <ele>4.1</ele>
        <time>2023-10-28T08:19:52.266000+0800</time>
      </trkpt>
      <trkpt lat="22.224906" lon="113.300166">
        <ele>4</ele>
        <time>2023-10-28T08:20:03.242000+0800</time>
      </trkpt>
      <trkpt lat="22.224855" lon="113.300072">
        <ele>3.9</ele>
        <time>2023-10-28T08:20:07.258000+0800</time>
      </trkpt>
      <trkpt lat="22.224811" lon="113.299963">
        <ele>3.7</ele>
        <time>2023-10-28T08:20:11.249000+0800</time>
      </trkpt>
      <trkpt lat="22.22476" lon="113.299872">
        <ele>3.6</ele>
        <time>2023-10-28T08:20:14.266000+0800</time>
      </trkpt>
      <trkpt lat="22.224694" lon="113.299769">
        <ele>3.8</ele>
        <time>2023-10-28T08:20:18.265000+0800</time>
      </trkpt>
      <trkpt lat="22.224619" lon="113.299708">
        <ele>3.9</ele>
        <time>2023-10-28T08:20:21.258000+0800</time>
      </trkpt>
      <trkpt lat="22.224556" lon="113.299618">
        <ele>4.1</ele>
        <time>2023-10-28T08:20:25.261000+0800</time>
      </trkpt>
      <trkpt lat="22.224499" lon="113.29953">
        <ele>4.3</ele>
        <time>2023-10-28T08:20:28.282000+0800</time>
      </trkpt>
      <trkpt lat="22.224763" lon="113.299677">
        <ele>4.7</ele>
        <time>2023-10-28T08:20:56.315000+0800</time>
      </trkpt>
      <trkpt lat="22.224901" lon="113.299824">
        <ele>5</ele>
        <time>2023-10-28T08:20:58.311000+0800</time>
      </trkpt>
      <trkpt lat="22.224969" lon="113.299915">
        <ele>5.2</ele>
        <time>2023-10-28T08:20:59.320000+0800</time>
      </trkpt>
      <trkpt lat="22.22504" lon="113.300004">
        <ele>5.4</ele>
        <time>2023-10-28T08:21:00.317000+0800</time>
      </trkpt>
      <trkpt lat="22.225109" lon="113.300107">
        <ele>5.5</ele>
        <time>2023-10-28T08:21:01.353000+0800</time>
      </trkpt>
      <trkpt lat="22.225183" lon="113.300212">
        <ele>5.7</ele>
        <time>2023-10-28T08:21:02.302000+0800</time>
      </trkpt>
      <trkpt lat="22.225263" lon="113.300325">
        <ele>5.9</ele>
        <time>2023-10-28T08:21:03.317000+0800</time>
      </trkpt>
      <trkpt lat="22.225335" lon="113.300431">
        <ele>6.1</ele>
        <time>2023-10-28T08:21:04.320000+0800</time>
      </trkpt>
      <trkpt lat="22.225407" lon="113.300542">
        <ele>6.3</ele>
        <time>2023-10-28T08:21:05.337000+0800</time>
      </trkpt>
      <trkpt lat="22.225481" lon="113.300652">
        <ele>6.7</ele>
        <time>2023-10-28T08:21:06.339000+0800</time>
      </trkpt>
      <trkpt lat="22.225554" lon="113.300762">
        <ele>7.1</ele>
        <time>2023-10-28T08:21:07.341000+0800</time>
      </trkpt>
      <trkpt lat="22.225622" lon="113.30087">
        <ele>7.5</ele>
        <time>2023-10-28T08:21:08.349000+0800</time>
      </trkpt>
      <trkpt lat="22.225693" lon="113.300982">
        <ele>7.9</ele>
        <time>2023-10-28T08:21:09.340000+0800</time>
      </trkpt>
      <trkpt lat="22.225758" lon="113.301088">
        <ele>8.3</ele>
        <time>2023-10-28T08:21:10.356000+0800</time>
      </trkpt>
      <trkpt lat="22.22582" lon="113.301192">
        <ele>8.7</ele>
        <time>2023-10-28T08:21:11.346000+0800</time>
      </trkpt>
      <trkpt lat="22.225884" lon="113.301291">
        <ele>9.1</ele>
        <time>2023-10-28T08:21:12.317000+0800</time>
      </trkpt>
      <trkpt lat="22.225951" lon="113.301385">
        <ele>9.5</ele>
        <time>2023-10-28T08:21:13.355000+0800</time>
      </trkpt>
      <trkpt lat="22.226019" lon="113.30148">
        <ele>9.9</ele>
        <time>2023-10-28T08:21:14.347000+0800</time>
      </trkpt>
      <trkpt lat="22.226086" lon="113.301563">
        <ele>10.2</ele>
        <time>2023-10-28T08:21:15.345000+0800</time>
      </trkpt>
      <trkpt lat="22.226157" lon="113.301641">
        <ele>10.5</ele>
        <time>2023-10-28T08:21:16.347000+0800</time>
      </trkpt>
      <trkpt lat="22.226224" lon="113.301718">
        <ele>10.9</ele>
        <time>2023-10-28T08:21:17.349000+0800</time>
      </trkpt>
      <trkpt lat="22.22629" lon="113.301795">
        <ele>11.2</ele>
        <time>2023-10-28T08:21:18.361000+0800</time>
      </trkpt>
      <trkpt lat="22.226354" lon="113.301873">
        <ele>11.5</ele>
        <time>2023-10-28T08:21:19.333000+0800</time>
      </trkpt>
      <trkpt lat="22.226418" lon="113.30195">
        <ele>11.8</ele>
        <time>2023-10-28T08:21:20.334000+0800</time>
      </trkpt>
      <trkpt lat="22.226489" lon="113.30203">
        <ele>12.2</ele>
        <time>2023-10-28T08:21:21.323000+0800</time>
      </trkpt>
      <trkpt lat="22.226568" lon="113.302103">
        <ele>12.5</ele>
        <time>2023-10-28T08:21:22.333000+0800</time>
      </trkpt>
      <trkpt lat="22.226658" lon="113.302185">
        <ele>12.6</ele>
        <time>2023-10-28T08:21:23.340000+0800</time>
      </trkpt>
      <trkpt lat="22.226749" lon="113.302268">
        <ele>12.6</ele>
        <time>2023-10-28T08:21:24.341000+0800</time>
      </trkpt>
      <trkpt lat="22.226834" lon="113.302352">
        <ele>12.7</ele>
        <time>2023-10-28T08:21:25.344000+0800</time>
      </trkpt>
      <trkpt lat="22.226914" lon="113.302432">
        <ele>12.8</ele>
        <time>2023-10-28T08:21:26.341000+0800</time>
      </trkpt>
      <trkpt lat="22.226997" lon="113.302512">
        <ele>12.9</ele>
        <time>2023-10-28T08:21:27.341000+0800</time>
      </trkpt>
      <trkpt lat="22.227088" lon="113.302595">
        <ele>13</ele>
        <time>2023-10-28T08:21:28.337000+0800</time>
      </trkpt>
      <trkpt lat="22.227187" lon="113.302679">
        <ele>13.1</ele>
        <time>2023-10-28T08:21:29.321000+0800</time>
      </trkpt>
      <trkpt lat="22.22728" lon="113.302766">
        <ele>13.1</ele>
        <time>2023-10-28T08:21:30.346000+0800</time>
      </trkpt>
      <trkpt lat="22.227375" lon="113.302835">
        <ele>13.2</ele>
        <time>2023-10-28T08:21:31.326000+0800</time>
      </trkpt>
      <trkpt lat="22.227476" lon="113.3029">
        <ele>13.3</ele>
        <time>2023-10-28T08:21:32.347000+0800</time>
      </trkpt>
      <trkpt lat="22.227571" lon="113.302969">
        <ele>13.4</ele>
        <time>2023-10-28T08:21:33.309000+0800</time>
      </trkpt>
      <trkpt lat="22.227666" lon="113.303032">
        <ele>13.5</ele>
        <time>2023-10-28T08:21:34.322000+0800</time>
      </trkpt>
      <trkpt lat="22.227761" lon="113.303102">
        <ele>13.6</ele>
        <time>2023-10-28T08:21:35.311000+0800</time>
      </trkpt>
      <trkpt lat="22.227866" lon="113.303169">
        <ele>13.6</ele>
        <time>2023-10-28T08:21:36.344000+0800</time>
      </trkpt>
      <trkpt lat="22.227969" lon="113.303242">
        <ele>13.7</ele>
        <time>2023-10-28T08:21:37.368000+0800</time>
      </trkpt>
      <trkpt lat="22.228074" lon="113.303315">
        <ele>13.5</ele>
        <time>2023-10-28T08:21:38.344000+0800</time>
      </trkpt>
      <trkpt lat="22.228176" lon="113.30339">
        <ele>13.2</ele>
        <time>2023-10-28T08:21:39.311000+0800</time>
      </trkpt>
      <trkpt lat="22.228282" lon="113.303467">
        <ele>13</ele>
        <time>2023-10-28T08:21:40.325000+0800</time>
      </trkpt>
      <trkpt lat="22.228382" lon="113.303546">
        <ele>12.7</ele>
        <time>2023-10-28T08:21:41.324000+0800</time>
      </trkpt>
      <trkpt lat="22.228473" lon="113.303622">
        <ele>12.4</ele>
        <time>2023-10-28T08:21:42.339000+0800</time>
      </trkpt>
      <trkpt lat="22.228564" lon="113.303705">
        <ele>12.2</ele>
        <time>2023-10-28T08:21:43.333000+0800</time>
      </trkpt>
      <trkpt lat="22.228651" lon="113.303785">
        <ele>11.9</ele>
        <time>2023-10-28T08:21:44.343000+0800</time>
      </trkpt>
      <trkpt lat="22.228739" lon="113.303864">
        <ele>11.7</ele>
        <time>2023-10-28T08:21:45.340000+0800</time>
      </trkpt>
      <trkpt lat="22.22882" lon="113.303938">
        <ele>11.5</ele>
        <time>2023-10-28T08:21:46.331000+0800</time>
      </trkpt>
      <trkpt lat="22.228903" lon="113.304009">
        <ele>11.2</ele>
        <time>2023-10-28T08:21:47.335000+0800</time>
      </trkpt>
      <trkpt lat="22.228989" lon="113.304079">
        <ele>11</ele>
        <time>2023-10-28T08:21:48.308000+0800</time>
      </trkpt>
      <trkpt lat="22.229076" lon="113.304146">
        <ele>10.8</ele>
        <time>2023-10-28T08:21:49.339000+0800</time>
      </trkpt>
      <trkpt lat="22.229158" lon="113.304212">
        <ele>10.6</ele>
        <time>2023-10-28T08:21:50.333000+0800</time>
      </trkpt>
      <trkpt lat="22.229241" lon="113.304278">
        <ele>10.3</ele>
        <time>2023-10-28T08:21:51.332000+0800</time>
      </trkpt>
      <trkpt lat="22.229381" lon="113.304387">
        <ele>10</ele>
        <time>2023-10-28T08:21:53.327000+0800</time>
      </trkpt>
      <trkpt lat="22.229454" lon="113.304446">
        <ele>9.9</ele>
        <time>2023-10-28T08:21:54.311000+0800</time>
      </trkpt>
      <trkpt lat="22.22958" lon="113.304553">
        <ele>9.9</ele>
        <time>2023-10-28T08:21:56.346000+0800</time>
      </trkpt>
      <trkpt lat="22.229699" lon="113.304655">
        <ele>10</ele>
        <time>2023-10-28T08:21:58.340000+0800</time>
      </trkpt>
      <trkpt lat="22.229823" lon="113.304742">
        <ele>10</ele>
        <time>2023-10-28T08:22:00.344000+0800</time>
      </trkpt>
      <trkpt lat="22.229944" lon="113.304824">
        <ele>10</ele>
        <time>2023-10-28T08:22:02.300000+0800</time>
      </trkpt>
      <trkpt lat="22.230065" lon="113.304907">
        <ele>10.1</ele>
        <time>2023-10-28T08:22:04.343000+0800</time>
      </trkpt>
      <trkpt lat="22.230174" lon="113.305005">
        <ele>10.1</ele>
        <time>2023-10-28T08:22:06.335000+0800</time>
      </trkpt>
      <trkpt lat="22.230289" lon="113.305103">
        <ele>10.1</ele>
        <time>2023-10-28T08:22:08.329000+0800</time>
      </trkpt>
      <trkpt lat="22.230408" lon="113.305205">
        <ele>10.2</ele>
        <time>2023-10-28T08:22:10.339000+0800</time>
      </trkpt>
      <trkpt lat="22.230494" lon="113.305298">
        <ele>10.2</ele>
        <time>2023-10-28T08:22:12.331000+0800</time>
      </trkpt>
      <trkpt lat="22.230578" lon="113.305402">
        <ele>10.2</ele>
        <time>2023-10-28T08:22:14.320000+0800</time>
      </trkpt>
      <trkpt lat="22.230652" lon="113.305508">
        <ele>10.3</ele>
        <time>2023-10-28T08:22:16.333000+0800</time>
      </trkpt>
      <trkpt lat="22.23067" lon="113.305728">
        <ele>10.3</ele>
        <time>2023-10-28T08:22:19.313000+0800</time>
      </trkpt>
      <trkpt lat="22.230648" lon="113.305841">
        <ele>10.3</ele>
        <time>2023-10-28T08:22:21.327000+0800</time>
      </trkpt>
      <trkpt lat="22.230628" lon="113.305967">
        <ele>10.3</ele>
        <time>2023-10-28T08:22:23.335000+0800</time>
      </trkpt>
      <trkpt lat="22.230633" lon="113.3061">
        <ele>10.3</ele>
        <time>2023-10-28T08:22:25.331000+0800</time>
      </trkpt>
      <trkpt lat="22.226933" lon="113.313896">
        <ele>9</ele>
        <time>2023-10-28T08:23:46.270000+0800</time>
      </trkpt>
      <trkpt lat="22.22686" lon="113.31399">
        <ele>8.9</ele>
        <time>2023-10-28T08:23:47.292000+0800</time>
      </trkpt>
      <trkpt lat="22.22681" lon="113.314121">
        <ele>8.8</ele>
        <time>2023-10-28T08:23:48.290000+0800</time>
      </trkpt>
      <trkpt lat="22.226773" lon="113.314271">
        <ele>8.7</ele>
        <time>2023-10-28T08:23:49.286000+0800</time>
      </trkpt>
      <trkpt lat="22.226719" lon="113.314403">
        <ele>8.7</ele>
        <time>2023-10-28T08:23:50.339000+0800</time>
      </trkpt>
      <trkpt lat="22.226668" lon="113.314501">
        <ele>8.5</ele>
        <time>2023-10-28T08:23:51.344000+0800</time>
      </trkpt>
      <trkpt lat="22.226613" lon="113.314602">
        <ele>8.3</ele>
        <time>2023-10-28T08:23:52.337000+0800</time>
      </trkpt>
      <trkpt lat="22.226559" lon="113.314705">
        <ele>8.2</ele>
        <time>2023-10-28T08:23:53.332000+0800</time>
      </trkpt>
      <trkpt lat="22.226503" lon="113.31482">
        <ele>8</ele>
        <time>2023-10-28T08:23:54.340000+0800</time>
      </trkpt>
      <trkpt lat="22.226446" lon="113.31494">
        <ele>7.8</ele>
        <time>2023-10-28T08:23:55.342000+0800</time>
      </trkpt>
      <trkpt lat="22.226389" lon="113.315069">
        <ele>7.6</ele>
        <time>2023-10-28T08:23:56.344000+0800</time>
      </trkpt>
      <trkpt lat="22.226333" lon="113.315201">
        <ele>7.4</ele>
        <time>2023-10-28T08:23:57.346000+0800</time>
      </trkpt>
      <trkpt lat="22.226275" lon="113.315336">
        <ele>7.1</ele>
        <time>2023-10-28T08:23:58.333000+0800</time>
      </trkpt>
      <trkpt lat="22.226219" lon="113.315473">
        <ele>6.9</ele>
        <time>2023-10-28T08:23:59.338000+0800</time>
      </trkpt>
      <trkpt lat="22.226161" lon="113.31561">
        <ele>6.7</ele>
        <time>2023-10-28T08:24:00.341000+0800</time>
      </trkpt>
      <trkpt lat="22.226104" lon="113.31575">
        <ele>6.5</ele>
        <time>2023-10-28T08:24:01.350000+0800</time>
      </trkpt>
      <trkpt lat="22.226042" lon="113.315893">
        <ele>6.3</ele>
        <time>2023-10-28T08:24:02.337000+0800</time>
      </trkpt>
      <trkpt lat="22.225979" lon="113.316039">
        <ele>6</ele>
        <time>2023-10-28T08:24:03.333000+0800</time>
      </trkpt>
      <trkpt lat="22.225918" lon="113.316186">
        <ele>5.9</ele>
        <time>2023-10-28T08:24:04.311000+0800</time>
      </trkpt>
      <trkpt lat="22.225846" lon="113.316338">
        <ele>5.9</ele>
        <time>2023-10-28T08:24:05.341000+0800</time>
      </trkpt>
      <trkpt lat="22.225773" lon="113.316488">
        <ele>5.9</ele>
        <time>2023-10-28T08:24:06.315000+0800</time>
      </trkpt>
      <trkpt lat="22.225698" lon="113.316638">
        <ele>6</ele>
        <time>2023-10-28T08:24:07.332000+0800</time>
      </trkpt>
      <trkpt lat="22.225621" lon="113.316791">
        <ele>6</ele>
        <time>2023-10-28T08:24:08.341000+0800</time>
      </trkpt>
      <trkpt lat="22.225551" lon="113.316932">
        <ele>6</ele>
        <time>2023-10-28T08:24:09.341000+0800</time>
      </trkpt>
      <trkpt lat="22.22548" lon="113.317068">
        <ele>6</ele>
        <time>2023-10-28T08:24:10.312000+0800</time>
      </trkpt>
      <trkpt lat="22.225402" lon="113.317208">
        <ele>6.1</ele>
        <time>2023-10-28T08:24:11.343000+0800</time>
      </trkpt>
      <trkpt lat="22.225319" lon="113.317351">
        <ele>6.1</ele>
        <time>2023-10-28T08:24:12.330000+0800</time>
      </trkpt>
      <trkpt lat="22.225233" lon="113.317496">
        <ele>6.1</ele>
        <time>2023-10-28T08:24:13.327000+0800</time>
      </trkpt>
      <trkpt lat="22.225146" lon="113.317629">
        <ele>6.2</ele>
        <time>2023-10-28T08:24:14.347000+0800</time>
      </trkpt>
      <trkpt lat="22.225057" lon="113.317764">
        <ele>6.2</ele>
        <time>2023-10-28T08:24:15.355000+0800</time>
      </trkpt>
      <trkpt lat="22.224971" lon="113.317897">
        <ele>6.2</ele>
        <time>2023-10-28T08:24:16.331000+0800</time>
      </trkpt>
      <trkpt lat="22.224885" lon="113.31803">
        <ele>6.2</ele>
        <time>2023-10-28T08:24:17.340000+0800</time>
      </trkpt>
      <trkpt lat="22.224799" lon="113.318157">
        <ele>6.2</ele>
        <time>2023-10-28T08:24:18.356000+0800</time>
      </trkpt>
      <trkpt lat="22.224709" lon="113.318289">
        <ele>6.2</ele>
        <time>2023-10-28T08:24:19.321000+0800</time>
      </trkpt>
      <trkpt lat="22.224614" lon="113.318423">
        <ele>6.1</ele>
        <time>2023-10-28T08:24:20.346000+0800</time>
      </trkpt>
      <trkpt lat="22.224513" lon="113.318554">
        <ele>6.1</ele>
        <time>2023-10-28T08:24:21.321000+0800</time>
      </trkpt>
      <trkpt lat="22.224409" lon="113.318676">
        <ele>6.1</ele>
        <time>2023-10-28T08:24:22.324000+0800</time>
      </trkpt>
      <trkpt lat="22.224316" lon="113.318784">
        <ele>6.1</ele>
        <time>2023-10-28T08:24:23.332000+0800</time>
      </trkpt>
      <trkpt lat="22.224235" lon="113.318881">
        <ele>6.1</ele>
        <time>2023-10-28T08:24:24.336000+0800</time>
      </trkpt>
      <trkpt lat="22.22416" lon="113.318968">
        <ele>6.1</ele>
        <time>2023-10-28T08:24:25.308000+0800</time>
      </trkpt>
      <trkpt lat="22.224088" lon="113.319049">
        <ele>6.1</ele>
        <time>2023-10-28T08:24:26.340000+0800</time>
      </trkpt>
      <trkpt lat="22.224014" lon="113.319132">
        <ele>6.1</ele>
        <time>2023-10-28T08:24:27.355000+0800</time>
      </trkpt>
      <trkpt lat="22.223938" lon="113.319208">
        <ele>6</ele>
        <time>2023-10-28T08:24:28.342000+0800</time>
      </trkpt>
      <trkpt lat="22.223808" lon="113.319322">
        <ele>5.9</ele>
        <time>2023-10-28T08:24:30.343000+0800</time>
      </trkpt>
      <trkpt lat="22.223675" lon="113.319421">
        <ele>5.6</ele>
        <time>2023-10-28T08:24:32.346000+0800</time>
      </trkpt>
      <trkpt lat="22.223559" lon="113.319506">
        <ele>5.3</ele>
        <time>2023-10-28T08:24:34.366000+0800</time>
      </trkpt>
      <trkpt lat="22.22345" lon="113.319523">
        <ele>5.1</ele>
        <time>2023-10-28T08:24:55.354000+0800</time>
      </trkpt>
      <trkpt lat="22.223362" lon="113.319604">
        <ele>4.9</ele>
        <time>2023-10-28T08:24:57.345000+0800</time>
      </trkpt>
      <trkpt lat="22.223259" lon="113.319702">
        <ele>4.6</ele>
        <time>2023-10-28T08:24:59.357000+0800</time>
      </trkpt>
      <trkpt lat="22.223114" lon="113.319812">
        <ele>4.2</ele>
        <time>2023-10-28T08:25:01.326000+0800</time>
      </trkpt>
      <trkpt lat="22.223029" lon="113.319871">
        <ele>4</ele>
        <time>2023-10-28T08:25:02.330000+0800</time>
      </trkpt>
      <trkpt lat="22.222944" lon="113.319938">
        <ele>3.8</ele>
        <time>2023-10-28T08:25:03.329000+0800</time>
      </trkpt>
      <trkpt lat="22.222853" lon="113.320007">
        <ele>3.6</ele>
        <time>2023-10-28T08:25:04.356000+0800</time>
      </trkpt>
      <trkpt lat="22.22276" lon="113.32008">
        <ele>3.4</ele>
        <time>2023-10-28T08:25:05.338000+0800</time>
      </trkpt>
      <trkpt lat="22.22266" lon="113.320153">
        <ele>3.1</ele>
        <time>2023-10-28T08:25:06.320000+0800</time>
      </trkpt>
      <trkpt lat="22.222557" lon="113.320226">
        <ele>2.9</ele>
        <time>2023-10-28T08:25:07.346000+0800</time>
      </trkpt>
      <trkpt lat="22.222449" lon="113.320299">
        <ele>2.6</ele>
        <time>2023-10-28T08:25:08.360000+0800</time>
      </trkpt>
      <trkpt lat="22.222339" lon="113.320372">
        <ele>2.4</ele>
        <time>2023-10-28T08:25:09.336000+0800</time>
      </trkpt>
      <trkpt lat="22.222219" lon="113.320435">
        <ele>2.4</ele>
        <time>2023-10-28T08:25:10.353000+0800</time>
      </trkpt>
      <trkpt lat="22.222098" lon="113.320497">
        <ele>2.4</ele>
        <time>2023-10-28T08:25:11.365000+0800</time>
      </trkpt>
      <trkpt lat="22.221981" lon="113.320556">
        <ele>2.4</ele>
        <time>2023-10-28T08:25:12.356000+0800</time>
      </trkpt>
      <trkpt lat="22.221884" lon="113.320607">
        <ele>2.3</ele>
        <time>2023-10-28T08:25:13.332000+0800</time>
      </trkpt>
      <trkpt lat="22.221792" lon="113.320651">
        <ele>2.3</ele>
        <time>2023-10-28T08:25:14.347000+0800</time>
      </trkpt>
      <trkpt lat="22.221707" lon="113.320687">
        <ele>2.3</ele>
        <time>2023-10-28T08:25:15.358000+0800</time>
      </trkpt>
      <trkpt lat="22.221545" lon="113.320759">
        <ele>2.3</ele>
        <time>2023-10-28T08:25:17.364000+0800</time>
      </trkpt>
      <trkpt lat="22.221387" lon="113.320812">
        <ele>2.3</ele>
        <time>2023-10-28T08:25:19.339000+0800</time>
      </trkpt>
      <trkpt lat="22.221305" lon="113.320857">
        <ele>2.2</ele>
        <time>2023-10-28T08:25:20.306000+0800</time>
      </trkpt>
      <trkpt lat="22.221209" lon="113.320921">
        <ele>2.2</ele>
        <time>2023-10-28T08:25:21.329000+0800</time>
      </trkpt>
      <trkpt lat="22.221122" lon="113.320972">
        <ele>2.2</ele>
        <time>2023-10-28T08:25:22.303000+0800</time>
      </trkpt>
      <trkpt lat="22.221019" lon="113.321025">
        <ele>2.2</ele>
        <time>2023-10-28T08:25:23.297000+0800</time>
      </trkpt>
      <trkpt lat="22.220913" lon="113.321078">
        <ele>2.2</ele>
        <time>2023-10-28T08:25:24.297000+0800</time>
      </trkpt>
      <trkpt lat="22.220803" lon="113.321121">
        <ele>2.2</ele>
        <time>2023-10-28T08:25:25.299000+0800</time>
      </trkpt>
      <trkpt lat="22.220697" lon="113.321162">
        <ele>2.2</ele>
        <time>2023-10-28T08:25:26.346000+0800</time>
      </trkpt>
      <trkpt lat="22.220587" lon="113.321197">
        <ele>2.2</ele>
        <time>2023-10-28T08:25:27.340000+0800</time>
      </trkpt>
      <trkpt lat="22.220476" lon="113.321231">
        <ele>2.3</ele>
        <time>2023-10-28T08:25:28.329000+0800</time>
      </trkpt>
      <trkpt lat="22.220365" lon="113.321265">
        <ele>2.4</ele>
        <time>2023-10-28T08:25:29.320000+0800</time>
      </trkpt>
      <trkpt lat="22.220365" lon="113.321265">
        <ele>2.4</ele>
        <time>2023-10-28T08:25:29.324000+0800</time>
      </trkpt>
      <trkpt lat="22.208645" lon="113.322882">
        <ele>8.3</ele>
        <time>2023-10-28T08:29:21.525000+0800</time>
      </trkpt>
    </trkseg>
  </trk>
</gpx>