<?xml version="1.0" encoding="UTF-8"?>
<gpx xmlns="http://www.topografix.com/GPX/1/1" xmlns:xsi="http://www.w3.org/2001/XMLSchema-instance" xsi:schemaLocation="http://www.topografix.com/GPX/1/1 http://www.topografix.com/GPX/1/1/gpx.xsd" version="1.1" creator="鹏">
  <metadata>
    <name>骑自行车 (Completed)</name>
    <desc>Distance: 1.506km, Estimated duration: 0.14h, Elevation up: 1.489882704385744m, Elevation down: 10.68415765582689m</desc>
    <author>
      <name>鹏</name>
      <link href="https://www.komoot.de/user/3342641231843">
        <text>View 鹏's Profile on Komoot</text>
      </link>
    </author>
    <link href="https://www.komoot.de/tour/1438022536">
      <text>View tour on Komoot</text>
    </link>
  </metadata>
  <trk>
    <name>骑自行车 (Completed)</name>
    <desc>Distance: 1.506km, Estimated duration: 0.14h, Elevation up: 1.489882704385744m, Elevation down: 10.68415765582689m</desc>
    <link href="https://www.komoot.de/tour/1438022536">
      <text>View tour on Komoot</text>
    </link>
    <trkseg>
      <trkpt lat="22.365831" lon="113.582001">
        <ele>17.1</ele>
        <time>2024-02-12T13:43:43Z</time>
      </trkpt>
      <trkpt lat="22.365831" lon="113.582001">
        <ele>17.1</ele>
        <time>2024-02-12T13:43:44Z</time>
      </trkpt>
      <trkpt lat="22.365833" lon="113.582001">
        <ele>17.1</ele>
        <time>2024-02-12T13:43:45Z</time>
      </trkpt>
      <trkpt lat="22.365831" lon="113.582001">
        <ele>17.1</ele>
        <time>2024-02-12T13:43:46Z</time>
      </trkpt>
      <trkpt lat="22.365824" lon="113.582001">
        <ele>17.1</ele>
        <time>2024-02-12T13:43:47Z</time>
      </trkpt>
      <trkpt lat="22.365822" lon="113.581998">
        <ele>17.1</ele>
        <time>2024-02-12T13:43:48Z</time>
      </trkpt>
      <trkpt lat="22.365819" lon="113.58199">
        <ele>17.1</ele>
        <time>2024-02-12T13:43:49Z</time>
      </trkpt>
      <trkpt lat="22.365811" lon="113.581983">
        <ele>17.1</ele>
        <time>2024-02-12T13:43:50Z</time>
      </trkpt>
      <trkpt lat="22.365801" lon="113.581975">
        <ele>17.1</ele>
        <time>2024-02-12T13:43:51Z</time>
      </trkpt>
      <trkpt lat="22.36579" lon="113.58197">
        <ele>17.1</ele>
        <time>2024-02-12T13:43:52Z</time>
      </trkpt>
      <trkpt lat="22.36578" lon="113.58197">
        <ele>17.1</ele>
        <time>2024-02-12T13:43:53Z</time>
      </trkpt>
      <trkpt lat="22.365772" lon="113.581975">
        <ele>17.1</ele>
        <time>2024-02-12T13:43:54Z</time>
      </trkpt>
      <trkpt lat="22.365768" lon="113.581993">
        <ele>17.1</ele>
        <time>2024-02-12T13:43:55Z</time>
      </trkpt>
      <trkpt lat="22.365762" lon="113.582013">
        <ele>17.1</ele>
        <time>2024-02-12T13:43:56Z</time>
      </trkpt>
      <trkpt lat="22.365755" lon="113.582029">
        <ele>17.1</ele>
        <time>2024-02-12T13:43:57Z</time>
      </trkpt>
      <trkpt lat="22.365749" lon="113.582044">
        <ele>17.1</ele>
        <time>2024-02-12T13:43:58Z</time>
      </trkpt>
      <trkpt lat="22.365742" lon="113.582059">
        <ele>17.1</ele>
        <time>2024-02-12T13:43:59Z</time>
      </trkpt>
      <trkpt lat="22.365739" lon="113.582074">
        <ele>17.1</ele>
        <time>2024-02-12T13:44:00Z</time>
      </trkpt>
      <trkpt lat="22.365733" lon="113.58209">
        <ele>17.1</ele>
        <time>2024-02-12T13:44:01Z</time>
      </trkpt>
      <trkpt lat="22.365723" lon="113.582105">
        <ele>17.1</ele>
        <time>2024-02-12T13:44:02Z</time>
      </trkpt>
      <trkpt lat="22.365708" lon="113.582115">
        <ele>17.1</ele>
        <time>2024-02-12T13:44:03Z</time>
      </trkpt>
      <trkpt lat="22.365693" lon="113.582113">
        <ele>17.1</ele>
        <time>2024-02-12T13:44:04Z</time>
      </trkpt>
      <trkpt lat="22.365684" lon="113.582103">
        <ele>17.1</ele>
        <time>2024-02-12T13:44:05Z</time>
      </trkpt>
      <trkpt lat="22.365693" lon="113.58209">
        <ele>17.1</ele>
        <time>2024-02-12T13:44:06Z</time>
      </trkpt>
      <trkpt lat="22.365707" lon="113.58208">
        <ele>17.1</ele>
        <time>2024-02-12T13:44:07Z</time>
      </trkpt>
      <trkpt lat="22.365721" lon="113.582069">
        <ele>17.1</ele>
        <time>2024-02-12T13:44:08Z</time>
      </trkpt>
      <trkpt lat="22.365738" lon="113.582074">
        <ele>17.1</ele>
        <time>2024-02-12T13:44:09Z</time>
      </trkpt>
      <trkpt lat="22.365747" lon="113.58209">
        <ele>17.1</ele>
        <time>2024-02-12T13:44:10Z</time>
      </trkpt>
      <trkpt lat="22.365746" lon="113.582106">
        <ele>17.1</ele>
        <time>2024-02-12T13:44:11Z</time>
      </trkpt>
      <trkpt lat="22.365734" lon="113.582121">
        <ele>17.1</ele>
        <time>2024-02-12T13:44:12Z</time>
      </trkpt>
      <trkpt lat="22.365719" lon="113.582133">
        <ele>17.1</ele>
        <time>2024-02-12T13:44:13Z</time>
      </trkpt>
      <trkpt lat="22.365707" lon="113.582141">
        <ele>17.1</ele>
        <time>2024-02-12T13:44:14Z</time>
      </trkpt>
      <trkpt lat="22.365699" lon="113.582152">
        <ele>17.1</ele>
        <time>2024-02-12T13:44:15Z</time>
      </trkpt>
      <trkpt lat="22.365688" lon="113.582167">
        <ele>17.1</ele>
        <time>2024-02-12T13:44:16Z</time>
      </trkpt>
      <trkpt lat="22.365672" lon="113.582179">
        <ele>17.1</ele>
        <time>2024-02-12T13:44:17Z</time>
      </trkpt>
      <trkpt lat="22.365656" lon="113.582187">
        <ele>17.1</ele>
        <time>2024-02-12T13:44:18Z</time>
      </trkpt>
      <trkpt lat="22.365641" lon="113.582194">
        <ele>17.1</ele>
        <time>2024-02-12T13:44:19Z</time>
      </trkpt>
      <trkpt lat="22.365634" lon="113.582204">
        <ele>17.1</ele>
        <time>2024-02-12T13:44:20Z</time>
      </trkpt>
      <trkpt lat="22.365624" lon="113.582217">
        <ele>17.1</ele>
        <time>2024-02-12T13:44:21Z</time>
      </trkpt>
      <trkpt lat="22.365606" lon="113.582224">
        <ele>17.1</ele>
        <time>2024-02-12T13:44:22Z</time>
      </trkpt>
      <trkpt lat="22.365595" lon="113.582237">
        <ele>17.1</ele>
        <time>2024-02-12T13:44:23Z</time>
      </trkpt>
      <trkpt lat="22.365587" lon="113.58226">
        <ele>17.1</ele>
        <time>2024-02-12T13:44:24Z</time>
      </trkpt>
      <trkpt lat="22.365574" lon="113.582281">
        <ele>17.1</ele>
        <time>2024-02-12T13:44:25Z</time>
      </trkpt>
      <trkpt lat="22.365558" lon="113.582293">
        <ele>17.1</ele>
        <time>2024-02-12T13:44:26Z</time>
      </trkpt>
      <trkpt lat="22.365543" lon="113.582301">
        <ele>17.1</ele>
        <time>2024-02-12T13:44:27Z</time>
      </trkpt>
      <trkpt lat="22.365527" lon="113.582311">
        <ele>17.1</ele>
        <time>2024-02-12T13:44:28Z</time>
      </trkpt>
      <trkpt lat="22.365511" lon="113.582326">
        <ele>17.1</ele>
        <time>2024-02-12T13:44:29Z</time>
      </trkpt>
      <trkpt lat="22.365491" lon="113.582344">
        <ele>17.1</ele>
        <time>2024-02-12T13:44:30Z</time>
      </trkpt>
      <trkpt lat="22.365472" lon="113.582364">
        <ele>17.1</ele>
        <time>2024-02-12T13:44:31Z</time>
      </trkpt>
      <trkpt lat="22.365454" lon="113.582379">
        <ele>17.1</ele>
        <time>2024-02-12T13:44:32Z</time>
      </trkpt>
      <trkpt lat="22.36544" lon="113.582395">
        <ele>17.1</ele>
        <time>2024-02-12T13:44:33Z</time>
      </trkpt>
      <trkpt lat="22.365432" lon="113.582408">
        <ele>17.1</ele>
        <time>2024-02-12T13:44:34Z</time>
      </trkpt>
      <trkpt lat="22.365421" lon="113.582418">
        <ele>17.1</ele>
        <time>2024-02-12T13:44:35Z</time>
      </trkpt>
      <trkpt lat="22.365411" lon="113.582433">
        <ele>17.1</ele>
        <time>2024-02-12T13:44:36Z</time>
      </trkpt>
      <trkpt lat="22.365397" lon="113.582448">
        <ele>17.1</ele>
        <time>2024-02-12T13:44:37Z</time>
      </trkpt>
      <trkpt lat="22.365386" lon="113.582461">
        <ele>17.1</ele>
        <time>2024-02-12T13:44:38Z</time>
      </trkpt>
      <trkpt lat="22.365376" lon="113.582469">
        <ele>17.1</ele>
        <time>2024-02-12T13:44:39Z</time>
      </trkpt>
      <trkpt lat="22.365368" lon="113.582476">
        <ele>17.1</ele>
        <time>2024-02-12T13:44:40Z</time>
      </trkpt>
      <trkpt lat="22.36536" lon="113.582484">
        <ele>17.1</ele>
        <time>2024-02-12T13:44:41Z</time>
      </trkpt>
      <trkpt lat="22.365348" lon="113.582494">
        <ele>17.1</ele>
        <time>2024-02-12T13:44:42Z</time>
      </trkpt>
      <trkpt lat="22.365333" lon="113.582507">
        <ele>17.1</ele>
        <time>2024-02-12T13:44:43Z</time>
      </trkpt>
      <trkpt lat="22.365318" lon="113.582514">
        <ele>17.1</ele>
        <time>2024-02-12T13:44:44Z</time>
      </trkpt>
      <trkpt lat="22.3653" lon="113.58252">
        <ele>17.1</ele>
        <time>2024-02-12T13:44:45Z</time>
      </trkpt>
      <trkpt lat="22.365285" lon="113.582522">
        <ele>17.1</ele>
        <time>2024-02-12T13:44:46Z</time>
      </trkpt>
      <trkpt lat="22.365276" lon="113.582529">
        <ele>17.1</ele>
        <time>2024-02-12T13:44:47Z</time>
      </trkpt>
      <trkpt lat="22.365268" lon="113.582539">
        <ele>17.1</ele>
        <time>2024-02-12T13:44:48Z</time>
      </trkpt>
      <trkpt lat="22.365261" lon="113.582552">
        <ele>17.1</ele>
        <time>2024-02-12T13:44:49Z</time>
      </trkpt>
      <trkpt lat="22.365252" lon="113.582562">
        <ele>17.1</ele>
        <time>2024-02-12T13:44:50Z</time>
      </trkpt>
      <trkpt lat="22.365238" lon="113.582575">
        <ele>17.1</ele>
        <time>2024-02-12T13:44:51Z</time>
      </trkpt>
      <trkpt lat="22.365224" lon="113.582583">
        <ele>17.1</ele>
        <time>2024-02-12T13:44:52Z</time>
      </trkpt>
      <trkpt lat="22.365207" lon="113.582594">
        <ele>17.1</ele>
        <time>2024-02-12T13:44:53Z</time>
      </trkpt>
      <trkpt lat="22.365191" lon="113.582615">
        <ele>17.1</ele>
        <time>2024-02-12T13:44:54Z</time>
      </trkpt>
      <trkpt lat="22.365175" lon="113.582631">
        <ele>17.2</ele>
        <time>2024-02-12T13:44:55Z</time>
      </trkpt>
      <trkpt lat="22.365161" lon="113.582646">
        <ele>17.2</ele>
        <time>2024-02-12T13:44:56Z</time>
      </trkpt>
      <trkpt lat="22.365151" lon="113.582661">
        <ele>17.2</ele>
        <time>2024-02-12T13:44:57Z</time>
      </trkpt>
      <trkpt lat="22.365145" lon="113.582674">
        <ele>17.2</ele>
        <time>2024-02-12T13:44:58Z</time>
      </trkpt>
      <trkpt lat="22.365129" lon="113.582682">
        <ele>17.2</ele>
        <time>2024-02-12T13:44:59Z</time>
      </trkpt>
      <trkpt lat="22.365109" lon="113.582692">
        <ele>17.2</ele>
        <time>2024-02-12T13:45:00Z</time>
      </trkpt>
      <trkpt lat="22.365092" lon="113.582707">
        <ele>17.2</ele>
        <time>2024-02-12T13:45:01Z</time>
      </trkpt>
      <trkpt lat="22.365086" lon="113.582722">
        <ele>17.2</ele>
        <time>2024-02-12T13:45:02Z</time>
      </trkpt>
      <trkpt lat="22.365086" lon="113.582738">
        <ele>17.2</ele>
        <time>2024-02-12T13:45:03Z</time>
      </trkpt>
      <trkpt lat="22.365087" lon="113.582756">
        <ele>17.2</ele>
        <time>2024-02-12T13:45:04Z</time>
      </trkpt>
      <trkpt lat="22.365083" lon="113.582773">
        <ele>17.2</ele>
        <time>2024-02-12T13:45:05Z</time>
      </trkpt>
      <trkpt lat="22.365072" lon="113.582779">
        <ele>17.2</ele>
        <time>2024-02-12T13:45:06Z</time>
      </trkpt>
      <trkpt lat="22.365061" lon="113.582775">
        <ele>17.2</ele>
        <time>2024-02-12T13:45:07Z</time>
      </trkpt>
      <trkpt lat="22.365054" lon="113.582761">
        <ele>17.3</ele>
        <time>2024-02-12T13:45:08Z</time>
      </trkpt>
      <trkpt lat="22.36505" lon="113.582754">
        <ele>17.3</ele>
        <time>2024-02-12T13:45:09Z</time>
      </trkpt>
      <trkpt lat="22.365047" lon="113.582748">
        <ele>17.3</ele>
        <time>2024-02-12T13:45:10Z</time>
      </trkpt>
      <trkpt lat="22.365044" lon="113.582751">
        <ele>17.3</ele>
        <time>2024-02-12T13:45:11Z</time>
      </trkpt>
      <trkpt lat="22.365038" lon="113.582758">
        <ele>17.3</ele>
        <time>2024-02-12T13:45:12Z</time>
      </trkpt>
      <trkpt lat="22.36503" lon="113.582766">
        <ele>17.3</ele>
        <time>2024-02-12T13:45:13Z</time>
      </trkpt>
      <trkpt lat="22.365018" lon="113.582773">
        <ele>17.3</ele>
        <time>2024-02-12T13:45:14Z</time>
      </trkpt>
      <trkpt lat="22.365008" lon="113.582783">
        <ele>17.3</ele>
        <time>2024-02-12T13:45:15Z</time>
      </trkpt>
      <trkpt lat="22.364994" lon="113.582798">
        <ele>17.3</ele>
        <time>2024-02-12T13:45:16Z</time>
      </trkpt>
      <trkpt lat="22.364978" lon="113.582812">
        <ele>17.3</ele>
        <time>2024-02-12T13:45:17Z</time>
      </trkpt>
      <trkpt lat="22.364962" lon="113.582821">
        <ele>17.3</ele>
        <time>2024-02-12T13:45:18Z</time>
      </trkpt>
      <trkpt lat="22.36495" lon="113.582836">
        <ele>17.3</ele>
        <time>2024-02-12T13:45:19Z</time>
      </trkpt>
      <trkpt lat="22.364937" lon="113.58285">
        <ele>17.3</ele>
        <time>2024-02-12T13:45:20Z</time>
      </trkpt>
      <trkpt lat="22.364923" lon="113.582859">
        <ele>17.3</ele>
        <time>2024-02-12T13:45:21Z</time>
      </trkpt>
      <trkpt lat="22.364908" lon="113.582875">
        <ele>17.3</ele>
        <time>2024-02-12T13:45:22Z</time>
      </trkpt>
      <trkpt lat="22.364894" lon="113.582888">
        <ele>17.3</ele>
        <time>2024-02-12T13:45:23Z</time>
      </trkpt>
      <trkpt lat="22.364882" lon="113.582895">
        <ele>17.4</ele>
        <time>2024-02-12T13:45:24Z</time>
      </trkpt>
      <trkpt lat="22.364871" lon="113.582905">
        <ele>17.4</ele>
        <time>2024-02-12T13:45:25Z</time>
      </trkpt>
      <trkpt lat="22.364859" lon="113.582923">
        <ele>17.4</ele>
        <time>2024-02-12T13:45:26Z</time>
      </trkpt>
      <trkpt lat="22.364846" lon="113.582943">
        <ele>17.4</ele>
        <time>2024-02-12T13:45:27Z</time>
      </trkpt>
      <trkpt lat="22.364831" lon="113.582958">
        <ele>17.4</ele>
        <time>2024-02-12T13:45:28Z</time>
      </trkpt>
      <trkpt lat="22.364811" lon="113.582976">
        <ele>17.4</ele>
        <time>2024-02-12T13:45:29Z</time>
      </trkpt>
      <trkpt lat="22.36479" lon="113.582997">
        <ele>17.4</ele>
        <time>2024-02-12T13:45:30Z</time>
      </trkpt>
      <trkpt lat="22.364771" lon="113.583012">
        <ele>17.4</ele>
        <time>2024-02-12T13:45:31Z</time>
      </trkpt>
      <trkpt lat="22.364752" lon="113.583029">
        <ele>17.4</ele>
        <time>2024-02-12T13:45:32Z</time>
      </trkpt>
      <trkpt lat="22.364733" lon="113.583052">
        <ele>17.4</ele>
        <time>2024-02-12T13:45:33Z</time>
      </trkpt>
      <trkpt lat="22.364713" lon="113.583075">
        <ele>17.5</ele>
        <time>2024-02-12T13:45:34Z</time>
      </trkpt>
      <trkpt lat="22.36469" lon="113.583098">
        <ele>17.5</ele>
        <time>2024-02-12T13:45:35Z</time>
      </trkpt>
      <trkpt lat="22.364666" lon="113.583121">
        <ele>17.5</ele>
        <time>2024-02-12T13:45:36Z</time>
      </trkpt>
      <trkpt lat="22.364642" lon="113.583144">
        <ele>17.5</ele>
        <time>2024-02-12T13:45:37Z</time>
      </trkpt>
      <trkpt lat="22.364616" lon="113.583167">
        <ele>17.5</ele>
        <time>2024-02-12T13:45:38Z</time>
      </trkpt>
      <trkpt lat="22.364588" lon="113.58319">
        <ele>17.5</ele>
        <time>2024-02-12T13:45:39Z</time>
      </trkpt>
      <trkpt lat="22.364564" lon="113.583212">
        <ele>17.5</ele>
        <time>2024-02-12T13:45:40Z</time>
      </trkpt>
      <trkpt lat="22.364535" lon="113.583236">
        <ele>17.6</ele>
        <time>2024-02-12T13:45:41Z</time>
      </trkpt>
      <trkpt lat="22.364507" lon="113.583258">
        <ele>17.6</ele>
        <time>2024-02-12T13:45:42Z</time>
      </trkpt>
      <trkpt lat="22.364483" lon="113.583284">
        <ele>17.6</ele>
        <time>2024-02-12T13:45:43Z</time>
      </trkpt>
      <trkpt lat="22.364458" lon="113.583315">
        <ele>17.6</ele>
        <time>2024-02-12T13:45:44Z</time>
      </trkpt>
      <trkpt lat="22.364431" lon="113.583343">
        <ele>17.6</ele>
        <time>2024-02-12T13:45:45Z</time>
      </trkpt>
      <trkpt lat="22.364404" lon="113.583369">
        <ele>17.6</ele>
        <time>2024-02-12T13:45:46Z</time>
      </trkpt>
      <trkpt lat="22.364374" lon="113.583408">
        <ele>17.7</ele>
        <time>2024-02-12T13:45:47Z</time>
      </trkpt>
      <trkpt lat="22.364347" lon="113.583442">
        <ele>17.7</ele>
        <time>2024-02-12T13:45:48Z</time>
      </trkpt>
      <trkpt lat="22.36432" lon="113.583469">
        <ele>17.7</ele>
        <time>2024-02-12T13:45:49Z</time>
      </trkpt>
      <trkpt lat="22.364291" lon="113.583507">
        <ele>17.7</ele>
        <time>2024-02-12T13:45:50Z</time>
      </trkpt>
      <trkpt lat="22.364265" lon="113.583543">
        <ele>17.7</ele>
        <time>2024-02-12T13:45:51Z</time>
      </trkpt>
      <trkpt lat="22.364239" lon="113.583571">
        <ele>17.8</ele>
        <time>2024-02-12T13:45:52Z</time>
      </trkpt>
      <trkpt lat="22.36421" lon="113.583594">
        <ele>17.8</ele>
        <time>2024-02-12T13:45:53Z</time>
      </trkpt>
      <trkpt lat="22.36418" lon="113.583618">
        <ele>17.8</ele>
        <time>2024-02-12T13:45:54Z</time>
      </trkpt>
      <trkpt lat="22.364152" lon="113.583641">
        <ele>17.8</ele>
        <time>2024-02-12T13:45:55Z</time>
      </trkpt>
      <trkpt lat="22.364129" lon="113.583663">
        <ele>17.8</ele>
        <time>2024-02-12T13:45:56Z</time>
      </trkpt>
      <trkpt lat="22.364104" lon="113.583686">
        <ele>17.8</ele>
        <time>2024-02-12T13:45:57Z</time>
      </trkpt>
      <trkpt lat="22.364078" lon="113.583708">
        <ele>17.8</ele>
        <time>2024-02-12T13:45:58Z</time>
      </trkpt>
      <trkpt lat="22.364048" lon="113.583729">
        <ele>17.8</ele>
        <time>2024-02-12T13:45:59Z</time>
      </trkpt>
      <trkpt lat="22.364016" lon="113.583747">
        <ele>17.7</ele>
        <time>2024-02-12T13:46:00Z</time>
      </trkpt>
      <trkpt lat="22.363984" lon="113.583767">
        <ele>17.6</ele>
        <time>2024-02-12T13:46:01Z</time>
      </trkpt>
      <trkpt lat="22.363954" lon="113.583782">
        <ele>17.5</ele>
        <time>2024-02-12T13:46:02Z</time>
      </trkpt>
      <trkpt lat="22.363927" lon="113.583798">
        <ele>17.4</ele>
        <time>2024-02-12T13:46:03Z</time>
      </trkpt>
      <trkpt lat="22.363891" lon="113.583816">
        <ele>17.3</ele>
        <time>2024-02-12T13:46:04Z</time>
      </trkpt>
      <trkpt lat="22.363858" lon="113.583841">
        <ele>17.2</ele>
        <time>2024-02-12T13:46:05Z</time>
      </trkpt>
      <trkpt lat="22.363833" lon="113.583866">
        <ele>17</ele>
        <time>2024-02-12T13:46:06Z</time>
      </trkpt>
      <trkpt lat="22.363807" lon="113.583884">
        <ele>16.9</ele>
        <time>2024-02-12T13:46:07Z</time>
      </trkpt>
      <trkpt lat="22.363779" lon="113.583907">
        <ele>16.8</ele>
        <time>2024-02-12T13:46:08Z</time>
      </trkpt>
      <trkpt lat="22.363751" lon="113.583929">
        <ele>16.7</ele>
        <time>2024-02-12T13:46:09Z</time>
      </trkpt>
      <trkpt lat="22.36372" lon="113.58395">
        <ele>16.6</ele>
        <time>2024-02-12T13:46:10Z</time>
      </trkpt>
      <trkpt lat="22.363696" lon="113.583966">
        <ele>16.5</ele>
        <time>2024-02-12T13:46:11Z</time>
      </trkpt>
      <trkpt lat="22.363668" lon="113.583983">
        <ele>16.4</ele>
        <time>2024-02-12T13:46:12Z</time>
      </trkpt>
      <trkpt lat="22.363643" lon="113.584008">
        <ele>16.3</ele>
        <time>2024-02-12T13:46:13Z</time>
      </trkpt>
      <trkpt lat="22.363614" lon="113.584036">
        <ele>16.2</ele>
        <time>2024-02-12T13:46:14Z</time>
      </trkpt>
      <trkpt lat="22.363589" lon="113.584059">
        <ele>16.1</ele>
        <time>2024-02-12T13:46:15Z</time>
      </trkpt>
      <trkpt lat="22.36356" lon="113.58408">
        <ele>16</ele>
        <time>2024-02-12T13:46:16Z</time>
      </trkpt>
      <trkpt lat="22.363533" lon="113.584097">
        <ele>15.9</ele>
        <time>2024-02-12T13:46:17Z</time>
      </trkpt>
      <trkpt lat="22.363507" lon="113.58412">
        <ele>15.8</ele>
        <time>2024-02-12T13:46:18Z</time>
      </trkpt>
      <trkpt lat="22.363489" lon="113.584143">
        <ele>15.7</ele>
        <time>2024-02-12T13:46:19Z</time>
      </trkpt>
      <trkpt lat="22.363466" lon="113.584168">
        <ele>15.6</ele>
        <time>2024-02-12T13:46:20Z</time>
      </trkpt>
      <trkpt lat="22.363436" lon="113.584195">
        <ele>15.4</ele>
        <time>2024-02-12T13:46:21Z</time>
      </trkpt>
      <trkpt lat="22.363406" lon="113.584212">
        <ele>15.3</ele>
        <time>2024-02-12T13:46:22Z</time>
      </trkpt>
      <trkpt lat="22.363377" lon="113.584235">
        <ele>15.2</ele>
        <time>2024-02-12T13:46:23Z</time>
      </trkpt>
      <trkpt lat="22.36335" lon="113.584258">
        <ele>15.1</ele>
        <time>2024-02-12T13:46:24Z</time>
      </trkpt>
      <trkpt lat="22.363321" lon="113.584278">
        <ele>15</ele>
        <time>2024-02-12T13:46:25Z</time>
      </trkpt>
      <trkpt lat="22.363288" lon="113.584295">
        <ele>14.9</ele>
        <time>2024-02-12T13:46:26Z</time>
      </trkpt>
      <trkpt lat="22.363256" lon="113.58432">
        <ele>14.8</ele>
        <time>2024-02-12T13:46:27Z</time>
      </trkpt>
      <trkpt lat="22.363225" lon="113.584349">
        <ele>14.6</ele>
        <time>2024-02-12T13:46:28Z</time>
      </trkpt>
      <trkpt lat="22.363194" lon="113.584372">
        <ele>14.5</ele>
        <time>2024-02-12T13:46:29Z</time>
      </trkpt>
      <trkpt lat="22.36316" lon="113.584395">
        <ele>14.4</ele>
        <time>2024-02-12T13:46:30Z</time>
      </trkpt>
      <trkpt lat="22.363127" lon="113.584418">
        <ele>14.3</ele>
        <time>2024-02-12T13:46:31Z</time>
      </trkpt>
      <trkpt lat="22.363097" lon="113.584438">
        <ele>14.2</ele>
        <time>2024-02-12T13:46:32Z</time>
      </trkpt>
      <trkpt lat="22.363071" lon="113.584455">
        <ele>14.1</ele>
        <time>2024-02-12T13:46:33Z</time>
      </trkpt>
      <trkpt lat="22.363046" lon="113.58448">
        <ele>13.9</ele>
        <time>2024-02-12T13:46:34Z</time>
      </trkpt>
      <trkpt lat="22.36302" lon="113.584511">
        <ele>13.8</ele>
        <time>2024-02-12T13:46:35Z</time>
      </trkpt>
      <trkpt lat="22.36299" lon="113.58454">
        <ele>13.7</ele>
        <time>2024-02-12T13:46:36Z</time>
      </trkpt>
      <trkpt lat="22.36296" lon="113.584563">
        <ele>13.6</ele>
        <time>2024-02-12T13:46:37Z</time>
      </trkpt>
      <trkpt lat="22.362928" lon="113.584589">
        <ele>13.5</ele>
        <time>2024-02-12T13:46:38Z</time>
      </trkpt>
      <trkpt lat="22.362899" lon="113.584614">
        <ele>13.3</ele>
        <time>2024-02-12T13:46:39Z</time>
      </trkpt>
      <trkpt lat="22.362873" lon="113.584632">
        <ele>13.2</ele>
        <time>2024-02-12T13:46:40Z</time>
      </trkpt>
      <trkpt lat="22.362844" lon="113.584657">
        <ele>13.1</ele>
        <time>2024-02-12T13:46:41Z</time>
      </trkpt>
      <trkpt lat="22.362813" lon="113.584688">
        <ele>13</ele>
        <time>2024-02-12T13:46:42Z</time>
      </trkpt>
      <trkpt lat="22.362787" lon="113.584716">
        <ele>12.9</ele>
        <time>2024-02-12T13:46:43Z</time>
      </trkpt>
      <trkpt lat="22.362766" lon="113.584741">
        <ele>12.8</ele>
        <time>2024-02-12T13:46:44Z</time>
      </trkpt>
      <trkpt lat="22.362745" lon="113.584773">
        <ele>12.7</ele>
        <time>2024-02-12T13:46:45Z</time>
      </trkpt>
      <trkpt lat="22.362723" lon="113.584811">
        <ele>12.5</ele>
        <time>2024-02-12T13:46:46Z</time>
      </trkpt>
      <trkpt lat="22.362702" lon="113.58485">
        <ele>12.4</ele>
        <time>2024-02-12T13:46:47Z</time>
      </trkpt>
      <trkpt lat="22.362681" lon="113.584886">
        <ele>12.3</ele>
        <time>2024-02-12T13:46:48Z</time>
      </trkpt>
      <trkpt lat="22.362662" lon="113.584918">
        <ele>12.2</ele>
        <time>2024-02-12T13:46:49Z</time>
      </trkpt>
      <trkpt lat="22.362643" lon="113.584955">
        <ele>12.1</ele>
        <time>2024-02-12T13:46:50Z</time>
      </trkpt>
      <trkpt lat="22.362619" lon="113.584994">
        <ele>12.1</ele>
        <time>2024-02-12T13:46:51Z</time>
      </trkpt>
      <trkpt lat="22.362591" lon="113.585034">
        <ele>12.1</ele>
        <time>2024-02-12T13:46:52Z</time>
      </trkpt>
      <trkpt lat="22.362567" lon="113.585068">
        <ele>12.1</ele>
        <time>2024-02-12T13:46:53Z</time>
      </trkpt>
      <trkpt lat="22.362543" lon="113.585097">
        <ele>12</ele>
        <time>2024-02-12T13:46:54Z</time>
      </trkpt>
      <trkpt lat="22.36252" lon="113.58512">
        <ele>12</ele>
        <time>2024-02-12T13:46:55Z</time>
      </trkpt>
      <trkpt lat="22.362501" lon="113.585143">
        <ele>12</ele>
        <time>2024-02-12T13:46:56Z</time>
      </trkpt>
      <trkpt lat="22.36249" lon="113.585166">
        <ele>12</ele>
        <time>2024-02-12T13:46:57Z</time>
      </trkpt>
      <trkpt lat="22.362483" lon="113.585191">
        <ele>12</ele>
        <time>2024-02-12T13:46:58Z</time>
      </trkpt>
      <trkpt lat="22.362474" lon="113.585224">
        <ele>12</ele>
        <time>2024-02-12T13:46:59Z</time>
      </trkpt>
      <trkpt lat="22.362467" lon="113.585264">
        <ele>11.9</ele>
        <time>2024-02-12T13:47:00Z</time>
      </trkpt>
      <trkpt lat="22.36247" lon="113.585309">
        <ele>11.9</ele>
        <time>2024-02-12T13:47:01Z</time>
      </trkpt>
      <trkpt lat="22.362475" lon="113.585357">
        <ele>11.9</ele>
        <time>2024-02-12T13:47:02Z</time>
      </trkpt>
      <trkpt lat="22.362478" lon="113.58541">
        <ele>11.9</ele>
        <time>2024-02-12T13:47:03Z</time>
      </trkpt>
      <trkpt lat="22.362481" lon="113.585456">
        <ele>11.8</ele>
        <time>2024-02-12T13:47:04Z</time>
      </trkpt>
      <trkpt lat="22.362479" lon="113.585499">
        <ele>11.8</ele>
        <time>2024-02-12T13:47:05Z</time>
      </trkpt>
      <trkpt lat="22.362474" lon="113.585544">
        <ele>11.8</ele>
        <time>2024-02-12T13:47:06Z</time>
      </trkpt>
      <trkpt lat="22.362467" lon="113.585581">
        <ele>11.8</ele>
        <time>2024-02-12T13:47:07Z</time>
      </trkpt>
      <trkpt lat="22.362461" lon="113.585619">
        <ele>11.8</ele>
        <time>2024-02-12T13:47:08Z</time>
      </trkpt>
      <trkpt lat="22.362451" lon="113.585658">
        <ele>11.7</ele>
        <time>2024-02-12T13:47:09Z</time>
      </trkpt>
      <trkpt lat="22.362444" lon="113.585694">
        <ele>11.7</ele>
        <time>2024-02-12T13:47:10Z</time>
      </trkpt>
      <trkpt lat="22.362437" lon="113.585727">
        <ele>11.7</ele>
        <time>2024-02-12T13:47:11Z</time>
      </trkpt>
      <trkpt lat="22.362431" lon="113.585766">
        <ele>11.7</ele>
        <time>2024-02-12T13:47:12Z</time>
      </trkpt>
      <trkpt lat="22.362423" lon="113.585812">
        <ele>11.7</ele>
        <time>2024-02-12T13:47:13Z</time>
      </trkpt>
      <trkpt lat="22.36241" lon="113.585856">
        <ele>11.6</ele>
        <time>2024-02-12T13:47:14Z</time>
      </trkpt>
      <trkpt lat="22.362399" lon="113.585896">
        <ele>11.6</ele>
        <time>2024-02-12T13:47:15Z</time>
      </trkpt>
      <trkpt lat="22.362387" lon="113.585942">
        <ele>11.6</ele>
        <time>2024-02-12T13:47:16Z</time>
      </trkpt>
      <trkpt lat="22.362372" lon="113.585986">
        <ele>11.6</ele>
        <time>2024-02-12T13:47:17Z</time>
      </trkpt>
      <trkpt lat="22.362354" lon="113.586026">
        <ele>11.5</ele>
        <time>2024-02-12T13:47:18Z</time>
      </trkpt>
      <trkpt lat="22.362334" lon="113.58607">
        <ele>11.5</ele>
        <time>2024-02-12T13:47:19Z</time>
      </trkpt>
      <trkpt lat="22.362317" lon="113.586106">
        <ele>11.5</ele>
        <time>2024-02-12T13:47:20Z</time>
      </trkpt>
      <trkpt lat="22.362302" lon="113.586138">
        <ele>11.5</ele>
        <time>2024-02-12T13:47:21Z</time>
      </trkpt>
      <trkpt lat="22.362289" lon="113.586177">
        <ele>11.5</ele>
        <time>2024-02-12T13:47:22Z</time>
      </trkpt>
      <trkpt lat="22.362274" lon="113.586217">
        <ele>11.4</ele>
        <time>2024-02-12T13:47:23Z</time>
      </trkpt>
      <trkpt lat="22.36226" lon="113.586259">
        <ele>11.4</ele>
        <time>2024-02-12T13:47:24Z</time>
      </trkpt>
      <trkpt lat="22.362246" lon="113.586292">
        <ele>11.4</ele>
        <time>2024-02-12T13:47:25Z</time>
      </trkpt>
      <trkpt lat="22.362235" lon="113.58633">
        <ele>11.4</ele>
        <time>2024-02-12T13:47:26Z</time>
      </trkpt>
      <trkpt lat="22.362226" lon="113.586368">
        <ele>11.4</ele>
        <time>2024-02-12T13:47:27Z</time>
      </trkpt>
      <trkpt lat="22.362219" lon="113.586408">
        <ele>11.3</ele>
        <time>2024-02-12T13:47:28Z</time>
      </trkpt>
      <trkpt lat="22.362217" lon="113.586453">
        <ele>11.3</ele>
        <time>2024-02-12T13:47:29Z</time>
      </trkpt>
      <trkpt lat="22.362223" lon="113.586499">
        <ele>11.3</ele>
        <time>2024-02-12T13:47:30Z</time>
      </trkpt>
      <trkpt lat="22.362234" lon="113.586549">
        <ele>11.3</ele>
        <time>2024-02-12T13:47:31Z</time>
      </trkpt>
      <trkpt lat="22.362246" lon="113.586603">
        <ele>11.2</ele>
        <time>2024-02-12T13:47:32Z</time>
      </trkpt>
      <trkpt lat="22.362252" lon="113.586642">
        <ele>11.2</ele>
        <time>2024-02-12T13:47:33Z</time>
      </trkpt>
      <trkpt lat="22.362248" lon="113.586682">
        <ele>11.2</ele>
        <time>2024-02-12T13:47:34Z</time>
      </trkpt>
      <trkpt lat="22.362244" lon="113.586728">
        <ele>11.2</ele>
        <time>2024-02-12T13:47:35Z</time>
      </trkpt>
      <trkpt lat="22.362235" lon="113.586774">
        <ele>11.1</ele>
        <time>2024-02-12T13:47:36Z</time>
      </trkpt>
      <trkpt lat="22.362223" lon="113.586817">
        <ele>11.1</ele>
        <time>2024-02-12T13:47:37Z</time>
      </trkpt>
      <trkpt lat="22.362212" lon="113.586855">
        <ele>11</ele>
        <time>2024-02-12T13:47:38Z</time>
      </trkpt>
      <trkpt lat="22.362205" lon="113.586891">
        <ele>11</ele>
        <time>2024-02-12T13:47:39Z</time>
      </trkpt>
      <trkpt lat="22.362199" lon="113.58692">
        <ele>10.9</ele>
        <time>2024-02-12T13:47:40Z</time>
      </trkpt>
      <trkpt lat="22.362194" lon="113.586945">
        <ele>10.9</ele>
        <time>2024-02-12T13:47:41Z</time>
      </trkpt>
      <trkpt lat="22.36219" lon="113.586976">
        <ele>10.8</ele>
        <time>2024-02-12T13:47:42Z</time>
      </trkpt>
      <trkpt lat="22.36219" lon="113.587006">
        <ele>10.8</ele>
        <time>2024-02-12T13:47:43Z</time>
      </trkpt>
      <trkpt lat="22.362195" lon="113.587041">
        <ele>10.7</ele>
        <time>2024-02-12T13:47:44Z</time>
      </trkpt>
      <trkpt lat="22.362194" lon="113.587082">
        <ele>10.7</ele>
        <time>2024-02-12T13:47:45Z</time>
      </trkpt>
      <trkpt lat="22.362184" lon="113.587115">
        <ele>10.6</ele>
        <time>2024-02-12T13:47:46Z</time>
      </trkpt>
      <trkpt lat="22.36217" lon="113.587153">
        <ele>10.6</ele>
        <time>2024-02-12T13:47:47Z</time>
      </trkpt>
      <trkpt lat="22.362158" lon="113.587187">
        <ele>10.5</ele>
        <time>2024-02-12T13:47:48Z</time>
      </trkpt>
      <trkpt lat="22.362151" lon="113.58721">
        <ele>10.5</ele>
        <time>2024-02-12T13:47:49Z</time>
      </trkpt>
      <trkpt lat="22.362148" lon="113.587237">
        <ele>10.4</ele>
        <time>2024-02-12T13:47:50Z</time>
      </trkpt>
      <trkpt lat="22.362155" lon="113.587278">
        <ele>10.4</ele>
        <time>2024-02-12T13:47:51Z</time>
      </trkpt>
      <trkpt lat="22.362165" lon="113.587324">
        <ele>10.3</ele>
        <time>2024-02-12T13:47:52Z</time>
      </trkpt>
      <trkpt lat="22.362175" lon="113.587366">
        <ele>10.2</ele>
        <time>2024-02-12T13:47:53Z</time>
      </trkpt>
      <trkpt lat="22.362177" lon="113.587405">
        <ele>10.2</ele>
        <time>2024-02-12T13:47:54Z</time>
      </trkpt>
      <trkpt lat="22.362178" lon="113.587445">
        <ele>10.1</ele>
        <time>2024-02-12T13:47:55Z</time>
      </trkpt>
      <trkpt lat="22.362175" lon="113.587491">
        <ele>10.1</ele>
        <time>2024-02-12T13:47:56Z</time>
      </trkpt>
      <trkpt lat="22.36217" lon="113.587537">
        <ele>10</ele>
        <time>2024-02-12T13:47:57Z</time>
      </trkpt>
      <trkpt lat="22.362165" lon="113.587583">
        <ele>9.9</ele>
        <time>2024-02-12T13:47:58Z</time>
      </trkpt>
      <trkpt lat="22.362158" lon="113.587624">
        <ele>9.9</ele>
        <time>2024-02-12T13:47:59Z</time>
      </trkpt>
      <trkpt lat="22.362149" lon="113.587655">
        <ele>9.8</ele>
        <time>2024-02-12T13:48:00Z</time>
      </trkpt>
      <trkpt lat="22.362136" lon="113.587689">
        <ele>9.8</ele>
        <time>2024-02-12T13:48:01Z</time>
      </trkpt>
      <trkpt lat="22.362128" lon="113.587722">
        <ele>9.7</ele>
        <time>2024-02-12T13:48:02Z</time>
      </trkpt>
      <trkpt lat="22.362132" lon="113.587742">
        <ele>9.7</ele>
        <time>2024-02-12T13:48:03Z</time>
      </trkpt>
      <trkpt lat="22.362134" lon="113.587758">
        <ele>9.7</ele>
        <time>2024-02-12T13:48:04Z</time>
      </trkpt>
      <trkpt lat="22.362137" lon="113.587773">
        <ele>9.6</ele>
        <time>2024-02-12T13:48:05Z</time>
      </trkpt>
      <trkpt lat="22.362139" lon="113.587786">
        <ele>9.6</ele>
        <time>2024-02-12T13:48:06Z</time>
      </trkpt>
      <trkpt lat="22.362162" lon="113.587867">
        <ele>9.5</ele>
        <time>2024-02-12T13:48:15Z</time>
      </trkpt>
      <trkpt lat="22.362158" lon="113.58789">
        <ele>9.5</ele>
        <time>2024-02-12T13:48:16Z</time>
      </trkpt>
      <trkpt lat="22.36215" lon="113.587912">
        <ele>9.4</ele>
        <time>2024-02-12T13:48:17Z</time>
      </trkpt>
      <trkpt lat="22.362137" lon="113.587935">
        <ele>9.4</ele>
        <time>2024-02-12T13:48:18Z</time>
      </trkpt>
      <trkpt lat="22.362122" lon="113.587958">
        <ele>9.3</ele>
        <time>2024-02-12T13:48:19Z</time>
      </trkpt>
      <trkpt lat="22.362102" lon="113.587981">
        <ele>9.3</ele>
        <time>2024-02-12T13:48:20Z</time>
      </trkpt>
      <trkpt lat="22.36208" lon="113.588004">
        <ele>9.2</ele>
        <time>2024-02-12T13:48:21Z</time>
      </trkpt>
      <trkpt lat="22.362062" lon="113.588029">
        <ele>9.2</ele>
        <time>2024-02-12T13:48:22Z</time>
      </trkpt>
      <trkpt lat="22.362047" lon="113.588059">
        <ele>9.1</ele>
        <time>2024-02-12T13:48:23Z</time>
      </trkpt>
      <trkpt lat="22.362034" lon="113.588089">
        <ele>9.1</ele>
        <time>2024-02-12T13:48:24Z</time>
      </trkpt>
      <trkpt lat="22.36202" lon="113.588118">
        <ele>9.1</ele>
        <time>2024-02-12T13:48:25Z</time>
      </trkpt>
      <trkpt lat="22.362003" lon="113.588143">
        <ele>9</ele>
        <time>2024-02-12T13:48:26Z</time>
      </trkpt>
      <trkpt lat="22.36199" lon="113.588174">
        <ele>9</ele>
        <time>2024-02-12T13:48:27Z</time>
      </trkpt>
      <trkpt lat="22.361978" lon="113.588202">
        <ele>8.9</ele>
        <time>2024-02-12T13:48:28Z</time>
      </trkpt>
      <trkpt lat="22.361968" lon="113.588225">
        <ele>8.9</ele>
        <time>2024-02-12T13:48:29Z</time>
      </trkpt>
      <trkpt lat="22.361957" lon="113.588248">
        <ele>8.8</ele>
        <time>2024-02-12T13:48:30Z</time>
      </trkpt>
      <trkpt lat="22.361948" lon="113.588273">
        <ele>8.8</ele>
        <time>2024-02-12T13:48:31Z</time>
      </trkpt>
      <trkpt lat="22.361941" lon="113.588303">
        <ele>8.8</ele>
        <time>2024-02-12T13:48:32Z</time>
      </trkpt>
      <trkpt lat="22.361937" lon="113.588335">
        <ele>8.7</ele>
        <time>2024-02-12T13:48:33Z</time>
      </trkpt>
      <trkpt lat="22.361936" lon="113.588372">
        <ele>8.7</ele>
        <time>2024-02-12T13:48:34Z</time>
      </trkpt>
      <trkpt lat="22.361934" lon="113.588402">
        <ele>8.6</ele>
        <time>2024-02-12T13:48:35Z</time>
      </trkpt>
      <trkpt lat="22.36193" lon="113.588431">
        <ele>8.6</ele>
        <time>2024-02-12T13:48:36Z</time>
      </trkpt>
      <trkpt lat="22.361925" lon="113.588454">
        <ele>8.5</ele>
        <time>2024-02-12T13:48:37Z</time>
      </trkpt>
      <trkpt lat="22.361919" lon="113.58848">
        <ele>8.5</ele>
        <time>2024-02-12T13:48:38Z</time>
      </trkpt>
      <trkpt lat="22.361918" lon="113.588507">
        <ele>8.4</ele>
        <time>2024-02-12T13:48:39Z</time>
      </trkpt>
      <trkpt lat="22.361909" lon="113.58853">
        <ele>8.4</ele>
        <time>2024-02-12T13:48:40Z</time>
      </trkpt>
      <trkpt lat="22.36189" lon="113.588555">
        <ele>8.4</ele>
        <time>2024-02-12T13:48:41Z</time>
      </trkpt>
      <trkpt lat="22.361866" lon="113.588585">
        <ele>8.3</ele>
        <time>2024-02-12T13:48:42Z</time>
      </trkpt>
      <trkpt lat="22.361843" lon="113.588614">
        <ele>8.3</ele>
        <time>2024-02-12T13:48:43Z</time>
      </trkpt>
      <trkpt lat="22.361821" lon="113.588641">
        <ele>8.4</ele>
        <time>2024-02-12T13:48:44Z</time>
      </trkpt>
      <trkpt lat="22.361805" lon="113.588673">
        <ele>8.4</ele>
        <time>2024-02-12T13:48:45Z</time>
      </trkpt>
      <trkpt lat="22.36179" lon="113.588693">
        <ele>8.4</ele>
        <time>2024-02-12T13:48:46Z</time>
      </trkpt>
      <trkpt lat="22.361777" lon="113.588723">
        <ele>8.4</ele>
        <time>2024-02-12T13:48:47Z</time>
      </trkpt>
      <trkpt lat="22.361757" lon="113.588751">
        <ele>8.4</ele>
        <time>2024-02-12T13:48:48Z</time>
      </trkpt>
      <trkpt lat="22.361736" lon="113.588774">
        <ele>8.4</ele>
        <time>2024-02-12T13:48:49Z</time>
      </trkpt>
      <trkpt lat="22.361723" lon="113.588795">
        <ele>8.4</ele>
        <time>2024-02-12T13:48:50Z</time>
      </trkpt>
      <trkpt lat="22.361716" lon="113.588811">
        <ele>8.4</ele>
        <time>2024-02-12T13:48:51Z</time>
      </trkpt>
      <trkpt lat="22.361713" lon="113.588828">
        <ele>8.4</ele>
        <time>2024-02-12T13:48:52Z</time>
      </trkpt>
      <trkpt lat="22.361711" lon="113.58885">
        <ele>8.4</ele>
        <time>2024-02-12T13:48:53Z</time>
      </trkpt>
      <trkpt lat="22.361701" lon="113.588871">
        <ele>8.5</ele>
        <time>2024-02-12T13:48:54Z</time>
      </trkpt>
      <trkpt lat="22.361693" lon="113.588886">
        <ele>8.5</ele>
        <time>2024-02-12T13:48:55Z</time>
      </trkpt>
      <trkpt lat="22.361687" lon="113.588902">
        <ele>8.5</ele>
        <time>2024-02-12T13:48:56Z</time>
      </trkpt>
      <trkpt lat="22.361681" lon="113.588921">
        <ele>8.5</ele>
        <time>2024-02-12T13:48:57Z</time>
      </trkpt>
      <trkpt lat="22.361675" lon="113.58895">
        <ele>8.5</ele>
        <time>2024-02-12T13:48:58Z</time>
      </trkpt>
      <trkpt lat="22.361667" lon="113.588975">
        <ele>8.5</ele>
        <time>2024-02-12T13:48:59Z</time>
      </trkpt>
      <trkpt lat="22.361661" lon="113.589001">
        <ele>8.5</ele>
        <time>2024-02-12T13:49:00Z</time>
      </trkpt>
      <trkpt lat="22.36166" lon="113.58902">
        <ele>8.5</ele>
        <time>2024-02-12T13:49:01Z</time>
      </trkpt>
      <trkpt lat="22.361656" lon="113.589047">
        <ele>8.5</ele>
        <time>2024-02-12T13:49:02Z</time>
      </trkpt>
      <trkpt lat="22.361645" lon="113.589064">
        <ele>8.5</ele>
        <time>2024-02-12T13:49:03Z</time>
      </trkpt>
      <trkpt lat="22.361634" lon="113.589086">
        <ele>8.5</ele>
        <time>2024-02-12T13:49:04Z</time>
      </trkpt>
      <trkpt lat="22.361625" lon="113.5891">
        <ele>8.5</ele>
        <time>2024-02-12T13:49:05Z</time>
      </trkpt>
      <trkpt lat="22.361619" lon="113.589115">
        <ele>8.6</ele>
        <time>2024-02-12T13:49:06Z</time>
      </trkpt>
      <trkpt lat="22.361616" lon="113.58913">
        <ele>8.6</ele>
        <time>2024-02-12T13:49:07Z</time>
      </trkpt>
      <trkpt lat="22.361616" lon="113.589148">
        <ele>8.6</ele>
        <time>2024-02-12T13:49:08Z</time>
      </trkpt>
      <trkpt lat="22.36162" lon="113.589171">
        <ele>8.6</ele>
        <time>2024-02-12T13:49:09Z</time>
      </trkpt>
      <trkpt lat="22.361616" lon="113.589192">
        <ele>8.6</ele>
        <time>2024-02-12T13:49:10Z</time>
      </trkpt>
      <trkpt lat="22.361601" lon="113.589209">
        <ele>8.6</ele>
        <time>2024-02-12T13:49:11Z</time>
      </trkpt>
      <trkpt lat="22.361585" lon="113.58923">
        <ele>8.6</ele>
        <time>2024-02-12T13:49:12Z</time>
      </trkpt>
      <trkpt lat="22.361568" lon="113.589245">
        <ele>8.6</ele>
        <time>2024-02-12T13:49:13Z</time>
      </trkpt>
      <trkpt lat="22.361555" lon="113.589262">
        <ele>8.6</ele>
        <time>2024-02-12T13:49:14Z</time>
      </trkpt>
      <trkpt lat="22.361546" lon="113.589285">
        <ele>8.6</ele>
        <time>2024-02-12T13:49:15Z</time>
      </trkpt>
      <trkpt lat="22.361539" lon="113.589308">
        <ele>8.6</ele>
        <time>2024-02-12T13:49:16Z</time>
      </trkpt>
      <trkpt lat="22.36153" lon="113.589331">
        <ele>8.6</ele>
        <time>2024-02-12T13:49:17Z</time>
      </trkpt>
      <trkpt lat="22.361519" lon="113.589355">
        <ele>8.7</ele>
        <time>2024-02-12T13:49:18Z</time>
      </trkpt>
      <trkpt lat="22.361506" lon="113.589384">
        <ele>8.7</ele>
        <time>2024-02-12T13:49:19Z</time>
      </trkpt>
      <trkpt lat="22.361493" lon="113.589407">
        <ele>8.7</ele>
        <time>2024-02-12T13:49:20Z</time>
      </trkpt>
      <trkpt lat="22.361485" lon="113.58943">
        <ele>8.7</ele>
        <time>2024-02-12T13:49:21Z</time>
      </trkpt>
      <trkpt lat="22.361479" lon="113.589455">
        <ele>8.7</ele>
        <time>2024-02-12T13:49:22Z</time>
      </trkpt>
      <trkpt lat="22.36147" lon="113.589483">
        <ele>8.7</ele>
        <time>2024-02-12T13:49:23Z</time>
      </trkpt>
      <trkpt lat="22.361456" lon="113.589509">
        <ele>8.7</ele>
        <time>2024-02-12T13:49:24Z</time>
      </trkpt>
      <trkpt lat="22.361442" lon="113.589541">
        <ele>8.7</ele>
        <time>2024-02-12T13:49:25Z</time>
      </trkpt>
      <trkpt lat="22.361431" lon="113.589575">
        <ele>8.7</ele>
        <time>2024-02-12T13:49:26Z</time>
      </trkpt>
      <trkpt lat="22.361418" lon="113.5896">
        <ele>8.8</ele>
        <time>2024-02-12T13:49:27Z</time>
      </trkpt>
      <trkpt lat="22.361402" lon="113.589628">
        <ele>8.8</ele>
        <time>2024-02-12T13:49:28Z</time>
      </trkpt>
      <trkpt lat="22.361386" lon="113.589654">
        <ele>8.8</ele>
        <time>2024-02-12T13:49:29Z</time>
      </trkpt>
      <trkpt lat="22.361369" lon="113.589682">
        <ele>8.8</ele>
        <time>2024-02-12T13:49:30Z</time>
      </trkpt>
      <trkpt lat="22.361353" lon="113.589705">
        <ele>8.8</ele>
        <time>2024-02-12T13:49:31Z</time>
      </trkpt>
      <trkpt lat="22.361336" lon="113.58973">
        <ele>8.8</ele>
        <time>2024-02-12T13:49:32Z</time>
      </trkpt>
      <trkpt lat="22.361318" lon="113.589756">
        <ele>8.8</ele>
        <time>2024-02-12T13:49:33Z</time>
      </trkpt>
      <trkpt lat="22.3613" lon="113.589774">
        <ele>8.8</ele>
        <time>2024-02-12T13:49:34Z</time>
      </trkpt>
      <trkpt lat="22.361279" lon="113.589794">
        <ele>8.8</ele>
        <time>2024-02-12T13:49:35Z</time>
      </trkpt>
      <trkpt lat="22.361258" lon="113.589814">
        <ele>8.9</ele>
        <time>2024-02-12T13:49:36Z</time>
      </trkpt>
      <trkpt lat="22.361238" lon="113.58984">
        <ele>8.9</ele>
        <time>2024-02-12T13:49:37Z</time>
      </trkpt>
      <trkpt lat="22.361216" lon="113.589858">
        <ele>8.9</ele>
        <time>2024-02-12T13:49:38Z</time>
      </trkpt>
      <trkpt lat="22.361197" lon="113.589881">
        <ele>8.9</ele>
        <time>2024-02-12T13:49:39Z</time>
      </trkpt>
      <trkpt lat="22.361177" lon="113.589903">
        <ele>8.9</ele>
        <time>2024-02-12T13:49:40Z</time>
      </trkpt>
      <trkpt lat="22.361156" lon="113.589928">
        <ele>8.9</ele>
        <time>2024-02-12T13:49:41Z</time>
      </trkpt>
      <trkpt lat="22.361136" lon="113.589959">
        <ele>8.9</ele>
        <time>2024-02-12T13:49:42Z</time>
      </trkpt>
      <trkpt lat="22.361114" lon="113.589987">
        <ele>8.9</ele>
        <time>2024-02-12T13:49:43Z</time>
      </trkpt>
      <trkpt lat="22.361092" lon="113.59001">
        <ele>9</ele>
        <time>2024-02-12T13:49:44Z</time>
      </trkpt>
      <trkpt lat="22.361071" lon="113.590035">
        <ele>9</ele>
        <time>2024-02-12T13:49:45Z</time>
      </trkpt>
      <trkpt lat="22.361053" lon="113.590064">
        <ele>9</ele>
        <time>2024-02-12T13:49:46Z</time>
      </trkpt>
      <trkpt lat="22.361037" lon="113.590089">
        <ele>9</ele>
        <time>2024-02-12T13:49:47Z</time>
      </trkpt>
      <trkpt lat="22.36102" lon="113.590119">
        <ele>9</ele>
        <time>2024-02-12T13:49:48Z</time>
      </trkpt>
      <trkpt lat="22.361" lon="113.590148">
        <ele>9</ele>
        <time>2024-02-12T13:49:49Z</time>
      </trkpt>
      <trkpt lat="22.360982" lon="113.590173">
        <ele>9</ele>
        <time>2024-02-12T13:49:50Z</time>
      </trkpt>
      <trkpt lat="22.360964" lon="113.590203">
        <ele>9</ele>
        <time>2024-02-12T13:49:51Z</time>
      </trkpt>
      <trkpt lat="22.360945" lon="113.590231">
        <ele>9</ele>
        <time>2024-02-12T13:49:52Z</time>
      </trkpt>
      <trkpt lat="22.360924" lon="113.590255">
        <ele>9</ele>
        <time>2024-02-12T13:49:53Z</time>
      </trkpt>
      <trkpt lat="22.360904" lon="113.590277">
        <ele>9</ele>
        <time>2024-02-12T13:49:54Z</time>
      </trkpt>
      <trkpt lat="22.360881" lon="113.5903">
        <ele>9</ele>
        <time>2024-02-12T13:49:55Z</time>
      </trkpt>
      <trkpt lat="22.360859" lon="113.590326">
        <ele>8.9</ele>
        <time>2024-02-12T13:49:56Z</time>
      </trkpt>
      <trkpt lat="22.360841" lon="113.590354">
        <ele>8.9</ele>
        <time>2024-02-12T13:49:57Z</time>
      </trkpt>
      <trkpt lat="22.360824" lon="113.590379">
        <ele>8.9</ele>
        <time>2024-02-12T13:49:58Z</time>
      </trkpt>
      <trkpt lat="22.360809" lon="113.590407">
        <ele>8.9</ele>
        <time>2024-02-12T13:49:59Z</time>
      </trkpt>
      <trkpt lat="22.360796" lon="113.59043">
        <ele>8.9</ele>
        <time>2024-02-12T13:50:00Z</time>
      </trkpt>
      <trkpt lat="22.360781" lon="113.590455">
        <ele>8.9</ele>
        <time>2024-02-12T13:50:01Z</time>
      </trkpt>
      <trkpt lat="22.360762" lon="113.590482">
        <ele>8.8</ele>
        <time>2024-02-12T13:50:02Z</time>
      </trkpt>
      <trkpt lat="22.360743" lon="113.590503">
        <ele>8.8</ele>
        <time>2024-02-12T13:50:03Z</time>
      </trkpt>
      <trkpt lat="22.360728" lon="113.59053">
        <ele>8.8</ele>
        <time>2024-02-12T13:50:04Z</time>
      </trkpt>
      <trkpt lat="22.360714" lon="113.590552">
        <ele>8.8</ele>
        <time>2024-02-12T13:50:05Z</time>
      </trkpt>
      <trkpt lat="22.360698" lon="113.590575">
        <ele>8.8</ele>
        <time>2024-02-12T13:50:06Z</time>
      </trkpt>
      <trkpt lat="22.360681" lon="113.590598">
        <ele>8.7</ele>
        <time>2024-02-12T13:50:07Z</time>
      </trkpt>
      <trkpt lat="22.360662" lon="113.590623">
        <ele>8.7</ele>
        <time>2024-02-12T13:50:08Z</time>
      </trkpt>
      <trkpt lat="22.36064" lon="113.590654">
        <ele>8.7</ele>
        <time>2024-02-12T13:50:09Z</time>
      </trkpt>
      <trkpt lat="22.360622" lon="113.590684">
        <ele>8.7</ele>
        <time>2024-02-12T13:50:10Z</time>
      </trkpt>
      <trkpt lat="22.360608" lon="113.590717">
        <ele>8.7</ele>
        <time>2024-02-12T13:50:11Z</time>
      </trkpt>
      <trkpt lat="22.360595" lon="113.590747">
        <ele>8.6</ele>
        <time>2024-02-12T13:50:12Z</time>
      </trkpt>
      <trkpt lat="22.360583" lon="113.590777">
        <ele>8.6</ele>
        <time>2024-02-12T13:50:13Z</time>
      </trkpt>
      <trkpt lat="22.360568" lon="113.590805">
        <ele>8.6</ele>
        <time>2024-02-12T13:50:14Z</time>
      </trkpt>
      <trkpt lat="22.360552" lon="113.590828">
        <ele>8.6</ele>
        <time>2024-02-12T13:50:15Z</time>
      </trkpt>
      <trkpt lat="22.360537" lon="113.590851">
        <ele>8.6</ele>
        <time>2024-02-12T13:50:16Z</time>
      </trkpt>
      <trkpt lat="22.360519" lon="113.590871">
        <ele>8.5</ele>
        <time>2024-02-12T13:50:17Z</time>
      </trkpt>
      <trkpt lat="22.3605" lon="113.590886">
        <ele>8.5</ele>
        <time>2024-02-12T13:50:18Z</time>
      </trkpt>
      <trkpt lat="22.360482" lon="113.590902">
        <ele>8.5</ele>
        <time>2024-02-12T13:50:19Z</time>
      </trkpt>
      <trkpt lat="22.360468" lon="113.59092">
        <ele>8.5</ele>
        <time>2024-02-12T13:50:20Z</time>
      </trkpt>
      <trkpt lat="22.360453" lon="113.590943">
        <ele>8.5</ele>
        <time>2024-02-12T13:50:21Z</time>
      </trkpt>
      <trkpt lat="22.360438" lon="113.590963">
        <ele>8.5</ele>
        <time>2024-02-12T13:50:22Z</time>
      </trkpt>
      <trkpt lat="22.36042" lon="113.590981">
        <ele>8.5</ele>
        <time>2024-02-12T13:50:23Z</time>
      </trkpt>
      <trkpt lat="22.360398" lon="113.591001">
        <ele>8.4</ele>
        <time>2024-02-12T13:50:24Z</time>
      </trkpt>
      <trkpt lat="22.360379" lon="113.591016">
        <ele>8.4</ele>
        <time>2024-02-12T13:50:25Z</time>
      </trkpt>
      <trkpt lat="22.360358" lon="113.591037">
        <ele>8.4</ele>
        <time>2024-02-12T13:50:26Z</time>
      </trkpt>
      <trkpt lat="22.360341" lon="113.591065">
        <ele>8.4</ele>
        <time>2024-02-12T13:50:27Z</time>
      </trkpt>
      <trkpt lat="22.36033" lon="113.591085">
        <ele>8.4</ele>
        <time>2024-02-12T13:50:28Z</time>
      </trkpt>
      <trkpt lat="22.360321" lon="113.591103">
        <ele>8.4</ele>
        <time>2024-02-12T13:50:29Z</time>
      </trkpt>
      <trkpt lat="22.360308" lon="113.591126">
        <ele>8.3</ele>
        <time>2024-02-12T13:50:30Z</time>
      </trkpt>
      <trkpt lat="22.360291" lon="113.591152">
        <ele>8.3</ele>
        <time>2024-02-12T13:50:31Z</time>
      </trkpt>
      <trkpt lat="22.360276" lon="113.591177">
        <ele>8.3</ele>
        <time>2024-02-12T13:50:32Z</time>
      </trkpt>
      <trkpt lat="22.360257" lon="113.5912">
        <ele>8.3</ele>
        <time>2024-02-12T13:50:33Z</time>
      </trkpt>
      <trkpt lat="22.360236" lon="113.591233">
        <ele>8.3</ele>
        <time>2024-02-12T13:50:34Z</time>
      </trkpt>
      <trkpt lat="22.360222" lon="113.591253">
        <ele>8.2</ele>
        <time>2024-02-12T13:50:35Z</time>
      </trkpt>
      <trkpt lat="22.360209" lon="113.591271">
        <ele>8.2</ele>
        <time>2024-02-12T13:50:36Z</time>
      </trkpt>
      <trkpt lat="22.360194" lon="113.591291">
        <ele>8.2</ele>
        <time>2024-02-12T13:50:37Z</time>
      </trkpt>
      <trkpt lat="22.360178" lon="113.591312">
        <ele>8.2</ele>
        <time>2024-02-12T13:50:38Z</time>
      </trkpt>
      <trkpt lat="22.360161" lon="113.591339">
        <ele>8.2</ele>
        <time>2024-02-12T13:50:39Z</time>
      </trkpt>
      <trkpt lat="22.360145" lon="113.591365">
        <ele>8.2</ele>
        <time>2024-02-12T13:50:40Z</time>
      </trkpt>
      <trkpt lat="22.360126" lon="113.591393">
        <ele>8.1</ele>
        <time>2024-02-12T13:50:41Z</time>
      </trkpt>
      <trkpt lat="22.360107" lon="113.591418">
        <ele>8.1</ele>
        <time>2024-02-12T13:50:42Z</time>
      </trkpt>
      <trkpt lat="22.360088" lon="113.591446">
        <ele>8.1</ele>
        <time>2024-02-12T13:50:43Z</time>
      </trkpt>
      <trkpt lat="22.36007" lon="113.591471">
        <ele>8.1</ele>
        <time>2024-02-12T13:50:44Z</time>
      </trkpt>
      <trkpt lat="22.360054" lon="113.591502">
        <ele>8.1</ele>
        <time>2024-02-12T13:50:45Z</time>
      </trkpt>
      <trkpt lat="22.360037" lon="113.59153">
        <ele>8</ele>
        <time>2024-02-12T13:50:46Z</time>
      </trkpt>
      <trkpt lat="22.360022" lon="113.591553">
        <ele>8</ele>
        <time>2024-02-12T13:50:47Z</time>
      </trkpt>
      <trkpt lat="22.360007" lon="113.591576">
        <ele>8</ele>
        <time>2024-02-12T13:50:48Z</time>
      </trkpt>
      <trkpt lat="22.35999" lon="113.591601">
        <ele>8</ele>
        <time>2024-02-12T13:50:49Z</time>
      </trkpt>
      <trkpt lat="22.359972" lon="113.591631">
        <ele>8</ele>
        <time>2024-02-12T13:50:50Z</time>
      </trkpt>
      <trkpt lat="22.359957" lon="113.591662">
        <ele>7.9</ele>
        <time>2024-02-12T13:50:51Z</time>
      </trkpt>
      <trkpt lat="22.359944" lon="113.591696">
        <ele>7.9</ele>
        <time>2024-02-12T13:50:52Z</time>
      </trkpt>
      <trkpt lat="22.35993" lon="113.591731">
        <ele>7.9</ele>
        <time>2024-02-12T13:50:53Z</time>
      </trkpt>
      <trkpt lat="22.359917" lon="113.591762">
        <ele>7.9</ele>
        <time>2024-02-12T13:50:54Z</time>
      </trkpt>
      <trkpt lat="22.359906" lon="113.59179">
        <ele>7.9</ele>
        <time>2024-02-12T13:50:55Z</time>
      </trkpt>
      <trkpt lat="22.35989" lon="113.591812">
        <ele>7.9</ele>
        <time>2024-02-12T13:50:56Z</time>
      </trkpt>
      <trkpt lat="22.359873" lon="113.591835">
        <ele>7.9</ele>
        <time>2024-02-12T13:50:57Z</time>
      </trkpt>
      <trkpt lat="22.359855" lon="113.591861">
        <ele>7.9</ele>
        <time>2024-02-12T13:50:58Z</time>
      </trkpt>
      <trkpt lat="22.359836" lon="113.591891">
        <ele>7.9</ele>
        <time>2024-02-12T13:50:59Z</time>
      </trkpt>
      <trkpt lat="22.359817" lon="113.59192">
        <ele>7.9</ele>
        <time>2024-02-12T13:51:00Z</time>
      </trkpt>
      <trkpt lat="22.359795" lon="113.591946">
        <ele>7.9</ele>
        <time>2024-02-12T13:51:01Z</time>
      </trkpt>
      <trkpt lat="22.359776" lon="113.591976">
        <ele>7.9</ele>
        <time>2024-02-12T13:51:02Z</time>
      </trkpt>
      <trkpt lat="22.359756" lon="113.592003">
        <ele>7.9</ele>
        <time>2024-02-12T13:51:03Z</time>
      </trkpt>
      <trkpt lat="22.359736" lon="113.592029">
        <ele>7.9</ele>
        <time>2024-02-12T13:51:04Z</time>
      </trkpt>
      <trkpt lat="22.359717" lon="113.592062">
        <ele>7.9</ele>
        <time>2024-02-12T13:51:05Z</time>
      </trkpt>
      <trkpt lat="22.3597" lon="113.592095">
        <ele>7.9</ele>
        <time>2024-02-12T13:51:06Z</time>
      </trkpt>
      <trkpt lat="22.359686" lon="113.592123">
        <ele>7.9</ele>
        <time>2024-02-12T13:51:07Z</time>
      </trkpt>
      <trkpt lat="22.359672" lon="113.592159">
        <ele>7.9</ele>
        <time>2024-02-12T13:51:08Z</time>
      </trkpt>
      <trkpt lat="22.359655" lon="113.592186">
        <ele>7.9</ele>
        <time>2024-02-12T13:51:09Z</time>
      </trkpt>
      <trkpt lat="22.359639" lon="113.592209">
        <ele>7.9</ele>
        <time>2024-02-12T13:51:10Z</time>
      </trkpt>
      <trkpt lat="22.359624" lon="113.59223">
        <ele>7.9</ele>
        <time>2024-02-12T13:51:11Z</time>
      </trkpt>
      <trkpt lat="22.35961" lon="113.59225">
        <ele>7.9</ele>
        <time>2024-02-12T13:51:12Z</time>
      </trkpt>
      <trkpt lat="22.359593" lon="113.592278">
        <ele>7.9</ele>
        <time>2024-02-12T13:51:13Z</time>
      </trkpt>
      <trkpt lat="22.359575" lon="113.592303">
        <ele>7.9</ele>
        <time>2024-02-12T13:51:14Z</time>
      </trkpt>
      <trkpt lat="22.359558" lon="113.592331">
        <ele>7.9</ele>
        <time>2024-02-12T13:51:15Z</time>
      </trkpt>
      <trkpt lat="22.359541" lon="113.592352">
        <ele>7.9</ele>
        <time>2024-02-12T13:51:16Z</time>
      </trkpt>
      <trkpt lat="22.359522" lon="113.592375">
        <ele>7.9</ele>
        <time>2024-02-12T13:51:17Z</time>
      </trkpt>
      <trkpt lat="22.359501" lon="113.592412">
        <ele>7.9</ele>
        <time>2024-02-12T13:51:18Z</time>
      </trkpt>
      <trkpt lat="22.359483" lon="113.592451">
        <ele>7.9</ele>
        <time>2024-02-12T13:51:19Z</time>
      </trkpt>
      <trkpt lat="22.359467" lon="113.592489">
        <ele>7.9</ele>
        <time>2024-02-12T13:51:20Z</time>
      </trkpt>
      <trkpt lat="22.359451" lon="113.592525">
        <ele>7.9</ele>
        <time>2024-02-12T13:51:21Z</time>
      </trkpt>
      <trkpt lat="22.359438" lon="113.592558">
        <ele>7.9</ele>
        <time>2024-02-12T13:51:22Z</time>
      </trkpt>
      <trkpt lat="22.359419" lon="113.592591">
        <ele>7.9</ele>
        <time>2024-02-12T13:51:23Z</time>
      </trkpt>
      <trkpt lat="22.359398" lon="113.592614">
        <ele>7.9</ele>
        <time>2024-02-12T13:51:24Z</time>
      </trkpt>
      <trkpt lat="22.359377" lon="113.592634">
        <ele>7.9</ele>
        <time>2024-02-12T13:51:25Z</time>
      </trkpt>
      <trkpt lat="22.359355" lon="113.592651">
        <ele>7.9</ele>
        <time>2024-02-12T13:51:26Z</time>
      </trkpt>
      <trkpt lat="22.359335" lon="113.592675">
        <ele>7.9</ele>
        <time>2024-02-12T13:51:27Z</time>
      </trkpt>
      <trkpt lat="22.359316" lon="113.592695">
        <ele>7.9</ele>
        <time>2024-02-12T13:51:28Z</time>
      </trkpt>
      <trkpt lat="22.3593" lon="113.59271">
        <ele>7.9</ele>
        <time>2024-02-12T13:51:29Z</time>
      </trkpt>
      <trkpt lat="22.35928" lon="113.592725">
        <ele>7.9</ele>
        <time>2024-02-12T13:51:30Z</time>
      </trkpt>
      <trkpt lat="22.359261" lon="113.592743">
        <ele>7.9</ele>
        <time>2024-02-12T13:51:31Z</time>
      </trkpt>
      <trkpt lat="22.359245" lon="113.592766">
        <ele>7.9</ele>
        <time>2024-02-12T13:51:32Z</time>
      </trkpt>
      <trkpt lat="22.359233" lon="113.592789">
        <ele>7.9</ele>
        <time>2024-02-12T13:51:33Z</time>
      </trkpt>
      <trkpt lat="22.359218" lon="113.592809">
        <ele>7.9</ele>
        <time>2024-02-12T13:51:34Z</time>
      </trkpt>
      <trkpt lat="22.359203" lon="113.592822">
        <ele>7.9</ele>
        <time>2024-02-12T13:51:35Z</time>
      </trkpt>
      <trkpt lat="22.359183" lon="113.59283">
        <ele>7.9</ele>
        <time>2024-02-12T13:51:36Z</time>
      </trkpt>
      <trkpt lat="22.35916" lon="113.592832">
        <ele>7.9</ele>
        <time>2024-02-12T13:51:37Z</time>
      </trkpt>
      <trkpt lat="22.35913" lon="113.592821">
        <ele>7.9</ele>
        <time>2024-02-12T13:51:38Z</time>
      </trkpt>
      <trkpt lat="22.359104" lon="113.592812">
        <ele>7.9</ele>
        <time>2024-02-12T13:51:39Z</time>
      </trkpt>
      <trkpt lat="22.359095" lon="113.592812">
        <ele>7.9</ele>
        <time>2024-02-12T13:51:40Z</time>
      </trkpt>
      <trkpt lat="22.359089" lon="113.592812">
        <ele>7.9</ele>
        <time>2024-02-12T13:51:41Z</time>
      </trkpt>
      <trkpt lat="22.359075" lon="113.592814">
        <ele>7.9</ele>
        <time>2024-02-12T13:51:42Z</time>
      </trkpt>
      <trkpt lat="22.359053" lon="113.592822">
        <ele>7.9</ele>
        <time>2024-02-12T13:51:43Z</time>
      </trkpt>
      <trkpt lat="22.35903" lon="113.592824">
        <ele>7.9</ele>
        <time>2024-02-12T13:51:44Z</time>
      </trkpt>
      <trkpt lat="22.359012" lon="113.592817">
        <ele>7.9</ele>
        <time>2024-02-12T13:51:45Z</time>
      </trkpt>
      <trkpt lat="22.358992" lon="113.592809">
        <ele>7.9</ele>
        <time>2024-02-12T13:51:46Z</time>
      </trkpt>
      <trkpt lat="22.358974" lon="113.592804">
        <ele>7.9</ele>
        <time>2024-02-12T13:51:47Z</time>
      </trkpt>
      <trkpt lat="22.358961" lon="113.592802">
        <ele>7.9</ele>
        <time>2024-02-12T13:51:48Z</time>
      </trkpt>
      <trkpt lat="22.358951" lon="113.592794">
        <ele>7.9</ele>
        <time>2024-02-12T13:51:49Z</time>
      </trkpt>
      <trkpt lat="22.35894" lon="113.592786">
        <ele>7.9</ele>
        <time>2024-02-12T13:51:50Z</time>
      </trkpt>
      <trkpt lat="22.358922" lon="113.592779">
        <ele>7.9</ele>
        <time>2024-02-12T13:51:51Z</time>
      </trkpt>
      <trkpt lat="22.358907" lon="113.592771">
        <ele>7.9</ele>
        <time>2024-02-12T13:51:52Z</time>
      </trkpt>
      <trkpt lat="22.358892" lon="113.592761">
        <ele>7.9</ele>
        <time>2024-02-12T13:51:53Z</time>
      </trkpt>
      <trkpt lat="22.358876" lon="113.592748">
        <ele>7.9</ele>
        <time>2024-02-12T13:51:54Z</time>
      </trkpt>
      <trkpt lat="22.358855" lon="113.592738">
        <ele>7.9</ele>
        <time>2024-02-12T13:51:55Z</time>
      </trkpt>
      <trkpt lat="22.358835" lon="113.592725">
        <ele>7.9</ele>
        <time>2024-02-12T13:51:56Z</time>
      </trkpt>
      <trkpt lat="22.358819" lon="113.592718">
        <ele>7.9</ele>
        <time>2024-02-12T13:51:57Z</time>
      </trkpt>
      <trkpt lat="22.35881" lon="113.592712">
        <ele>7.9</ele>
        <time>2024-02-12T13:51:58Z</time>
      </trkpt>
      <trkpt lat="22.358805" lon="113.59271">
        <ele>7.9</ele>
        <time>2024-02-12T13:51:59Z</time>
      </trkpt>
      <trkpt lat="22.358794" lon="113.5927">
        <ele>7.9</ele>
        <time>2024-02-12T13:52:00Z</time>
      </trkpt>
      <trkpt lat="22.358782" lon="113.592687">
        <ele>7.9</ele>
        <time>2024-02-12T13:52:01Z</time>
      </trkpt>
      <trkpt lat="22.358764" lon="113.592679">
        <ele>7.9</ele>
        <time>2024-02-12T13:52:02Z</time>
      </trkpt>
      <trkpt lat="22.358751" lon="113.592669">
        <ele>7.9</ele>
        <time>2024-02-12T13:52:03Z</time>
      </trkpt>
      <trkpt lat="22.35874" lon="113.592654">
        <ele>7.9</ele>
        <time>2024-02-12T13:52:04Z</time>
      </trkpt>
      <trkpt lat="22.358726" lon="113.592639">
        <ele>7.9</ele>
        <time>2024-02-12T13:52:05Z</time>
      </trkpt>
      <trkpt lat="22.358699" lon="113.592626">
        <ele>7.9</ele>
        <time>2024-02-12T13:52:06Z</time>
      </trkpt>
      <trkpt lat="22.358667" lon="113.592613">
        <ele>7.9</ele>
        <time>2024-02-12T13:52:07Z</time>
      </trkpt>
      <trkpt lat="22.35864" lon="113.592595">
        <ele>7.9</ele>
        <time>2024-02-12T13:52:08Z</time>
      </trkpt>
      <trkpt lat="22.35862" lon="113.592585">
        <ele>7.9</ele>
        <time>2024-02-12T13:52:09Z</time>
      </trkpt>
      <trkpt lat="22.358605" lon="113.59257">
        <ele>7.9</ele>
        <time>2024-02-12T13:52:10Z</time>
      </trkpt>
      <trkpt lat="22.35859" lon="113.592552">
        <ele>7.9</ele>
        <time>2024-02-12T13:52:11Z</time>
      </trkpt>
      <trkpt lat="22.358575" lon="113.592532">
        <ele>7.9</ele>
        <time>2024-02-12T13:52:12Z</time>
      </trkpt>
      <trkpt lat="22.35856" lon="113.592514">
        <ele>7.9</ele>
        <time>2024-02-12T13:52:13Z</time>
      </trkpt>
      <trkpt lat="22.358542" lon="113.592494">
        <ele>7.9</ele>
        <time>2024-02-12T13:52:14Z</time>
      </trkpt>
      <trkpt lat="22.358524" lon="113.592481">
        <ele>7.9</ele>
        <time>2024-02-12T13:52:15Z</time>
      </trkpt>
      <trkpt lat="22.35851" lon="113.592473">
        <ele>7.9</ele>
        <time>2024-02-12T13:52:16Z</time>
      </trkpt>
      <trkpt lat="22.358501" lon="113.592468">
        <ele>7.9</ele>
        <time>2024-02-12T13:52:17Z</time>
      </trkpt>
      <trkpt lat="22.358493" lon="113.592468">
        <ele>7.9</ele>
        <time>2024-02-12T13:52:18Z</time>
      </trkpt>
      <trkpt lat="22.358485" lon="113.592471">
        <ele>7.9</ele>
        <time>2024-02-12T13:52:19Z</time>
      </trkpt>
      <trkpt lat="22.358478" lon="113.592476">
        <ele>7.9</ele>
        <time>2024-02-12T13:52:20Z</time>
      </trkpt>
      <trkpt lat="22.358479" lon="113.592476">
        <ele>7.9</ele>
        <time>2024-02-12T13:52:21Z</time>
      </trkpt>
      <trkpt lat="22.358484" lon="113.592478">
        <ele>7.9</ele>
        <time>2024-02-12T13:52:22Z</time>
      </trkpt>
      <trkpt lat="22.358482" lon="113.592488">
        <ele>7.9</ele>
        <time>2024-02-12T13:52:23Z</time>
      </trkpt>
      <trkpt lat="22.358475" lon="113.592499">
        <ele>7.9</ele>
        <time>2024-02-12T13:52:24Z</time>
      </trkpt>
    </trkseg>
  </trk>
</gpx>