<?xml version="1.0" encoding="UTF-8"?>
<gpx xmlns="http://www.topografix.com/GPX/1/1" xmlns:xsi="http://www.w3.org/2001/XMLSchema-instance" xsi:schemaLocation="http://www.topografix.com/GPX/1/1 http://www.topografix.com/GPX/1/1/gpx.xsd" version="1.1" creator="鹏">
  <metadata>
    <name>From 岐江村 to 鳘鱼沙村 (Completed)</name>
    <desc>Distance: 0.46km, Estimated duration: 0.04h, Elevation up: 0.0m, Elevation down: 1.3207157976373995m</desc>
    <author>
      <name>鹏</name>
      <link href="https://www.komoot.de/user/3342641231843">
        <text>View 鹏's Profile on Komoot</text>
      </link>
    </author>
    <link href="https://www.komoot.de/tour/1471207737">
      <text>View tour on Komoot</text>
    </link>
  </metadata>
  <trk>
    <name>From 岐江村 to 鳘鱼沙村 (Completed)</name>
    <desc>Distance: 0.46km, Estimated duration: 0.04h, Elevation up: 0.0m, Elevation down: 1.3207157976373995m</desc>
    <link href="https://www.komoot.de/tour/1471207737">
      <text>View tour on Komoot</text>
    </link>
    <trkseg>
      <trkpt lat="22.228909" lon="113.300699">
        <ele>7</ele>
        <time>2024-03-16T14:00:15.052000+0800</time>
      </trkpt>
      <trkpt lat="22.228942" lon="113.300603">
        <ele>7</ele>
        <time>2024-03-16T14:00:18.086000+0800</time>
      </trkpt>
      <trkpt lat="22.228964" lon="113.300481">
        <ele>7</ele>
        <time>2024-03-16T14:00:22.114000+0800</time>
      </trkpt>
      <trkpt lat="22.229" lon="113.30037">
        <ele>7</ele>
        <time>2024-03-16T14:00:26.092000+0800</time>
      </trkpt>
      <trkpt lat="22.229057" lon="113.300283">
        <ele>7</ele>
        <time>2024-03-16T14:00:29.078000+0800</time>
      </trkpt>
      <trkpt lat="22.229114" lon="113.300188">
        <ele>7</ele>
        <time>2024-03-16T14:00:32.148000+0800</time>
      </trkpt>
      <trkpt lat="22.229044" lon="113.300085">
        <ele>7</ele>
        <time>2024-03-16T14:00:36.132000+0800</time>
      </trkpt>
      <trkpt lat="22.228959" lon="113.300027">
        <ele>7</ele>
        <time>2024-03-16T14:00:39.110000+0800</time>
      </trkpt>
      <trkpt lat="22.228865" lon="113.299963">
        <ele>7</ele>
        <time>2024-03-16T14:00:42.123000+0800</time>
      </trkpt>
      <trkpt lat="22.228776" lon="113.299905">
        <ele>7</ele>
        <time>2024-03-16T14:00:45.155000+0800</time>
      </trkpt>
      <trkpt lat="22.228682" lon="113.29985">
        <ele>6.9</ele>
        <time>2024-03-16T14:00:49.061000+0800</time>
      </trkpt>
      <trkpt lat="22.228578" lon="113.299844">
        <ele>6.8</ele>
        <time>2024-03-16T14:00:55.120000+0800</time>
      </trkpt>
      <trkpt lat="22.228513" lon="113.299913">
        <ele>6.8</ele>
        <time>2024-03-16T14:00:59.062000+0800</time>
      </trkpt>
      <trkpt lat="22.228403" lon="113.299938">
        <ele>6.7</ele>
        <time>2024-03-16T14:01:03.085000+0800</time>
      </trkpt>
      <trkpt lat="22.228302" lon="113.299951">
        <ele>6.6</ele>
        <time>2024-03-16T14:01:06.101000+0800</time>
      </trkpt>
      <trkpt lat="22.228212" lon="113.300022">
        <ele>6.5</ele>
        <time>2024-03-16T14:01:09.071000+0800</time>
      </trkpt>
      <trkpt lat="22.228125" lon="113.300098">
        <ele>6.4</ele>
        <time>2024-03-16T14:01:12.067000+0800</time>
      </trkpt>
      <trkpt lat="22.228034" lon="113.300174">
        <ele>6.4</ele>
        <time>2024-03-16T14:01:15.053000+0800</time>
      </trkpt>
      <trkpt lat="22.227943" lon="113.30026">
        <ele>6.3</ele>
        <time>2024-03-16T14:01:18.055000+0800</time>
      </trkpt>
      <trkpt lat="22.227847" lon="113.300346">
        <ele>6.2</ele>
        <time>2024-03-16T14:01:21.062000+0800</time>
      </trkpt>
      <trkpt lat="22.227748" lon="113.300434">
        <ele>6.1</ele>
        <time>2024-03-16T14:01:24.081000+0800</time>
      </trkpt>
      <trkpt lat="22.227639" lon="113.300508">
        <ele>6</ele>
        <time>2024-03-16T14:01:27.074000+0800</time>
      </trkpt>
      <trkpt lat="22.227539" lon="113.300594">
        <ele>5.9</ele>
        <time>2024-03-16T14:01:30.057000+0800</time>
      </trkpt>
      <trkpt lat="22.227452" lon="113.300691">
        <ele>5.8</ele>
        <time>2024-03-16T14:01:33.057000+0800</time>
      </trkpt>
      <trkpt lat="22.227342" lon="113.300746">
        <ele>5.7</ele>
        <time>2024-03-16T14:01:36.061000+0800</time>
      </trkpt>
      <trkpt lat="22.227253" lon="113.300766">
        <ele>5.7</ele>
        <time>2024-03-16T14:01:39.058000+0800</time>
      </trkpt>
      <trkpt lat="22.22716" lon="113.300858">
        <ele>5.7</ele>
        <time>2024-03-16T14:01:43.052000+0800</time>
      </trkpt>
      <trkpt lat="22.227084" lon="113.300933">
        <ele>5.7</ele>
        <time>2024-03-16T14:01:46.054000+0800</time>
      </trkpt>
      <trkpt lat="22.226992" lon="113.300987">
        <ele>5.7</ele>
        <time>2024-03-16T14:01:49.058000+0800</time>
      </trkpt>
      <trkpt lat="22.226933" lon="113.301064">
        <ele>5.7</ele>
        <time>2024-03-16T14:01:52.070000+0800</time>
      </trkpt>
      <trkpt lat="22.226868" lon="113.30114">
        <ele>5.7</ele>
        <time>2024-03-16T14:01:55.083000+0800</time>
      </trkpt>
      <trkpt lat="22.226779" lon="113.301219">
        <ele>5.7</ele>
        <time>2024-03-16T14:01:59.061000+0800</time>
      </trkpt>
      <trkpt lat="22.226736" lon="113.301312">
        <ele>5.7</ele>
        <time>2024-03-16T14:02:07.061000+0800</time>
      </trkpt>
      <trkpt lat="22.226653" lon="113.301368">
        <ele>5.7</ele>
        <time>2024-03-16T14:02:11.051000+0800</time>
      </trkpt>
      <trkpt lat="22.226582" lon="113.301306">
        <ele>5.7</ele>
        <time>2024-03-16T14:02:15.062000+0800</time>
      </trkpt>
      <trkpt lat="22.226487" lon="113.301326">
        <ele>5.7</ele>
        <time>2024-03-16T14:02:18.048000+0800</time>
      </trkpt>
      <trkpt lat="22.226382" lon="113.301314">
        <ele>5.7</ele>
        <time>2024-03-16T14:02:21.053000+0800</time>
      </trkpt>
      <trkpt lat="22.226295" lon="113.301344">
        <ele>5.7</ele>
        <time>2024-03-16T14:02:24.058000+0800</time>
      </trkpt>
      <trkpt lat="22.226216" lon="113.301409">
        <ele>5.7</ele>
        <time>2024-03-16T14:02:27.077000+0800</time>
      </trkpt>
      <trkpt lat="22.226174" lon="113.301431">
        <ele>5.7</ele>
        <time>2024-03-16T14:02:43.995000+0800</time>
      </trkpt>
    </trkseg>
  </trk>
</gpx>