<?xml version="1.0" encoding="UTF-8"?>
<gpx xmlns="http://www.topografix.com/GPX/1/1" xmlns:xsi="http://www.w3.org/2001/XMLSchema-instance" xsi:schemaLocation="http://www.topografix.com/GPX/1/1 http://www.topografix.com/GPX/1/1/gpx.xsd" version="1.1" creator="鹏">
  <metadata>
    <name>西湾村 - 西湾亭 2024/8/4 08:01:57 (Completed)</name>
    <desc>Distance: 2.659km, Estimated duration: 1.11h, Elevation up: 132.9825956968944m, Elevation down: 8.390004998517396m</desc>
    <author>
      <name>鹏</name>
      <link href="https://www.komoot.de/user/3342641231843">
        <text>View 鹏's Profile on Komoot</text>
      </link>
    </author>
    <link href="https://www.komoot.de/tour/1760839078">
      <text>View tour on Komoot</text>
    </link>
  </metadata>
  <trk>
    <name>西湾村 - 西湾亭 2024/8/4 08:01:57 (Completed)</name>
    <desc>Distance: 2.659km, Estimated duration: 1.11h, Elevation up: 132.9825956968944m, Elevation down: 8.390004998517396m</desc>
    <link href="https://www.komoot.de/tour/1760839078">
      <text>View tour on Komoot</text>
    </link>
    <trkseg>
      <trkpt lat="22.395899" lon="114.370392">
        <ele>6.2</ele>
        <time>2024-08-04T08:01:56+0800</time>
      </trkpt>
      <trkpt lat="22.395895" lon="114.370372">
        <ele>6.2</ele>
        <time>2024-08-04T08:01:57+0800</time>
      </trkpt>
      <trkpt lat="22.395898" lon="114.370384">
        <ele>6.2</ele>
        <time>2024-08-04T08:02:05+0800</time>
      </trkpt>
      <trkpt lat="22.395901" lon="114.370383">
        <ele>6.2</ele>
        <time>2024-08-04T08:02:06+0800</time>
      </trkpt>
      <trkpt lat="22.395917" lon="114.370401">
        <ele>6.2</ele>
        <time>2024-08-04T08:12:17+0800</time>
      </trkpt>
      <trkpt lat="22.395985" lon="114.370406">
        <ele>6.2</ele>
        <time>2024-08-04T08:12:32+0800</time>
      </trkpt>
      <trkpt lat="22.395999" lon="114.370395">
        <ele>6.2</ele>
        <time>2024-08-04T08:12:33+0800</time>
      </trkpt>
      <trkpt lat="22.396003" lon="114.370358">
        <ele>6.2</ele>
        <time>2024-08-04T08:12:35+0800</time>
      </trkpt>
      <trkpt lat="22.395998" lon="114.370343">
        <ele>6.2</ele>
        <time>2024-08-04T08:12:36+0800</time>
      </trkpt>
      <trkpt lat="22.395964" lon="114.370307">
        <ele>6.2</ele>
        <time>2024-08-04T08:12:53+0800</time>
      </trkpt>
      <trkpt lat="22.395925" lon="114.370283">
        <ele>6.2</ele>
        <time>2024-08-04T08:12:56+0800</time>
      </trkpt>
      <trkpt lat="22.39588" lon="114.370285">
        <ele>6.2</ele>
        <time>2024-08-04T08:13:00+0800</time>
      </trkpt>
      <trkpt lat="22.395843" lon="114.370268">
        <ele>6.2</ele>
        <time>2024-08-04T08:13:05+0800</time>
      </trkpt>
      <trkpt lat="22.395834" lon="114.370266">
        <ele>6.2</ele>
        <time>2024-08-04T08:13:06+0800</time>
      </trkpt>
      <trkpt lat="22.395802" lon="114.370251">
        <ele>6.2</ele>
        <time>2024-08-04T08:13:09+0800</time>
      </trkpt>
      <trkpt lat="22.395796" lon="114.370226">
        <ele>6.2</ele>
        <time>2024-08-04T08:13:11+0800</time>
      </trkpt>
      <trkpt lat="22.395707" lon="114.370194">
        <ele>6.2</ele>
        <time>2024-08-04T08:13:22+0800</time>
      </trkpt>
      <trkpt lat="22.395683" lon="114.370167">
        <ele>6.2</ele>
        <time>2024-08-04T08:13:25+0800</time>
      </trkpt>
      <trkpt lat="22.395671" lon="114.370165">
        <ele>6.2</ele>
        <time>2024-08-04T08:13:26+0800</time>
      </trkpt>
      <trkpt lat="22.395637" lon="114.370146">
        <ele>6.2</ele>
        <time>2024-08-04T08:13:30+0800</time>
      </trkpt>
      <trkpt lat="22.395612" lon="114.370108">
        <ele>6.2</ele>
        <time>2024-08-04T08:13:37+0800</time>
      </trkpt>
      <trkpt lat="22.39558" lon="114.370088">
        <ele>6.2</ele>
        <time>2024-08-04T08:13:40+0800</time>
      </trkpt>
      <trkpt lat="22.395559" lon="114.370039">
        <ele>6.2</ele>
        <time>2024-08-04T08:13:45+0800</time>
      </trkpt>
      <trkpt lat="22.395545" lon="114.370038">
        <ele>6.2</ele>
        <time>2024-08-04T08:13:46+0800</time>
      </trkpt>
      <trkpt lat="22.395495" lon="114.37">
        <ele>6.2</ele>
        <time>2024-08-04T08:13:51+0800</time>
      </trkpt>
      <trkpt lat="22.395459" lon="114.36999">
        <ele>6.2</ele>
        <time>2024-08-04T08:13:54+0800</time>
      </trkpt>
      <trkpt lat="22.395437" lon="114.369985">
        <ele>6.2</ele>
        <time>2024-08-04T08:13:57+0800</time>
      </trkpt>
      <trkpt lat="22.395408" lon="114.37">
        <ele>6.1</ele>
        <time>2024-08-04T08:14:00+0800</time>
      </trkpt>
      <trkpt lat="22.395403" lon="114.370002">
        <ele>6.1</ele>
        <time>2024-08-04T08:14:01+0800</time>
      </trkpt>
      <trkpt lat="22.395383" lon="114.370012">
        <ele>6.1</ele>
        <time>2024-08-04T08:14:54+0800</time>
      </trkpt>
      <trkpt lat="22.395302" lon="114.369929">
        <ele>5.9</ele>
        <time>2024-08-04T08:15:03+0800</time>
      </trkpt>
      <trkpt lat="22.395289" lon="114.369895">
        <ele>5.9</ele>
        <time>2024-08-04T08:15:06+0800</time>
      </trkpt>
      <trkpt lat="22.39528" lon="114.369875">
        <ele>5.8</ele>
        <time>2024-08-04T08:15:07+0800</time>
      </trkpt>
      <trkpt lat="22.395251" lon="114.369848">
        <ele>5.8</ele>
        <time>2024-08-04T08:15:10+0800</time>
      </trkpt>
      <trkpt lat="22.395133" lon="114.369835">
        <ele>5.6</ele>
        <time>2024-08-04T08:15:22+0800</time>
      </trkpt>
      <trkpt lat="22.395126" lon="114.36984">
        <ele>5.6</ele>
        <time>2024-08-04T08:15:23+0800</time>
      </trkpt>
      <trkpt lat="22.395064" lon="114.369834">
        <ele>5.5</ele>
        <time>2024-08-04T08:15:28+0800</time>
      </trkpt>
      <trkpt lat="22.39502" lon="114.369844">
        <ele>5.4</ele>
        <time>2024-08-04T08:15:31+0800</time>
      </trkpt>
      <trkpt lat="22.394996" lon="114.369838">
        <ele>5.4</ele>
        <time>2024-08-04T08:15:35+0800</time>
      </trkpt>
      <trkpt lat="22.394982" lon="114.369819">
        <ele>5.3</ele>
        <time>2024-08-04T08:15:38+0800</time>
      </trkpt>
      <trkpt lat="22.394951" lon="114.369824">
        <ele>5.3</ele>
        <time>2024-08-04T08:15:41+0800</time>
      </trkpt>
      <trkpt lat="22.394945" lon="114.36982">
        <ele>5.3</ele>
        <time>2024-08-04T08:15:42+0800</time>
      </trkpt>
      <trkpt lat="22.394922" lon="114.369806">
        <ele>5.2</ele>
        <time>2024-08-04T08:15:46+0800</time>
      </trkpt>
      <trkpt lat="22.394875" lon="114.369831">
        <ele>5.2</ele>
        <time>2024-08-04T08:15:50+0800</time>
      </trkpt>
      <trkpt lat="22.39481" lon="114.369797">
        <ele>5</ele>
        <time>2024-08-04T08:15:59+0800</time>
      </trkpt>
      <trkpt lat="22.394811" lon="114.369797">
        <ele>5</ele>
        <time>2024-08-04T08:16:00+0800</time>
      </trkpt>
      <trkpt lat="22.39482" lon="114.369794">
        <ele>5</ele>
        <time>2024-08-04T08:16:01+0800</time>
      </trkpt>
      <trkpt lat="22.394703" lon="114.369799">
        <ele>4.9</ele>
        <time>2024-08-04T08:16:13+0800</time>
      </trkpt>
      <trkpt lat="22.394677" lon="114.36981">
        <ele>4.8</ele>
        <time>2024-08-04T08:16:16+0800</time>
      </trkpt>
      <trkpt lat="22.394671" lon="114.369816">
        <ele>4.8</ele>
        <time>2024-08-04T08:16:17+0800</time>
      </trkpt>
      <trkpt lat="22.394616" lon="114.369864">
        <ele>4.7</ele>
        <time>2024-08-04T08:16:24+0800</time>
      </trkpt>
      <trkpt lat="22.394519" lon="114.369891">
        <ele>4.5</ele>
        <time>2024-08-04T08:16:35+0800</time>
      </trkpt>
      <trkpt lat="22.394511" lon="114.369894">
        <ele>4.5</ele>
        <time>2024-08-04T08:16:36+0800</time>
      </trkpt>
      <trkpt lat="22.394336" lon="114.369936">
        <ele>4.2</ele>
        <time>2024-08-04T08:16:54+0800</time>
      </trkpt>
      <trkpt lat="22.394323" lon="114.369941">
        <ele>4.2</ele>
        <time>2024-08-04T08:16:55+0800</time>
      </trkpt>
      <trkpt lat="22.39429" lon="114.369966">
        <ele>4.2</ele>
        <time>2024-08-04T08:16:58+0800</time>
      </trkpt>
      <trkpt lat="22.394244" lon="114.369968">
        <ele>4.1</ele>
        <time>2024-08-04T08:17:04+0800</time>
      </trkpt>
      <trkpt lat="22.394183" lon="114.369928">
        <ele>4</ele>
        <time>2024-08-04T08:17:11+0800</time>
      </trkpt>
      <trkpt lat="22.394164" lon="114.369899">
        <ele>3.9</ele>
        <time>2024-08-04T08:17:15+0800</time>
      </trkpt>
      <trkpt lat="22.394159" lon="114.369896">
        <ele>3.9</ele>
        <time>2024-08-04T08:17:16+0800</time>
      </trkpt>
      <trkpt lat="22.394132" lon="114.369885">
        <ele>3.9</ele>
        <time>2024-08-04T08:17:20+0800</time>
      </trkpt>
      <trkpt lat="22.394072" lon="114.369827">
        <ele>3.7</ele>
        <time>2024-08-04T08:17:45+0800</time>
      </trkpt>
      <trkpt lat="22.394047" lon="114.369819">
        <ele>3.7</ele>
        <time>2024-08-04T08:17:47+0800</time>
      </trkpt>
      <trkpt lat="22.394022" lon="114.369789">
        <ele>3.6</ele>
        <time>2024-08-04T08:17:50+0800</time>
      </trkpt>
      <trkpt lat="22.394019" lon="114.36978">
        <ele>3.6</ele>
        <time>2024-08-04T08:17:51+0800</time>
      </trkpt>
      <trkpt lat="22.393961" lon="114.369731">
        <ele>3.5</ele>
        <time>2024-08-04T08:17:59+0800</time>
      </trkpt>
      <trkpt lat="22.393868" lon="114.369706">
        <ele>3.4</ele>
        <time>2024-08-04T08:18:08+0800</time>
      </trkpt>
      <trkpt lat="22.393861" lon="114.369699">
        <ele>3.4</ele>
        <time>2024-08-04T08:18:09+0800</time>
      </trkpt>
      <trkpt lat="22.393843" lon="114.36967">
        <ele>3.6</ele>
        <time>2024-08-04T08:18:12+0800</time>
      </trkpt>
      <trkpt lat="22.393809" lon="114.369661">
        <ele>3.8</ele>
        <time>2024-08-04T08:18:16+0800</time>
      </trkpt>
      <trkpt lat="22.393775" lon="114.369622">
        <ele>4.1</ele>
        <time>2024-08-04T08:18:23+0800</time>
      </trkpt>
      <trkpt lat="22.393758" lon="114.36957">
        <ele>4.4</ele>
        <time>2024-08-04T08:18:28+0800</time>
      </trkpt>
      <trkpt lat="22.393755" lon="114.369559">
        <ele>4.5</ele>
        <time>2024-08-04T08:18:29+0800</time>
      </trkpt>
      <trkpt lat="22.393713" lon="114.369507">
        <ele>4.8</ele>
        <time>2024-08-04T08:18:34+0800</time>
      </trkpt>
      <trkpt lat="22.393668" lon="114.369487">
        <ele>5.1</ele>
        <time>2024-08-04T08:18:42+0800</time>
      </trkpt>
      <trkpt lat="22.393595" lon="114.36948">
        <ele>5.5</ele>
        <time>2024-08-04T08:18:46+0800</time>
      </trkpt>
      <trkpt lat="22.393583" lon="114.369483">
        <ele>5.6</ele>
        <time>2024-08-04T08:18:47+0800</time>
      </trkpt>
      <trkpt lat="22.39357" lon="114.369488">
        <ele>5.7</ele>
        <time>2024-08-04T08:18:48+0800</time>
      </trkpt>
      <trkpt lat="22.393529" lon="114.369477">
        <ele>5.9</ele>
        <time>2024-08-04T08:18:53+0800</time>
      </trkpt>
      <trkpt lat="22.393419" lon="114.369432">
        <ele>6.6</ele>
        <time>2024-08-04T08:19:04+0800</time>
      </trkpt>
      <trkpt lat="22.393417" lon="114.369428">
        <ele>6.6</ele>
        <time>2024-08-04T08:19:05+0800</time>
      </trkpt>
      <trkpt lat="22.39341" lon="114.36939">
        <ele>6.8</ele>
        <time>2024-08-04T08:19:08+0800</time>
      </trkpt>
      <trkpt lat="22.393395" lon="114.369371">
        <ele>7</ele>
        <time>2024-08-04T08:19:10+0800</time>
      </trkpt>
      <trkpt lat="22.39335" lon="114.369362">
        <ele>7.2</ele>
        <time>2024-08-04T08:19:13+0800</time>
      </trkpt>
      <trkpt lat="22.393305" lon="114.369337">
        <ele>7.5</ele>
        <time>2024-08-04T08:19:17+0800</time>
      </trkpt>
      <trkpt lat="22.393295" lon="114.369329">
        <ele>7.6</ele>
        <time>2024-08-04T08:19:18+0800</time>
      </trkpt>
      <trkpt lat="22.393233" lon="114.369275">
        <ele>8</ele>
        <time>2024-08-04T08:19:26+0800</time>
      </trkpt>
      <trkpt lat="22.393126" lon="114.369293">
        <ele>8.7</ele>
        <time>2024-08-04T08:19:35+0800</time>
      </trkpt>
      <trkpt lat="22.393115" lon="114.369295">
        <ele>8.7</ele>
        <time>2024-08-04T08:19:36+0800</time>
      </trkpt>
      <trkpt lat="22.39308" lon="114.369295">
        <ele>8.9</ele>
        <time>2024-08-04T08:19:39+0800</time>
      </trkpt>
      <trkpt lat="22.393045" lon="114.369276">
        <ele>9.2</ele>
        <time>2024-08-04T08:19:43+0800</time>
      </trkpt>
      <trkpt lat="22.393022" lon="114.369274">
        <ele>9.3</ele>
        <time>2024-08-04T08:19:45+0800</time>
      </trkpt>
      <trkpt lat="22.392945" lon="114.369288">
        <ele>9.7</ele>
        <time>2024-08-04T08:19:52+0800</time>
      </trkpt>
      <trkpt lat="22.392934" lon="114.369287">
        <ele>9.8</ele>
        <time>2024-08-04T08:19:53+0800</time>
      </trkpt>
      <trkpt lat="22.392884" lon="114.369264">
        <ele>10.1</ele>
        <time>2024-08-04T08:19:58+0800</time>
      </trkpt>
      <trkpt lat="22.392798" lon="114.369183">
        <ele>10.8</ele>
        <time>2024-08-04T08:20:09+0800</time>
      </trkpt>
      <trkpt lat="22.392792" lon="114.369175">
        <ele>10.8</ele>
        <time>2024-08-04T08:20:10+0800</time>
      </trkpt>
      <trkpt lat="22.392741" lon="114.369105">
        <ele>11.3</ele>
        <time>2024-08-04T08:20:18+0800</time>
      </trkpt>
      <trkpt lat="22.392718" lon="114.369092">
        <ele>11.5</ele>
        <time>2024-08-04T08:20:22+0800</time>
      </trkpt>
      <trkpt lat="22.392677" lon="114.36902">
        <ele>11.9</ele>
        <time>2024-08-04T08:20:30+0800</time>
      </trkpt>
      <trkpt lat="22.392669" lon="114.369015">
        <ele>12</ele>
        <time>2024-08-04T08:20:31+0800</time>
      </trkpt>
      <trkpt lat="22.392655" lon="114.368939">
        <ele>12.4</ele>
        <time>2024-08-04T08:20:39+0800</time>
      </trkpt>
      <trkpt lat="22.392653" lon="114.36883">
        <ele>13</ele>
        <time>2024-08-04T08:20:49+0800</time>
      </trkpt>
      <trkpt lat="22.392648" lon="114.368813">
        <ele>13.1</ele>
        <time>2024-08-04T08:20:50+0800</time>
      </trkpt>
      <trkpt lat="22.39262" lon="114.368696">
        <ele>13.7</ele>
        <time>2024-08-04T08:21:03+0800</time>
      </trkpt>
      <trkpt lat="22.392632" lon="114.368667">
        <ele>14</ele>
        <time>2024-08-04T08:21:05+0800</time>
      </trkpt>
      <trkpt lat="22.392627" lon="114.368636">
        <ele>14.4</ele>
        <time>2024-08-04T08:21:07+0800</time>
      </trkpt>
      <trkpt lat="22.392624" lon="114.368627">
        <ele>14.5</ele>
        <time>2024-08-04T08:21:08+0800</time>
      </trkpt>
      <trkpt lat="22.392599" lon="114.368543">
        <ele>15.6</ele>
        <time>2024-08-04T08:21:16+0800</time>
      </trkpt>
      <trkpt lat="22.392569" lon="114.368508">
        <ele>16.2</ele>
        <time>2024-08-04T08:21:20+0800</time>
      </trkpt>
      <trkpt lat="22.392549" lon="114.368452">
        <ele>16.9</ele>
        <time>2024-08-04T08:21:25+0800</time>
      </trkpt>
      <trkpt lat="22.392547" lon="114.368439">
        <ele>17</ele>
        <time>2024-08-04T08:21:26+0800</time>
      </trkpt>
      <trkpt lat="22.392522" lon="114.368415">
        <ele>17.5</ele>
        <time>2024-08-04T08:21:29+0800</time>
      </trkpt>
      <trkpt lat="22.392525" lon="114.368388">
        <ele>17.8</ele>
        <time>2024-08-04T08:21:32+0800</time>
      </trkpt>
      <trkpt lat="22.392508" lon="114.368352">
        <ele>18.3</ele>
        <time>2024-08-04T08:21:35+0800</time>
      </trkpt>
      <trkpt lat="22.392451" lon="114.368318">
        <ele>19.1</ele>
        <time>2024-08-04T08:21:41+0800</time>
      </trkpt>
      <trkpt lat="22.392437" lon="114.368314">
        <ele>19.3</ele>
        <time>2024-08-04T08:21:42+0800</time>
      </trkpt>
      <trkpt lat="22.392361" lon="114.368286">
        <ele>20.4</ele>
        <time>2024-08-04T08:21:48+0800</time>
      </trkpt>
      <trkpt lat="22.392313" lon="114.368281">
        <ele>21</ele>
        <time>2024-08-04T08:21:52+0800</time>
      </trkpt>
      <trkpt lat="22.392293" lon="114.36826">
        <ele>21.4</ele>
        <time>2024-08-04T08:21:54+0800</time>
      </trkpt>
      <trkpt lat="22.392285" lon="114.368257">
        <ele>21.5</ele>
        <time>2024-08-04T08:21:55+0800</time>
      </trkpt>
      <trkpt lat="22.392208" lon="114.368268">
        <ele>22.5</ele>
        <time>2024-08-04T08:22:03+0800</time>
      </trkpt>
      <trkpt lat="22.392123" lon="114.368253">
        <ele>23.6</ele>
        <time>2024-08-04T08:22:11+0800</time>
      </trkpt>
      <trkpt lat="22.392118" lon="114.368246">
        <ele>23.7</ele>
        <time>2024-08-04T08:22:12+0800</time>
      </trkpt>
      <trkpt lat="22.392055" lon="114.368178">
        <ele>24.9</ele>
        <time>2024-08-04T08:22:21+0800</time>
      </trkpt>
      <trkpt lat="22.392032" lon="114.368102">
        <ele>25.8</ele>
        <time>2024-08-04T08:22:28+0800</time>
      </trkpt>
      <trkpt lat="22.392023" lon="114.368091">
        <ele>26</ele>
        <time>2024-08-04T08:22:29+0800</time>
      </trkpt>
      <trkpt lat="22.391973" lon="114.368011">
        <ele>27.2</ele>
        <time>2024-08-04T08:22:36+0800</time>
      </trkpt>
      <trkpt lat="22.391985" lon="114.367967">
        <ele>27.7</ele>
        <time>2024-08-04T08:22:41+0800</time>
      </trkpt>
      <trkpt lat="22.391962" lon="114.367926">
        <ele>28.3</ele>
        <time>2024-08-04T08:22:46+0800</time>
      </trkpt>
      <trkpt lat="22.391961" lon="114.367921">
        <ele>28.3</ele>
        <time>2024-08-04T08:22:47+0800</time>
      </trkpt>
      <trkpt lat="22.39195" lon="114.367917">
        <ele>28.5</ele>
        <time>2024-08-04T08:22:48+0800</time>
      </trkpt>
      <trkpt lat="22.391942" lon="114.367895">
        <ele>28.8</ele>
        <time>2024-08-04T08:22:54+0800</time>
      </trkpt>
      <trkpt lat="22.391927" lon="114.367814">
        <ele>29.8</ele>
        <time>2024-08-04T08:23:02+0800</time>
      </trkpt>
      <trkpt lat="22.391898" lon="114.36773">
        <ele>30.9</ele>
        <time>2024-08-04T08:23:15+0800</time>
      </trkpt>
      <trkpt lat="22.391892" lon="114.367721">
        <ele>31</ele>
        <time>2024-08-04T08:23:16+0800</time>
      </trkpt>
      <trkpt lat="22.391879" lon="114.367687">
        <ele>31.4</ele>
        <time>2024-08-04T08:23:21+0800</time>
      </trkpt>
      <trkpt lat="22.391826" lon="114.367633">
        <ele>32.4</ele>
        <time>2024-08-04T08:23:32+0800</time>
      </trkpt>
      <trkpt lat="22.391791" lon="114.367562">
        <ele>33.3</ele>
        <time>2024-08-04T08:23:43+0800</time>
      </trkpt>
      <trkpt lat="22.391786" lon="114.367555">
        <ele>33.4</ele>
        <time>2024-08-04T08:23:44+0800</time>
      </trkpt>
      <trkpt lat="22.391768" lon="114.367529">
        <ele>33.8</ele>
        <time>2024-08-04T08:23:47+0800</time>
      </trkpt>
      <trkpt lat="22.391744" lon="114.367435">
        <ele>35</ele>
        <time>2024-08-04T08:24:02+0800</time>
      </trkpt>
      <trkpt lat="22.391706" lon="114.367393">
        <ele>35.7</ele>
        <time>2024-08-04T08:24:09+0800</time>
      </trkpt>
      <trkpt lat="22.391699" lon="114.367391">
        <ele>35.8</ele>
        <time>2024-08-04T08:24:10+0800</time>
      </trkpt>
      <trkpt lat="22.39168" lon="114.367307">
        <ele>36.9</ele>
        <time>2024-08-04T08:24:22+0800</time>
      </trkpt>
      <trkpt lat="22.391659" lon="114.367294">
        <ele>37.2</ele>
        <time>2024-08-04T08:24:25+0800</time>
      </trkpt>
      <trkpt lat="22.391653" lon="114.367248">
        <ele>38.1</ele>
        <time>2024-08-04T08:24:29+0800</time>
      </trkpt>
      <trkpt lat="22.391638" lon="114.367217">
        <ele>38.9</ele>
        <time>2024-08-04T08:24:33+0800</time>
      </trkpt>
      <trkpt lat="22.391631" lon="114.367208">
        <ele>39.1</ele>
        <time>2024-08-04T08:24:34+0800</time>
      </trkpt>
      <trkpt lat="22.391602" lon="114.367155">
        <ele>40.4</ele>
        <time>2024-08-04T08:24:42+0800</time>
      </trkpt>
      <trkpt lat="22.391598" lon="114.367077">
        <ele>42</ele>
        <time>2024-08-04T08:24:54+0800</time>
      </trkpt>
      <trkpt lat="22.39157" lon="114.367027">
        <ele>43.2</ele>
        <time>2024-08-04T08:25:01+0800</time>
      </trkpt>
      <trkpt lat="22.391566" lon="114.36702">
        <ele>43.3</ele>
        <time>2024-08-04T08:25:02+0800</time>
      </trkpt>
      <trkpt lat="22.391557" lon="114.366961">
        <ele>44.6</ele>
        <time>2024-08-04T08:25:09+0800</time>
      </trkpt>
      <trkpt lat="22.391482" lon="114.366881">
        <ele>46.9</ele>
        <time>2024-08-04T08:26:07+0800</time>
      </trkpt>
      <trkpt lat="22.391478" lon="114.366867">
        <ele>47.2</ele>
        <time>2024-08-04T08:26:08+0800</time>
      </trkpt>
      <trkpt lat="22.391472" lon="114.366857">
        <ele>47.4</ele>
        <time>2024-08-04T08:26:09+0800</time>
      </trkpt>
      <trkpt lat="22.39145" lon="114.366805">
        <ele>48.6</ele>
        <time>2024-08-04T08:26:18+0800</time>
      </trkpt>
      <trkpt lat="22.391463" lon="114.366763">
        <ele>49.5</ele>
        <time>2024-08-04T08:26:23+0800</time>
      </trkpt>
      <trkpt lat="22.391443" lon="114.36669">
        <ele>51.1</ele>
        <time>2024-08-04T08:26:34+0800</time>
      </trkpt>
      <trkpt lat="22.391446" lon="114.366681">
        <ele>51.3</ele>
        <time>2024-08-04T08:26:35+0800</time>
      </trkpt>
      <trkpt lat="22.391441" lon="114.366622">
        <ele>52.5</ele>
        <time>2024-08-04T08:26:43+0800</time>
      </trkpt>
      <trkpt lat="22.391424" lon="114.3666">
        <ele>53.1</ele>
        <time>2024-08-04T08:26:47+0800</time>
      </trkpt>
      <trkpt lat="22.391431" lon="114.366555">
        <ele>54</ele>
        <time>2024-08-04T08:26:52+0800</time>
      </trkpt>
      <trkpt lat="22.391412" lon="114.366536">
        <ele>54.6</ele>
        <time>2024-08-04T08:26:55+0800</time>
      </trkpt>
      <trkpt lat="22.391436" lon="114.36652">
        <ele>55.2</ele>
        <time>2024-08-04T08:27:00+0800</time>
      </trkpt>
      <trkpt lat="22.391436" lon="114.366511">
        <ele>55.4</ele>
        <time>2024-08-04T08:27:01+0800</time>
      </trkpt>
      <trkpt lat="22.391449" lon="114.366401">
        <ele>57.7</ele>
        <time>2024-08-04T08:27:18+0800</time>
      </trkpt>
      <trkpt lat="22.391428" lon="114.366353">
        <ele>58.7</ele>
        <time>2024-08-04T08:27:24+0800</time>
      </trkpt>
      <trkpt lat="22.391404" lon="114.366333">
        <ele>59.4</ele>
        <time>2024-08-04T08:27:32+0800</time>
      </trkpt>
      <trkpt lat="22.391401" lon="114.366334">
        <ele>59.5</ele>
        <time>2024-08-04T08:27:33+0800</time>
      </trkpt>
      <trkpt lat="22.391383" lon="114.366361">
        <ele>60.2</ele>
        <time>2024-08-04T08:27:45+0800</time>
      </trkpt>
      <trkpt lat="22.391335" lon="114.366392">
        <ele>61.4</ele>
        <time>2024-08-04T08:27:59+0800</time>
      </trkpt>
      <trkpt lat="22.391334" lon="114.366415">
        <ele>61.9</ele>
        <time>2024-08-04T08:28:25+0800</time>
      </trkpt>
      <trkpt lat="22.391315" lon="114.366433">
        <ele>62.4</ele>
        <time>2024-08-04T08:28:27+0800</time>
      </trkpt>
      <trkpt lat="22.391302" lon="114.366401">
        <ele>63.1</ele>
        <time>2024-08-04T08:28:41+0800</time>
      </trkpt>
      <trkpt lat="22.391302" lon="114.366391">
        <ele>63.4</ele>
        <time>2024-08-04T08:28:42+0800</time>
      </trkpt>
      <trkpt lat="22.391311" lon="114.366344">
        <ele>64.3</ele>
        <time>2024-08-04T08:28:47+0800</time>
      </trkpt>
      <trkpt lat="22.391306" lon="114.366318">
        <ele>64.9</ele>
        <time>2024-08-04T08:28:50+0800</time>
      </trkpt>
      <trkpt lat="22.39127" lon="114.366285">
        <ele>65.9</ele>
        <time>2024-08-04T08:28:55+0800</time>
      </trkpt>
      <trkpt lat="22.391268" lon="114.366265">
        <ele>66.3</ele>
        <time>2024-08-04T08:28:57+0800</time>
      </trkpt>
      <trkpt lat="22.391289" lon="114.366241">
        <ele>67</ele>
        <time>2024-08-04T08:29:02+0800</time>
      </trkpt>
      <trkpt lat="22.391288" lon="114.36623">
        <ele>67.2</ele>
        <time>2024-08-04T08:29:03+0800</time>
      </trkpt>
      <trkpt lat="22.391293" lon="114.366149">
        <ele>68.9</ele>
        <time>2024-08-04T08:29:12+0800</time>
      </trkpt>
      <trkpt lat="22.391311" lon="114.366097">
        <ele>70</ele>
        <time>2024-08-04T08:29:24+0800</time>
      </trkpt>
      <trkpt lat="22.391311" lon="114.366041">
        <ele>71.2</ele>
        <time>2024-08-04T08:29:30+0800</time>
      </trkpt>
      <trkpt lat="22.391304" lon="114.366029">
        <ele>71.5</ele>
        <time>2024-08-04T08:29:31+0800</time>
      </trkpt>
      <trkpt lat="22.391284" lon="114.366001">
        <ele>72.2</ele>
        <time>2024-08-04T08:29:35+0800</time>
      </trkpt>
      <trkpt lat="22.391265" lon="114.365999">
        <ele>72.6</ele>
        <time>2024-08-04T08:29:37+0800</time>
      </trkpt>
      <trkpt lat="22.391257" lon="114.365978">
        <ele>73.1</ele>
        <time>2024-08-04T08:29:54+0800</time>
      </trkpt>
      <trkpt lat="22.391178" lon="114.365916">
        <ele>75.3</ele>
        <time>2024-08-04T08:30:10+0800</time>
      </trkpt>
      <trkpt lat="22.391167" lon="114.36591">
        <ele>75.5</ele>
        <time>2024-08-04T08:30:11+0800</time>
      </trkpt>
      <trkpt lat="22.391073" lon="114.365844">
        <ele>76.9</ele>
        <time>2024-08-04T08:30:27+0800</time>
      </trkpt>
      <trkpt lat="22.391055" lon="114.365792">
        <ele>76.9</ele>
        <time>2024-08-04T08:30:36+0800</time>
      </trkpt>
      <trkpt lat="22.391056" lon="114.365783">
        <ele>76.8</ele>
        <time>2024-08-04T08:30:37+0800</time>
      </trkpt>
      <trkpt lat="22.391031" lon="114.365629">
        <ele>76.7</ele>
        <time>2024-08-04T08:31:01+0800</time>
      </trkpt>
      <trkpt lat="22.39101" lon="114.365647">
        <ele>76.7</ele>
        <time>2024-08-04T08:32:44+0800</time>
      </trkpt>
      <trkpt lat="22.39101" lon="114.365647">
        <ele>76.7</ele>
        <time>2024-08-04T08:32:45+0800</time>
      </trkpt>
      <trkpt lat="22.391009" lon="114.365618">
        <ele>76.6</ele>
        <time>2024-08-04T08:36:41+0800</time>
      </trkpt>
      <trkpt lat="22.391025" lon="114.365568">
        <ele>76.6</ele>
        <time>2024-08-04T08:40:34+0800</time>
      </trkpt>
      <trkpt lat="22.390965" lon="114.365486">
        <ele>76.5</ele>
        <time>2024-08-04T08:41:13+0800</time>
      </trkpt>
      <trkpt lat="22.390965" lon="114.365485">
        <ele>76.5</ele>
        <time>2024-08-04T08:41:14+0800</time>
      </trkpt>
      <trkpt lat="22.390929" lon="114.365357">
        <ele>76.3</ele>
        <time>2024-08-04T08:41:35+0800</time>
      </trkpt>
      <trkpt lat="22.390905" lon="114.36531">
        <ele>76.3</ele>
        <time>2024-08-04T08:41:46+0800</time>
      </trkpt>
      <trkpt lat="22.390902" lon="114.365304">
        <ele>76.3</ele>
        <time>2024-08-04T08:41:47+0800</time>
      </trkpt>
      <trkpt lat="22.390818" lon="114.365144">
        <ele>76.1</ele>
        <time>2024-08-04T08:42:19+0800</time>
      </trkpt>
      <trkpt lat="22.390816" lon="114.365142">
        <ele>76.1</ele>
        <time>2024-08-04T08:42:20+0800</time>
      </trkpt>
      <trkpt lat="22.39079" lon="114.365108">
        <ele>76.1</ele>
        <time>2024-08-04T08:42:24+0800</time>
      </trkpt>
      <trkpt lat="22.390743" lon="114.364945">
        <ele>75.9</ele>
        <time>2024-08-04T08:42:30+0800</time>
      </trkpt>
      <trkpt lat="22.390744" lon="114.364926">
        <ele>75.9</ele>
        <time>2024-08-04T08:42:31+0800</time>
      </trkpt>
      <trkpt lat="22.390754" lon="114.364885">
        <ele>75.8</ele>
        <time>2024-08-04T08:42:34+0800</time>
      </trkpt>
      <trkpt lat="22.390739" lon="114.364832">
        <ele>75.8</ele>
        <time>2024-08-04T08:42:40+0800</time>
      </trkpt>
      <trkpt lat="22.390736" lon="114.36475">
        <ele>75.7</ele>
        <time>2024-08-04T08:42:48+0800</time>
      </trkpt>
      <trkpt lat="22.390719" lon="114.364739">
        <ele>75.7</ele>
        <time>2024-08-04T08:42:49+0800</time>
      </trkpt>
      <trkpt lat="22.390708" lon="114.364737">
        <ele>75.7</ele>
        <time>2024-08-04T08:42:50+0800</time>
      </trkpt>
      <trkpt lat="22.390699" lon="114.36474">
        <ele>75.7</ele>
        <time>2024-08-04T08:42:51+0800</time>
      </trkpt>
      <trkpt lat="22.39067" lon="114.364692">
        <ele>75.6</ele>
        <time>2024-08-04T08:42:59+0800</time>
      </trkpt>
      <trkpt lat="22.390662" lon="114.364608">
        <ele>75.5</ele>
        <time>2024-08-04T08:43:10+0800</time>
      </trkpt>
      <trkpt lat="22.390646" lon="114.364572">
        <ele>75.5</ele>
        <time>2024-08-04T08:43:14+0800</time>
      </trkpt>
      <trkpt lat="22.390644" lon="114.364557">
        <ele>75.5</ele>
        <time>2024-08-04T08:43:15+0800</time>
      </trkpt>
      <trkpt lat="22.390643" lon="114.364475">
        <ele>75.4</ele>
        <time>2024-08-04T08:43:24+0800</time>
      </trkpt>
      <trkpt lat="22.390568" lon="114.364399">
        <ele>75.3</ele>
        <time>2024-08-04T08:43:38+0800</time>
      </trkpt>
      <trkpt lat="22.390561" lon="114.36439">
        <ele>75.3</ele>
        <time>2024-08-04T08:43:39+0800</time>
      </trkpt>
      <trkpt lat="22.39054" lon="114.364328">
        <ele>75.2</ele>
        <time>2024-08-04T08:43:44+0800</time>
      </trkpt>
      <trkpt lat="22.390482" lon="114.364234">
        <ele>75.1</ele>
        <time>2024-08-04T08:43:56+0800</time>
      </trkpt>
      <trkpt lat="22.390473" lon="114.364232">
        <ele>75.1</ele>
        <time>2024-08-04T08:43:57+0800</time>
      </trkpt>
      <trkpt lat="22.390401" lon="114.364157">
        <ele>75.7</ele>
        <time>2024-08-04T08:44:10+0800</time>
      </trkpt>
      <trkpt lat="22.39038" lon="114.364079">
        <ele>76.3</ele>
        <time>2024-08-04T08:44:20+0800</time>
      </trkpt>
      <trkpt lat="22.390378" lon="114.364071">
        <ele>76.4</ele>
        <time>2024-08-04T08:44:21+0800</time>
      </trkpt>
      <trkpt lat="22.390274" lon="114.363925">
        <ele>77.8</ele>
        <time>2024-08-04T08:44:37+0800</time>
      </trkpt>
      <trkpt lat="22.39027" lon="114.363918">
        <ele>77.9</ele>
        <time>2024-08-04T08:44:38+0800</time>
      </trkpt>
      <trkpt lat="22.390236" lon="114.363854">
        <ele>78.4</ele>
        <time>2024-08-04T08:44:45+0800</time>
      </trkpt>
      <trkpt lat="22.390234" lon="114.363827">
        <ele>78.7</ele>
        <time>2024-08-04T08:44:47+0800</time>
      </trkpt>
      <trkpt lat="22.390214" lon="114.363779">
        <ele>79.1</ele>
        <time>2024-08-04T08:44:53+0800</time>
      </trkpt>
      <trkpt lat="22.39019" lon="114.363754">
        <ele>79.3</ele>
        <time>2024-08-04T08:44:56+0800</time>
      </trkpt>
      <trkpt lat="22.390186" lon="114.363746">
        <ele>79.4</ele>
        <time>2024-08-04T08:44:57+0800</time>
      </trkpt>
      <trkpt lat="22.390105" lon="114.363639">
        <ele>80.5</ele>
        <time>2024-08-04T08:45:09+0800</time>
      </trkpt>
      <trkpt lat="22.390098" lon="114.363598">
        <ele>80.8</ele>
        <time>2024-08-04T08:45:13+0800</time>
      </trkpt>
      <trkpt lat="22.390093" lon="114.363588">
        <ele>80.9</ele>
        <time>2024-08-04T08:45:14+0800</time>
      </trkpt>
      <trkpt lat="22.390072" lon="114.36351">
        <ele>81.5</ele>
        <time>2024-08-04T08:45:23+0800</time>
      </trkpt>
      <trkpt lat="22.390087" lon="114.363413">
        <ele>82.3</ele>
        <time>2024-08-04T08:45:31+0800</time>
      </trkpt>
      <trkpt lat="22.390092" lon="114.363398">
        <ele>82.4</ele>
        <time>2024-08-04T08:45:32+0800</time>
      </trkpt>
      <trkpt lat="22.390114" lon="114.363298">
        <ele>83.2</ele>
        <time>2024-08-04T08:45:45+0800</time>
      </trkpt>
      <trkpt lat="22.390095" lon="114.363251">
        <ele>83.6</ele>
        <time>2024-08-04T08:45:49+0800</time>
      </trkpt>
      <trkpt lat="22.390064" lon="114.363229">
        <ele>83.9</ele>
        <time>2024-08-04T08:45:52+0800</time>
      </trkpt>
      <trkpt lat="22.390056" lon="114.363222">
        <ele>84</ele>
        <time>2024-08-04T08:45:53+0800</time>
      </trkpt>
      <trkpt lat="22.390039" lon="114.363161">
        <ele>84.5</ele>
        <time>2024-08-04T08:46:01+0800</time>
      </trkpt>
      <trkpt lat="22.389972" lon="114.363143">
        <ele>85.1</ele>
        <time>2024-08-04T08:46:33+0800</time>
      </trkpt>
      <trkpt lat="22.389941" lon="114.363144">
        <ele>85.4</ele>
        <time>2024-08-04T08:46:37+0800</time>
      </trkpt>
      <trkpt lat="22.389931" lon="114.36314">
        <ele>85.5</ele>
        <time>2024-08-04T08:46:38+0800</time>
      </trkpt>
      <trkpt lat="22.389836" lon="114.363106">
        <ele>86.3</ele>
        <time>2024-08-04T08:46:50+0800</time>
      </trkpt>
      <trkpt lat="22.389797" lon="114.363029">
        <ele>87</ele>
        <time>2024-08-04T08:47:00+0800</time>
      </trkpt>
      <trkpt lat="22.389792" lon="114.363021">
        <ele>87.1</ele>
        <time>2024-08-04T08:47:01+0800</time>
      </trkpt>
      <trkpt lat="22.389774" lon="114.362994">
        <ele>87.3</ele>
        <time>2024-08-04T08:47:04+0800</time>
      </trkpt>
      <trkpt lat="22.389768" lon="114.36295">
        <ele>87.7</ele>
        <time>2024-08-04T08:47:09+0800</time>
      </trkpt>
      <trkpt lat="22.389755" lon="114.362931">
        <ele>87.9</ele>
        <time>2024-08-04T08:47:11+0800</time>
      </trkpt>
      <trkpt lat="22.389744" lon="114.36285">
        <ele>88.5</ele>
        <time>2024-08-04T08:47:19+0800</time>
      </trkpt>
      <trkpt lat="22.389739" lon="114.362839">
        <ele>88.6</ele>
        <time>2024-08-04T08:47:20+0800</time>
      </trkpt>
      <trkpt lat="22.389719" lon="114.362811">
        <ele>88.9</ele>
        <time>2024-08-04T08:47:23+0800</time>
      </trkpt>
      <trkpt lat="22.38968" lon="114.362788">
        <ele>89.2</ele>
        <time>2024-08-04T08:48:50+0800</time>
      </trkpt>
      <trkpt lat="22.389677" lon="114.362685">
        <ele>90</ele>
        <time>2024-08-04T08:48:58+0800</time>
      </trkpt>
      <trkpt lat="22.389673" lon="114.362678">
        <ele>90.1</ele>
        <time>2024-08-04T08:48:59+0800</time>
      </trkpt>
      <trkpt lat="22.38965" lon="114.362649">
        <ele>90.4</ele>
        <time>2024-08-04T08:49:03+0800</time>
      </trkpt>
      <trkpt lat="22.389624" lon="114.362587">
        <ele>91.1</ele>
        <time>2024-08-04T08:49:10+0800</time>
      </trkpt>
      <trkpt lat="22.389631" lon="114.362501">
        <ele>91.9</ele>
        <time>2024-08-04T08:49:21+0800</time>
      </trkpt>
      <trkpt lat="22.389628" lon="114.362488">
        <ele>92</ele>
        <time>2024-08-04T08:49:22+0800</time>
      </trkpt>
      <trkpt lat="22.389642" lon="114.362438">
        <ele>92.5</ele>
        <time>2024-08-04T08:49:29+0800</time>
      </trkpt>
      <trkpt lat="22.389604" lon="114.362323">
        <ele>93.7</ele>
        <time>2024-08-04T08:49:39+0800</time>
      </trkpt>
      <trkpt lat="22.389607" lon="114.36231">
        <ele>93.8</ele>
        <time>2024-08-04T08:49:40+0800</time>
      </trkpt>
      <trkpt lat="22.389609" lon="114.3623">
        <ele>93.9</ele>
        <time>2024-08-04T08:49:41+0800</time>
      </trkpt>
      <trkpt lat="22.389576" lon="114.362218">
        <ele>94.8</ele>
        <time>2024-08-04T08:49:48+0800</time>
      </trkpt>
      <trkpt lat="22.389585" lon="114.362129">
        <ele>95.6</ele>
        <time>2024-08-04T08:49:56+0800</time>
      </trkpt>
      <trkpt lat="22.389587" lon="114.362118">
        <ele>95.7</ele>
        <time>2024-08-04T08:49:57+0800</time>
      </trkpt>
      <trkpt lat="22.389608" lon="114.362088">
        <ele>96.1</ele>
        <time>2024-08-04T08:50:00+0800</time>
      </trkpt>
      <trkpt lat="22.389681" lon="114.362038">
        <ele>97</ele>
        <time>2024-08-04T08:50:09+0800</time>
      </trkpt>
      <trkpt lat="22.389709" lon="114.361987">
        <ele>97.6</ele>
        <time>2024-08-04T08:50:15+0800</time>
      </trkpt>
      <trkpt lat="22.389708" lon="114.361975">
        <ele>97.7</ele>
        <time>2024-08-04T08:50:16+0800</time>
      </trkpt>
      <trkpt lat="22.389693" lon="114.361912">
        <ele>98.3</ele>
        <time>2024-08-04T08:50:21+0800</time>
      </trkpt>
      <trkpt lat="22.389663" lon="114.361874">
        <ele>98.8</ele>
        <time>2024-08-04T08:50:25+0800</time>
      </trkpt>
      <trkpt lat="22.389646" lon="114.361821">
        <ele>99.3</ele>
        <time>2024-08-04T08:50:30+0800</time>
      </trkpt>
      <trkpt lat="22.389649" lon="114.361809">
        <ele>99.4</ele>
        <time>2024-08-04T08:50:31+0800</time>
      </trkpt>
      <trkpt lat="22.389642" lon="114.361688">
        <ele>100.6</ele>
        <time>2024-08-04T08:50:40+0800</time>
      </trkpt>
      <trkpt lat="22.38966" lon="114.361642">
        <ele>101.1</ele>
        <time>2024-08-04T08:50:45+0800</time>
      </trkpt>
      <trkpt lat="22.389665" lon="114.361629">
        <ele>101.2</ele>
        <time>2024-08-04T08:50:46+0800</time>
      </trkpt>
      <trkpt lat="22.389669" lon="114.361619">
        <ele>101.3</ele>
        <time>2024-08-04T08:50:47+0800</time>
      </trkpt>
      <trkpt lat="22.38966" lon="114.361596">
        <ele>101.5</ele>
        <time>2024-08-04T08:50:49+0800</time>
      </trkpt>
      <trkpt lat="22.389574" lon="114.361521">
        <ele>102.7</ele>
        <time>2024-08-04T08:51:00+0800</time>
      </trkpt>
      <trkpt lat="22.389557" lon="114.361488">
        <ele>103</ele>
        <time>2024-08-04T08:51:02+0800</time>
      </trkpt>
      <trkpt lat="22.389557" lon="114.361484">
        <ele>103.1</ele>
        <time>2024-08-04T08:51:03+0800</time>
      </trkpt>
      <trkpt lat="22.389507" lon="114.361454">
        <ele>103.7</ele>
        <time>2024-08-04T08:51:09+0800</time>
      </trkpt>
      <trkpt lat="22.389483" lon="114.361393">
        <ele>104.3</ele>
        <time>2024-08-04T08:51:15+0800</time>
      </trkpt>
      <trkpt lat="22.38948" lon="114.361334">
        <ele>104.9</ele>
        <time>2024-08-04T08:51:20+0800</time>
      </trkpt>
      <trkpt lat="22.389473" lon="114.361323">
        <ele>105</ele>
        <time>2024-08-04T08:51:21+0800</time>
      </trkpt>
      <trkpt lat="22.389405" lon="114.361208">
        <ele>106.3</ele>
        <time>2024-08-04T08:51:35+0800</time>
      </trkpt>
      <trkpt lat="22.389416" lon="114.36116">
        <ele>106.8</ele>
        <time>2024-08-04T08:51:38+0800</time>
      </trkpt>
      <trkpt lat="22.389417" lon="114.361149">
        <ele>106.9</ele>
        <time>2024-08-04T08:51:39+0800</time>
      </trkpt>
      <trkpt lat="22.389408" lon="114.361096">
        <ele>107.4</ele>
        <time>2024-08-04T08:51:44+0800</time>
      </trkpt>
      <trkpt lat="22.38938" lon="114.36104">
        <ele>108</ele>
        <time>2024-08-04T08:51:49+0800</time>
      </trkpt>
      <trkpt lat="22.389376" lon="114.360985">
        <ele>108.5</ele>
        <time>2024-08-04T08:51:54+0800</time>
      </trkpt>
      <trkpt lat="22.389376" lon="114.360978">
        <ele>108.6</ele>
        <time>2024-08-04T08:51:55+0800</time>
      </trkpt>
      <trkpt lat="22.389384" lon="114.360949">
        <ele>108.8</ele>
        <time>2024-08-04T08:51:58+0800</time>
      </trkpt>
      <trkpt lat="22.389476" lon="114.360839">
        <ele>109.8</ele>
        <time>2024-08-04T08:52:11+0800</time>
      </trkpt>
      <trkpt lat="22.389483" lon="114.360829">
        <ele>109.9</ele>
        <time>2024-08-04T08:52:12+0800</time>
      </trkpt>
      <trkpt lat="22.389533" lon="114.360786">
        <ele>110.3</ele>
        <time>2024-08-04T08:52:19+0800</time>
      </trkpt>
      <trkpt lat="22.389628" lon="114.360751">
        <ele>111</ele>
        <time>2024-08-04T08:52:28+0800</time>
      </trkpt>
      <trkpt lat="22.389636" lon="114.360751">
        <ele>111.1</ele>
        <time>2024-08-04T08:52:29+0800</time>
      </trkpt>
      <trkpt lat="22.389738" lon="114.360704">
        <ele>111.9</ele>
        <time>2024-08-04T08:52:39+0800</time>
      </trkpt>
      <trkpt lat="22.389761" lon="114.360689">
        <ele>112.1</ele>
        <time>2024-08-04T08:52:41+0800</time>
      </trkpt>
      <trkpt lat="22.389779" lon="114.360662">
        <ele>112.3</ele>
        <time>2024-08-04T08:52:44+0800</time>
      </trkpt>
      <trkpt lat="22.389782" lon="114.36065">
        <ele>112.3</ele>
        <time>2024-08-04T08:52:45+0800</time>
      </trkpt>
      <trkpt lat="22.389838" lon="114.360596">
        <ele>112.9</ele>
        <time>2024-08-04T08:52:53+0800</time>
      </trkpt>
      <trkpt lat="22.389904" lon="114.360578">
        <ele>113.3</ele>
        <time>2024-08-04T08:52:59+0800</time>
      </trkpt>
      <trkpt lat="22.389934" lon="114.360554">
        <ele>113.6</ele>
        <time>2024-08-04T08:53:03+0800</time>
      </trkpt>
      <trkpt lat="22.389941" lon="114.360548">
        <ele>113.7</ele>
        <time>2024-08-04T08:53:04+0800</time>
      </trkpt>
      <trkpt lat="22.389961" lon="114.360526">
        <ele>113.9</ele>
        <time>2024-08-04T08:53:07+0800</time>
      </trkpt>
      <trkpt lat="22.390002" lon="114.360506">
        <ele>114.2</ele>
        <time>2024-08-04T08:53:11+0800</time>
      </trkpt>
      <trkpt lat="22.390091" lon="114.360484">
        <ele>114.8</ele>
        <time>2024-08-04T08:53:22+0800</time>
      </trkpt>
      <trkpt lat="22.390098" lon="114.360479">
        <ele>114.9</ele>
        <time>2024-08-04T08:53:23+0800</time>
      </trkpt>
      <trkpt lat="22.390186" lon="114.36048">
        <ele>115.5</ele>
        <time>2024-08-04T08:53:33+0800</time>
      </trkpt>
      <trkpt lat="22.390228" lon="114.360538">
        <ele>116</ele>
        <time>2024-08-04T08:53:40+0800</time>
      </trkpt>
      <trkpt lat="22.390234" lon="114.360548">
        <ele>116.1</ele>
        <time>2024-08-04T08:53:41+0800</time>
      </trkpt>
      <trkpt lat="22.390248" lon="114.36058">
        <ele>116.3</ele>
        <time>2024-08-04T08:53:44+0800</time>
      </trkpt>
      <trkpt lat="22.390257" lon="114.360658">
        <ele>116.8</ele>
        <time>2024-08-04T08:53:52+0800</time>
      </trkpt>
      <trkpt lat="22.390285" lon="114.360716">
        <ele>117.2</ele>
        <time>2024-08-04T08:53:56+0800</time>
      </trkpt>
      <trkpt lat="22.390296" lon="114.360728">
        <ele>117.3</ele>
        <time>2024-08-04T08:53:57+0800</time>
      </trkpt>
      <trkpt lat="22.390386" lon="114.360767">
        <ele>118</ele>
        <time>2024-08-04T08:54:06+0800</time>
      </trkpt>
      <trkpt lat="22.39043" lon="114.360829">
        <ele>118.5</ele>
        <time>2024-08-04T08:54:13+0800</time>
      </trkpt>
      <trkpt lat="22.390433" lon="114.360841">
        <ele>118.6</ele>
        <time>2024-08-04T08:54:14+0800</time>
      </trkpt>
      <trkpt lat="22.390449" lon="114.360873">
        <ele>118.8</ele>
        <time>2024-08-04T08:54:17+0800</time>
      </trkpt>
      <trkpt lat="22.390559" lon="114.360963">
        <ele>119.8</ele>
        <time>2024-08-04T08:54:31+0800</time>
      </trkpt>
      <trkpt lat="22.390571" lon="114.360972">
        <ele>119.9</ele>
        <time>2024-08-04T08:54:32+0800</time>
      </trkpt>
      <trkpt lat="22.390607" lon="114.360982">
        <ele>120.2</ele>
        <time>2024-08-04T08:54:35+0800</time>
      </trkpt>
      <trkpt lat="22.390632" lon="114.361012">
        <ele>120.4</ele>
        <time>2024-08-04T08:54:38+0800</time>
      </trkpt>
      <trkpt lat="22.390718" lon="114.361017">
        <ele>121</ele>
        <time>2024-08-04T08:54:45+0800</time>
      </trkpt>
      <trkpt lat="22.390728" lon="114.361008">
        <ele>121.1</ele>
        <time>2024-08-04T08:54:46+0800</time>
      </trkpt>
      <trkpt lat="22.39077" lon="114.360973">
        <ele>121.4</ele>
        <time>2024-08-04T08:54:51+0800</time>
      </trkpt>
      <trkpt lat="22.390879" lon="114.360911">
        <ele>121.7</ele>
        <time>2024-08-04T08:55:02+0800</time>
      </trkpt>
      <trkpt lat="22.390891" lon="114.360897">
        <ele>121.7</ele>
        <time>2024-08-04T08:55:03+0800</time>
      </trkpt>
      <trkpt lat="22.390957" lon="114.360802">
        <ele>122</ele>
        <time>2024-08-04T08:55:12+0800</time>
      </trkpt>
      <trkpt lat="22.391016" lon="114.360752">
        <ele>122.2</ele>
        <time>2024-08-04T08:55:20+0800</time>
      </trkpt>
      <trkpt lat="22.391027" lon="114.360754">
        <ele>122.2</ele>
        <time>2024-08-04T08:55:21+0800</time>
      </trkpt>
      <trkpt lat="22.391051" lon="114.360737">
        <ele>122.3</ele>
        <time>2024-08-04T08:55:24+0800</time>
      </trkpt>
      <trkpt lat="22.391111" lon="114.360729">
        <ele>122.4</ele>
        <time>2024-08-04T08:55:30+0800</time>
      </trkpt>
      <trkpt lat="22.391193" lon="114.36069">
        <ele>122.6</ele>
        <time>2024-08-04T08:55:37+0800</time>
      </trkpt>
      <trkpt lat="22.391199" lon="114.360683">
        <ele>122.7</ele>
        <time>2024-08-04T08:55:38+0800</time>
      </trkpt>
      <trkpt lat="22.391231" lon="114.360659">
        <ele>122.7</ele>
        <time>2024-08-04T08:55:41+0800</time>
      </trkpt>
      <trkpt lat="22.391249" lon="114.360623">
        <ele>122.8</ele>
        <time>2024-08-04T08:55:44+0800</time>
      </trkpt>
      <trkpt lat="22.391272" lon="114.36061">
        <ele>122.9</ele>
        <time>2024-08-04T08:55:47+0800</time>
      </trkpt>
      <trkpt lat="22.391322" lon="114.36062">
        <ele>123</ele>
        <time>2024-08-04T08:55:52+0800</time>
      </trkpt>
      <trkpt lat="22.391326" lon="114.360629">
        <ele>123</ele>
        <time>2024-08-04T08:55:53+0800</time>
      </trkpt>
      <trkpt lat="22.391381" lon="114.360671">
        <ele>123.2</ele>
        <time>2024-08-04T08:55:59+0800</time>
      </trkpt>
      <trkpt lat="22.391405" lon="114.360671">
        <ele>123.3</ele>
        <time>2024-08-04T08:56:01+0800</time>
      </trkpt>
      <trkpt lat="22.391451" lon="114.360614">
        <ele>123.4</ele>
        <time>2024-08-04T08:56:06+0800</time>
      </trkpt>
      <trkpt lat="22.391458" lon="114.360608">
        <ele>123.4</ele>
        <time>2024-08-04T08:56:07+0800</time>
      </trkpt>
      <trkpt lat="22.391497" lon="114.36057">
        <ele>123.6</ele>
        <time>2024-08-04T08:56:13+0800</time>
      </trkpt>
      <trkpt lat="22.391582" lon="114.360543">
        <ele>123.8</ele>
        <time>2024-08-04T08:56:22+0800</time>
      </trkpt>
      <trkpt lat="22.391608" lon="114.360524">
        <ele>123.9</ele>
        <time>2024-08-04T08:56:27+0800</time>
      </trkpt>
      <trkpt lat="22.391608" lon="114.360511">
        <ele>123.9</ele>
        <time>2024-08-04T08:56:28+0800</time>
      </trkpt>
      <trkpt lat="22.391626" lon="114.360465">
        <ele>124</ele>
        <time>2024-08-04T08:56:32+0800</time>
      </trkpt>
      <trkpt lat="22.391679" lon="114.360423">
        <ele>124.2</ele>
        <time>2024-08-04T08:56:38+0800</time>
      </trkpt>
      <trkpt lat="22.391734" lon="114.360421">
        <ele>124.3</ele>
        <time>2024-08-04T08:56:43+0800</time>
      </trkpt>
      <trkpt lat="22.391747" lon="114.360423">
        <ele>124.3</ele>
        <time>2024-08-04T08:56:44+0800</time>
      </trkpt>
      <trkpt lat="22.391785" lon="114.360414">
        <ele>124.4</ele>
        <time>2024-08-04T08:56:47+0800</time>
      </trkpt>
      <trkpt lat="22.391815" lon="114.360387">
        <ele>124.5</ele>
        <time>2024-08-04T08:56:51+0800</time>
      </trkpt>
      <trkpt lat="22.391856" lon="114.360295">
        <ele>124.7</ele>
        <time>2024-08-04T08:56:59+0800</time>
      </trkpt>
      <trkpt lat="22.39186" lon="114.360284">
        <ele>124.8</ele>
        <time>2024-08-04T08:57:00+0800</time>
      </trkpt>
      <trkpt lat="22.391863" lon="114.360247">
        <ele>124.8</ele>
        <time>2024-08-04T08:57:03+0800</time>
      </trkpt>
      <trkpt lat="22.391893" lon="114.360213">
        <ele>124.9</ele>
        <time>2024-08-04T08:57:07+0800</time>
      </trkpt>
      <trkpt lat="22.391994" lon="114.360178">
        <ele>125.2</ele>
        <time>2024-08-04T08:57:16+0800</time>
      </trkpt>
      <trkpt lat="22.392007" lon="114.360168">
        <ele>125.2</ele>
        <time>2024-08-04T08:57:17+0800</time>
      </trkpt>
      <trkpt lat="22.392053" lon="114.360085">
        <ele>125.4</ele>
        <time>2024-08-04T08:57:24+0800</time>
      </trkpt>
      <trkpt lat="22.392088" lon="114.359972">
        <ele>125.6</ele>
        <time>2024-08-04T08:57:33+0800</time>
      </trkpt>
      <trkpt lat="22.392092" lon="114.359959">
        <ele>125.6</ele>
        <time>2024-08-04T08:57:34+0800</time>
      </trkpt>
      <trkpt lat="22.392099" lon="114.359894">
        <ele>125.5</ele>
        <time>2024-08-04T08:57:40+0800</time>
      </trkpt>
      <trkpt lat="22.39212" lon="114.35989">
        <ele>125.4</ele>
        <time>2024-08-04T08:57:44+0800</time>
      </trkpt>
      <trkpt lat="22.392131" lon="114.359871">
        <ele>125.4</ele>
        <time>2024-08-04T08:57:46+0800</time>
      </trkpt>
      <trkpt lat="22.392151" lon="114.359867">
        <ele>125.3</ele>
        <time>2024-08-04T08:57:48+0800</time>
      </trkpt>
      <trkpt lat="22.392195" lon="114.359904">
        <ele>125.2</ele>
        <time>2024-08-04T08:57:54+0800</time>
      </trkpt>
      <trkpt lat="22.392203" lon="114.359911">
        <ele>125.2</ele>
        <time>2024-08-04T08:57:55+0800</time>
      </trkpt>
      <trkpt lat="22.39227" lon="114.360107">
        <ele>124.8</ele>
        <time>2024-08-04T08:58:13+0800</time>
      </trkpt>
      <trkpt lat="22.392297" lon="114.360229">
        <ele>124.6</ele>
        <time>2024-08-04T08:58:24+0800</time>
      </trkpt>
      <trkpt lat="22.392297" lon="114.36024">
        <ele>124.5</ele>
        <time>2024-08-04T08:58:25+0800</time>
      </trkpt>
      <trkpt lat="22.392288" lon="114.360302">
        <ele>124.4</ele>
        <time>2024-08-04T08:58:30+0800</time>
      </trkpt>
      <trkpt lat="22.392306" lon="114.360384">
        <ele>124.3</ele>
        <time>2024-08-04T08:58:36+0800</time>
      </trkpt>
      <trkpt lat="22.392298" lon="114.360419">
        <ele>124.2</ele>
        <time>2024-08-04T08:58:39+0800</time>
      </trkpt>
      <trkpt lat="22.392298" lon="114.360428">
        <ele>124.2</ele>
        <time>2024-08-04T08:58:40+0800</time>
      </trkpt>
      <trkpt lat="22.392332" lon="114.360615">
        <ele>123.8</ele>
        <time>2024-08-04T08:58:56+0800</time>
      </trkpt>
      <trkpt lat="22.392333" lon="114.360806">
        <ele>123.4</ele>
        <time>2024-08-04T08:59:11+0800</time>
      </trkpt>
      <trkpt lat="22.392318" lon="114.360989">
        <ele>123.1</ele>
        <time>2024-08-04T08:59:26+0800</time>
      </trkpt>
      <trkpt lat="22.392317" lon="114.361001">
        <ele>123.1</ele>
        <time>2024-08-04T08:59:27+0800</time>
      </trkpt>
      <trkpt lat="22.392347" lon="114.361043">
        <ele>123</ele>
        <time>2024-08-04T08:59:32+0800</time>
      </trkpt>
      <trkpt lat="22.392435" lon="114.360979">
        <ele>122.8</ele>
        <time>2024-08-04T08:59:39+0800</time>
      </trkpt>
      <trkpt lat="22.392446" lon="114.360963">
        <ele>122.7</ele>
        <time>2024-08-04T08:59:40+0800</time>
      </trkpt>
      <trkpt lat="22.392536" lon="114.36081">
        <ele>122.4</ele>
        <time>2024-08-04T08:59:55+0800</time>
      </trkpt>
      <trkpt lat="22.392542" lon="114.360797">
        <ele>122.4</ele>
        <time>2024-08-04T08:59:56+0800</time>
      </trkpt>
      <trkpt lat="22.392619" lon="114.360673">
        <ele>122.1</ele>
        <time>2024-08-04T09:00:09+0800</time>
      </trkpt>
      <trkpt lat="22.392622" lon="114.360636">
        <ele>122</ele>
        <time>2024-08-04T09:00:12+0800</time>
      </trkpt>
      <trkpt lat="22.392621" lon="114.36062">
        <ele>122</ele>
        <time>2024-08-04T09:00:13+0800</time>
      </trkpt>
      <trkpt lat="22.39262" lon="114.360535">
        <ele>122.4</ele>
        <time>2024-08-04T09:00:19+0800</time>
      </trkpt>
      <trkpt lat="22.392639" lon="114.360467">
        <ele>122.7</ele>
        <time>2024-08-04T09:00:25+0800</time>
      </trkpt>
      <trkpt lat="22.392662" lon="114.360441">
        <ele>122.8</ele>
        <time>2024-08-04T09:00:29+0800</time>
      </trkpt>
      <trkpt lat="22.392669" lon="114.360434">
        <ele>122.9</ele>
        <time>2024-08-04T09:00:30+0800</time>
      </trkpt>
      <trkpt lat="22.392698" lon="114.360403">
        <ele>123.1</ele>
        <time>2024-08-04T09:00:33+0800</time>
      </trkpt>
      <trkpt lat="22.392772" lon="114.360357">
        <ele>123.5</ele>
        <time>2024-08-04T09:00:42+0800</time>
      </trkpt>
      <trkpt lat="22.392823" lon="114.360345">
        <ele>123.7</ele>
        <time>2024-08-04T09:00:47+0800</time>
      </trkpt>
      <trkpt lat="22.392834" lon="114.360346">
        <ele>123.8</ele>
        <time>2024-08-04T09:00:48+0800</time>
      </trkpt>
      <trkpt lat="22.392998" lon="114.360328">
        <ele>124.6</ele>
        <time>2024-08-04T09:01:04+0800</time>
      </trkpt>
      <trkpt lat="22.393008" lon="114.360324">
        <ele>124.6</ele>
        <time>2024-08-04T09:01:05+0800</time>
      </trkpt>
      <trkpt lat="22.393058" lon="114.360321">
        <ele>124.9</ele>
        <time>2024-08-04T09:01:15+0800</time>
      </trkpt>
      <trkpt lat="22.393093" lon="114.360339">
        <ele>125.1</ele>
        <time>2024-08-04T09:01:20+0800</time>
      </trkpt>
      <trkpt lat="22.393165" lon="114.360328">
        <ele>125.4</ele>
        <time>2024-08-04T09:01:26+0800</time>
      </trkpt>
      <trkpt lat="22.393176" lon="114.360328">
        <ele>125.5</ele>
        <time>2024-08-04T09:01:27+0800</time>
      </trkpt>
      <trkpt lat="22.39325" lon="114.360338">
        <ele>125.8</ele>
        <time>2024-08-04T09:01:34+0800</time>
      </trkpt>
      <trkpt lat="22.39329" lon="114.360363">
        <ele>126.1</ele>
        <time>2024-08-04T09:01:38+0800</time>
      </trkpt>
      <trkpt lat="22.393319" lon="114.360403">
        <ele>126.3</ele>
        <time>2024-08-04T09:01:43+0800</time>
      </trkpt>
      <trkpt lat="22.393327" lon="114.360414">
        <ele>126.4</ele>
        <time>2024-08-04T09:01:44+0800</time>
      </trkpt>
      <trkpt lat="22.393343" lon="114.360446">
        <ele>126.5</ele>
        <time>2024-08-04T09:01:48+0800</time>
      </trkpt>
      <trkpt lat="22.393344" lon="114.360517">
        <ele>126.8</ele>
        <time>2024-08-04T09:01:54+0800</time>
      </trkpt>
      <trkpt lat="22.393373" lon="114.360599">
        <ele>127.2</ele>
        <time>2024-08-04T09:02:01+0800</time>
      </trkpt>
      <trkpt lat="22.393377" lon="114.360609">
        <ele>127.3</ele>
        <time>2024-08-04T09:02:02+0800</time>
      </trkpt>
      <trkpt lat="22.393385" lon="114.360636">
        <ele>127.4</ele>
        <time>2024-08-04T09:02:06+0800</time>
      </trkpt>
      <trkpt lat="22.393371" lon="114.360677">
        <ele>127.6</ele>
        <time>2024-08-04T09:02:11+0800</time>
      </trkpt>
      <trkpt lat="22.393283" lon="114.360714">
        <ele>128.1</ele>
        <time>2024-08-04T09:02:20+0800</time>
      </trkpt>
      <trkpt lat="22.393278" lon="114.360721">
        <ele>128.1</ele>
        <time>2024-08-04T09:02:21+0800</time>
      </trkpt>
      <trkpt lat="22.39326" lon="114.360767">
        <ele>128.3</ele>
        <time>2024-08-04T09:02:24+0800</time>
      </trkpt>
      <trkpt lat="22.393255" lon="114.360827">
        <ele>128.6</ele>
        <time>2024-08-04T09:02:28+0800</time>
      </trkpt>
      <trkpt lat="22.393256" lon="114.360855">
        <ele>128.7</ele>
        <time>2024-08-04T09:02:30+0800</time>
      </trkpt>
      <trkpt lat="22.393271" lon="114.360884">
        <ele>128.9</ele>
        <time>2024-08-04T09:02:33+0800</time>
      </trkpt>
      <trkpt lat="22.393272" lon="114.360891">
        <ele>128.9</ele>
        <time>2024-08-04T09:02:34+0800</time>
      </trkpt>
      <trkpt lat="22.393275" lon="114.360942">
        <ele>129.1</ele>
        <time>2024-08-04T09:02:38+0800</time>
      </trkpt>
      <trkpt lat="22.393331" lon="114.360993">
        <ele>129.5</ele>
        <time>2024-08-04T09:02:45+0800</time>
      </trkpt>
      <trkpt lat="22.393364" lon="114.361044">
        <ele>129.8</ele>
        <time>2024-08-04T09:02:53+0800</time>
      </trkpt>
      <trkpt lat="22.393371" lon="114.36105">
        <ele>129.8</ele>
        <time>2024-08-04T09:02:54+0800</time>
      </trkpt>
      <trkpt lat="22.393386" lon="114.361101">
        <ele>130.1</ele>
        <time>2024-08-04T09:03:00+0800</time>
      </trkpt>
      <trkpt lat="22.393365" lon="114.361145">
        <ele>130.3</ele>
        <time>2024-08-04T09:03:05+0800</time>
      </trkpt>
      <trkpt lat="22.393353" lon="114.361199">
        <ele>130.5</ele>
        <time>2024-08-04T09:03:10+0800</time>
      </trkpt>
      <trkpt lat="22.393353" lon="114.361217">
        <ele>130.6</ele>
        <time>2024-08-04T09:03:11+0800</time>
      </trkpt>
      <trkpt lat="22.393368" lon="114.361227">
        <ele>130.7</ele>
        <time>2024-08-04T09:03:12+0800</time>
      </trkpt>
      <trkpt lat="22.393375" lon="114.361233">
        <ele>130.7</ele>
        <time>2024-08-04T09:03:13+0800</time>
      </trkpt>
      <trkpt lat="22.393394" lon="114.361261">
        <ele>130.7</ele>
        <time>2024-08-04T09:03:16+0800</time>
      </trkpt>
      <trkpt lat="22.393376" lon="114.361332">
        <ele>130.7</ele>
        <time>2024-08-04T09:03:21+0800</time>
      </trkpt>
      <trkpt lat="22.393387" lon="114.361429">
        <ele>130.7</ele>
        <time>2024-08-04T09:03:31+0800</time>
      </trkpt>
      <trkpt lat="22.393391" lon="114.361443">
        <ele>130.7</ele>
        <time>2024-08-04T09:03:32+0800</time>
      </trkpt>
      <trkpt lat="22.393447" lon="114.361611">
        <ele>130.7</ele>
        <time>2024-08-04T09:03:46+0800</time>
      </trkpt>
      <trkpt lat="22.393451" lon="114.361616">
        <ele>130.7</ele>
        <time>2024-08-04T09:03:47+0800</time>
      </trkpt>
      <trkpt lat="22.393483" lon="114.361687">
        <ele>130.7</ele>
        <time>2024-08-04T09:03:55+0800</time>
      </trkpt>
      <trkpt lat="22.393544" lon="114.361721">
        <ele>130.7</ele>
        <time>2024-08-04T09:04:00+0800</time>
      </trkpt>
      <trkpt lat="22.393556" lon="114.361726">
        <ele>130.7</ele>
        <time>2024-08-04T09:04:01+0800</time>
      </trkpt>
      <trkpt lat="22.393606" lon="114.361712">
        <ele>130.7</ele>
        <time>2024-08-04T09:04:05+0800</time>
      </trkpt>
      <trkpt lat="22.393638" lon="114.361669">
        <ele>130.7</ele>
        <time>2024-08-04T09:04:09+0800</time>
      </trkpt>
      <trkpt lat="22.393681" lon="114.36165">
        <ele>130.7</ele>
        <time>2024-08-04T09:04:13+0800</time>
      </trkpt>
      <trkpt lat="22.393688" lon="114.361644">
        <ele>130.7</ele>
        <time>2024-08-04T09:04:14+0800</time>
      </trkpt>
      <trkpt lat="22.393709" lon="114.361621">
        <ele>130.7</ele>
        <time>2024-08-04T09:04:17+0800</time>
      </trkpt>
      <trkpt lat="22.393753" lon="114.361612">
        <ele>130.7</ele>
        <time>2024-08-04T09:04:22+0800</time>
      </trkpt>
      <trkpt lat="22.393794" lon="114.361588">
        <ele>130.7</ele>
        <time>2024-08-04T09:04:26+0800</time>
      </trkpt>
      <trkpt lat="22.393824" lon="114.36155">
        <ele>130.7</ele>
        <time>2024-08-04T09:04:30+0800</time>
      </trkpt>
      <trkpt lat="22.393826" lon="114.361544">
        <ele>130.7</ele>
        <time>2024-08-04T09:04:31+0800</time>
      </trkpt>
      <trkpt lat="22.393877" lon="114.361487">
        <ele>130.7</ele>
        <time>2024-08-04T09:04:39+0800</time>
      </trkpt>
      <trkpt lat="22.393984" lon="114.361461">
        <ele>130.7</ele>
        <time>2024-08-04T09:04:50+0800</time>
      </trkpt>
      <trkpt lat="22.393992" lon="114.361451">
        <ele>130.7</ele>
        <time>2024-08-04T09:04:51+0800</time>
      </trkpt>
      <trkpt lat="22.394016" lon="114.361342">
        <ele>130.7</ele>
        <time>2024-08-04T09:04:59+0800</time>
      </trkpt>
      <trkpt lat="22.394011" lon="114.361277">
        <ele>130.7</ele>
        <time>2024-08-04T09:05:04+0800</time>
      </trkpt>
      <trkpt lat="22.394008" lon="114.361266">
        <ele>130.7</ele>
        <time>2024-08-04T09:05:05+0800</time>
      </trkpt>
      <trkpt lat="22.393992" lon="114.361108">
        <ele>130.7</ele>
        <time>2024-08-04T09:05:18+0800</time>
      </trkpt>
      <trkpt lat="22.393999" lon="114.36108">
        <ele>130.7</ele>
        <time>2024-08-04T09:05:21+0800</time>
      </trkpt>
      <trkpt lat="22.394002" lon="114.361065">
        <ele>130.7</ele>
        <time>2024-08-04T09:05:22+0800</time>
      </trkpt>
      <trkpt lat="22.394023" lon="114.360986">
        <ele>130.7</ele>
        <time>2024-08-04T09:05:30+0800</time>
      </trkpt>
      <trkpt lat="22.394062" lon="114.36096">
        <ele>130.7</ele>
        <time>2024-08-04T09:05:35+0800</time>
      </trkpt>
      <trkpt lat="22.394116" lon="114.360956">
        <ele>130.7</ele>
        <time>2024-08-04T09:05:40+0800</time>
      </trkpt>
      <trkpt lat="22.394128" lon="114.360956">
        <ele>130.7</ele>
        <time>2024-08-04T09:05:41+0800</time>
      </trkpt>
      <trkpt lat="22.394162" lon="114.360944">
        <ele>130.7</ele>
        <time>2024-08-04T09:05:44+0800</time>
      </trkpt>
      <trkpt lat="22.394174" lon="114.360926">
        <ele>130.7</ele>
        <time>2024-08-04T09:05:46+0800</time>
      </trkpt>
      <trkpt lat="22.394182" lon="114.360809">
        <ele>130.7</ele>
        <time>2024-08-04T09:05:54+0800</time>
      </trkpt>
      <trkpt lat="22.394179" lon="114.360797">
        <ele>130.8</ele>
        <time>2024-08-04T09:05:55+0800</time>
      </trkpt>
      <trkpt lat="22.394175" lon="114.360712">
        <ele>130.8</ele>
        <time>2024-08-04T09:06:02+0800</time>
      </trkpt>
      <trkpt lat="22.394163" lon="114.360673">
        <ele>130.8</ele>
        <time>2024-08-04T09:06:04+0800</time>
      </trkpt>
      <trkpt lat="22.394185" lon="114.360644">
        <ele>130.8</ele>
        <time>2024-08-04T09:06:08+0800</time>
      </trkpt>
      <trkpt lat="22.394192" lon="114.360637">
        <ele>130.8</ele>
        <time>2024-08-04T09:06:09+0800</time>
      </trkpt>
      <trkpt lat="22.394212" lon="114.360629">
        <ele>130.8</ele>
        <time>2024-08-04T09:06:11+0800</time>
      </trkpt>
      <trkpt lat="22.394266" lon="114.360642">
        <ele>130.8</ele>
        <time>2024-08-04T09:06:15+0800</time>
      </trkpt>
      <trkpt lat="22.394341" lon="114.360643">
        <ele>130.8</ele>
        <time>2024-08-04T09:06:24+0800</time>
      </trkpt>
      <trkpt lat="22.394354" lon="114.360641">
        <ele>130.8</ele>
        <time>2024-08-04T09:06:25+0800</time>
      </trkpt>
      <trkpt lat="22.394388" lon="114.360632">
        <ele>130.8</ele>
        <time>2024-08-04T09:06:28+0800</time>
      </trkpt>
      <trkpt lat="22.39441" lon="114.360637">
        <ele>130.8</ele>
        <time>2024-08-04T09:06:30+0800</time>
      </trkpt>
      <trkpt lat="22.394442" lon="114.360662">
        <ele>130.8</ele>
        <time>2024-08-04T09:06:34+0800</time>
      </trkpt>
      <trkpt lat="22.394463" lon="114.360662">
        <ele>130.8</ele>
        <time>2024-08-04T09:06:36+0800</time>
      </trkpt>
      <trkpt lat="22.394519" lon="114.360688">
        <ele>130.8</ele>
        <time>2024-08-04T09:06:42+0800</time>
      </trkpt>
      <trkpt lat="22.394528" lon="114.360689">
        <ele>130.8</ele>
        <time>2024-08-04T09:06:43+0800</time>
      </trkpt>
      <trkpt lat="22.394559" lon="114.360713">
        <ele>130.8</ele>
        <time>2024-08-04T09:06:46+0800</time>
      </trkpt>
      <trkpt lat="22.394584" lon="114.360718">
        <ele>130.8</ele>
        <time>2024-08-04T09:06:48+0800</time>
      </trkpt>
      <trkpt lat="22.394644" lon="114.360697">
        <ele>130.8</ele>
        <time>2024-08-04T09:06:54+0800</time>
      </trkpt>
      <trkpt lat="22.394773" lon="114.360522">
        <ele>130.8</ele>
        <time>2024-08-04T09:07:11+0800</time>
      </trkpt>
      <trkpt lat="22.394776" lon="114.360514">
        <ele>130.8</ele>
        <time>2024-08-04T09:07:12+0800</time>
      </trkpt>
      <trkpt lat="22.394752" lon="114.360388">
        <ele>130.8</ele>
        <time>2024-08-04T09:07:22+0800</time>
      </trkpt>
      <trkpt lat="22.394763" lon="114.360361">
        <ele>130.8</ele>
        <time>2024-08-04T09:07:29+0800</time>
      </trkpt>
      <trkpt lat="22.394765" lon="114.360359">
        <ele>130.8</ele>
        <time>2024-08-04T09:07:30+0800</time>
      </trkpt>
      <trkpt lat="22.394755" lon="114.360305">
        <ele>130.8</ele>
        <time>2024-08-04T09:07:37+0800</time>
      </trkpt>
      <trkpt lat="22.394726" lon="114.360277">
        <ele>130.8</ele>
        <time>2024-08-04T09:07:40+0800</time>
      </trkpt>
      <trkpt lat="22.394771" lon="114.360245">
        <ele>130.8</ele>
        <time>2024-08-04T09:07:57+0800</time>
      </trkpt>
      <trkpt lat="22.394782" lon="114.360238">
        <ele>130.8</ele>
        <time>2024-08-04T09:07:58+0800</time>
      </trkpt>
      <trkpt lat="22.394813" lon="114.36017">
        <ele>130.8</ele>
        <time>2024-08-04T09:08:06+0800</time>
      </trkpt>
      <trkpt lat="22.39483" lon="114.360156">
        <ele>130.8</ele>
        <time>2024-08-04T09:08:08+0800</time>
      </trkpt>
      <trkpt lat="22.394828" lon="114.360129">
        <ele>130.8</ele>
        <time>2024-08-04T09:08:11+0800</time>
      </trkpt>
      <trkpt lat="22.394774" lon="114.360093">
        <ele>130.8</ele>
        <time>2024-08-04T09:08:14+0800</time>
      </trkpt>
      <trkpt lat="22.39476" lon="114.360088">
        <ele>130.8</ele>
        <time>2024-08-04T09:08:15+0800</time>
      </trkpt>
      <trkpt lat="22.394749" lon="114.36008">
        <ele>130.8</ele>
        <time>2024-08-04T09:08:16+0800</time>
      </trkpt>
    </trkseg>
  </trk>
</gpx>