<?xml version="1.0" encoding="UTF-8"?>
<gpx xmlns="http://www.topografix.com/GPX/1/1" xmlns:xsi="http://www.w3.org/2001/XMLSchema-instance" xsi:schemaLocation="http://www.topografix.com/GPX/1/1 http://www.topografix.com/GPX/1/1/gpx.xsd" version="1.1" creator="鹏">
  <metadata>
    <name>斗门一中 - 黄杨山顶 - 黄杨党群中心（东南线） (Completed)</name>
    <desc>Distance: 7.53km, Estimated duration: 4.23h, Elevation up: 578.699584431115m, Elevation down: 601.6500125645468m</desc>
    <author>
      <name>鹏</name>
      <link href="https://www.komoot.de/user/3342641231843">
        <text>View 鹏's Profile on Komoot</text>
      </link>
    </author>
    <link href="https://www.komoot.de/tour/2063046167">
      <text>View tour on Komoot</text>
    </link>
  </metadata>
  <trk>
    <name>斗门一中 - 黄杨山顶 - 黄杨党群中心（东南线） (Completed)</name>
    <desc>Distance: 7.53km, Estimated duration: 4.23h, Elevation up: 578.699584431115m, Elevation down: 601.6500125645468m</desc>
    <link href="https://www.komoot.de/tour/2063046167">
      <text>View tour on Komoot</text>
    </link>
    <trkseg>
      <trkpt lat="22.224167" lon="113.250858">
        <ele>8.6</ele>
        <time>2025-02-21T13:28:00.943000+0800</time>
      </trkpt>
      <trkpt lat="22.22414" lon="113.250762">
        <ele>8.6</ele>
        <time>2025-02-21T13:28:09.684000+0800</time>
      </trkpt>
      <trkpt lat="22.22415" lon="113.250661">
        <ele>8.6</ele>
        <time>2025-02-21T13:28:25.813000+0800</time>
      </trkpt>
      <trkpt lat="22.22416" lon="113.250563">
        <ele>8.6</ele>
        <time>2025-02-21T13:28:34.783000+0800</time>
      </trkpt>
      <trkpt lat="22.22419" lon="113.250468">
        <ele>8.6</ele>
        <time>2025-02-21T13:28:44.772000+0800</time>
      </trkpt>
      <trkpt lat="22.224279" lon="113.25043">
        <ele>8.6</ele>
        <time>2025-02-21T13:28:55.808000+0800</time>
      </trkpt>
      <trkpt lat="22.22437" lon="113.25041">
        <ele>8.6</ele>
        <time>2025-02-21T13:29:04.756000+0800</time>
      </trkpt>
      <trkpt lat="22.224464" lon="113.2504">
        <ele>8.6</ele>
        <time>2025-02-21T13:29:13.737000+0800</time>
      </trkpt>
      <trkpt lat="22.224558" lon="113.250357">
        <ele>8.6</ele>
        <time>2025-02-21T13:29:24.780000+0800</time>
      </trkpt>
      <trkpt lat="22.224653" lon="113.250342">
        <ele>8.6</ele>
        <time>2025-02-21T13:29:32.705000+0800</time>
      </trkpt>
      <trkpt lat="22.22475" lon="113.250361">
        <ele>9.5</ele>
        <time>2025-02-21T13:29:41.770000+0800</time>
      </trkpt>
      <trkpt lat="22.224841" lon="113.250366">
        <ele>11</ele>
        <time>2025-02-21T13:29:51.686000+0800</time>
      </trkpt>
      <trkpt lat="22.224931" lon="113.250366">
        <ele>12.4</ele>
        <time>2025-02-21T13:30:01.698000+0800</time>
      </trkpt>
      <trkpt lat="22.225019" lon="113.25032">
        <ele>14</ele>
        <time>2025-02-21T13:30:11.759000+0800</time>
      </trkpt>
      <trkpt lat="22.225112" lon="113.250274">
        <ele>15.7</ele>
        <time>2025-02-21T13:30:18.800000+0800</time>
      </trkpt>
      <trkpt lat="22.225183" lon="113.250212">
        <ele>17.2</ele>
        <time>2025-02-21T13:30:25.681000+0800</time>
      </trkpt>
      <trkpt lat="22.225271" lon="113.250163">
        <ele>18.8</ele>
        <time>2025-02-21T13:30:34.782000+0800</time>
      </trkpt>
      <trkpt lat="22.225354" lon="113.250101">
        <ele>20.4</ele>
        <time>2025-02-21T13:30:45.791000+0800</time>
      </trkpt>
      <trkpt lat="22.225441" lon="113.250061">
        <ele>22</ele>
        <time>2025-02-21T13:30:52.781000+0800</time>
      </trkpt>
      <trkpt lat="22.225532" lon="113.250024">
        <ele>23.6</ele>
        <time>2025-02-21T13:31:01.800000+0800</time>
      </trkpt>
      <trkpt lat="22.225608" lon="113.249968">
        <ele>25.1</ele>
        <time>2025-02-21T13:31:09.826000+0800</time>
      </trkpt>
      <trkpt lat="22.22567" lon="113.249896">
        <ele>26.5</ele>
        <time>2025-02-21T13:31:18.817000+0800</time>
      </trkpt>
      <trkpt lat="22.225741" lon="113.249835">
        <ele>28</ele>
        <time>2025-02-21T13:31:28.802000+0800</time>
      </trkpt>
      <trkpt lat="22.225684" lon="113.249757">
        <ele>29.5</ele>
        <time>2025-02-21T13:31:45.801000+0800</time>
      </trkpt>
      <trkpt lat="22.225652" lon="113.249666">
        <ele>31</ele>
        <time>2025-02-21T13:32:01.771000+0800</time>
      </trkpt>
      <trkpt lat="22.22568" lon="113.249569">
        <ele>32.5</ele>
        <time>2025-02-21T13:32:30.819000+0800</time>
      </trkpt>
      <trkpt lat="22.225648" lon="113.249475">
        <ele>34</ele>
        <time>2025-02-21T13:32:44.770000+0800</time>
      </trkpt>
      <trkpt lat="22.225557" lon="113.249492">
        <ele>35.5</ele>
        <time>2025-02-21T13:32:54.801000+0800</time>
      </trkpt>
      <trkpt lat="22.225455" lon="113.249504">
        <ele>37.2</ele>
        <time>2025-02-21T13:33:06.746000+0800</time>
      </trkpt>
      <trkpt lat="22.225363" lon="113.249515">
        <ele>39.2</ele>
        <time>2025-02-21T13:33:13.779000+0800</time>
      </trkpt>
      <trkpt lat="22.225267" lon="113.249477">
        <ele>41.9</ele>
        <time>2025-02-21T13:33:29.686000+0800</time>
      </trkpt>
      <trkpt lat="22.225308" lon="113.24939">
        <ele>44.4</ele>
        <time>2025-02-21T13:33:58.783000+0800</time>
      </trkpt>
      <trkpt lat="22.22534" lon="113.249261">
        <ele>47.7</ele>
        <time>2025-02-21T13:34:16.802000+0800</time>
      </trkpt>
      <trkpt lat="22.225407" lon="113.249187">
        <ele>50.2</ele>
        <time>2025-02-21T13:34:50.772000+0800</time>
      </trkpt>
      <trkpt lat="22.225462" lon="113.249108">
        <ele>52.7</ele>
        <time>2025-02-21T13:35:02.785000+0800</time>
      </trkpt>
      <trkpt lat="22.225554" lon="113.249025">
        <ele>55.9</ele>
        <time>2025-02-21T13:35:07.802000+0800</time>
      </trkpt>
      <trkpt lat="22.225626" lon="113.248959">
        <ele>58.4</ele>
        <time>2025-02-21T13:35:12.811000+0800</time>
      </trkpt>
      <trkpt lat="22.225649" lon="113.24886">
        <ele>60.9</ele>
        <time>2025-02-21T13:35:40.780000+0800</time>
      </trkpt>
      <trkpt lat="22.22562" lon="113.248768">
        <ele>63.4</ele>
        <time>2025-02-21T13:36:08.766000+0800</time>
      </trkpt>
      <trkpt lat="22.225622" lon="113.248667">
        <ele>65.9</ele>
        <time>2025-02-21T13:36:16.793000+0800</time>
      </trkpt>
      <trkpt lat="22.225637" lon="113.248564">
        <ele>68.4</ele>
        <time>2025-02-21T13:36:25.785000+0800</time>
      </trkpt>
      <trkpt lat="22.225667" lon="113.248381">
        <ele>73</ele>
        <time>2025-02-21T13:36:58.799000+0800</time>
      </trkpt>
      <trkpt lat="22.225644" lon="113.248285">
        <ele>75.5</ele>
        <time>2025-02-21T13:37:11.794000+0800</time>
      </trkpt>
      <trkpt lat="22.225626" lon="113.248185">
        <ele>78</ele>
        <time>2025-02-21T13:37:45.810000+0800</time>
      </trkpt>
      <trkpt lat="22.225625" lon="113.248086">
        <ele>80.5</ele>
        <time>2025-02-21T13:37:52.793000+0800</time>
      </trkpt>
      <trkpt lat="22.225604" lon="113.247985">
        <ele>83</ele>
        <time>2025-02-21T13:37:59.690000+0800</time>
      </trkpt>
      <trkpt lat="22.225671" lon="113.247921">
        <ele>85.4</ele>
        <time>2025-02-21T13:38:11.807000+0800</time>
      </trkpt>
      <trkpt lat="22.225721" lon="113.247839">
        <ele>86.8</ele>
        <time>2025-02-21T13:38:35.744000+0800</time>
      </trkpt>
      <trkpt lat="22.22569" lon="113.247747">
        <ele>87.9</ele>
        <time>2025-02-21T13:39:02.780000+0800</time>
      </trkpt>
      <trkpt lat="22.225729" lon="113.247645">
        <ele>89.1</ele>
        <time>2025-02-21T13:39:26.801000+0800</time>
      </trkpt>
      <trkpt lat="22.225683" lon="113.247552">
        <ele>90.2</ele>
        <time>2025-02-21T13:39:38.711000+0800</time>
      </trkpt>
      <trkpt lat="22.225634" lon="113.247467">
        <ele>91.3</ele>
        <time>2025-02-21T13:39:48.806000+0800</time>
      </trkpt>
      <trkpt lat="22.22558" lon="113.247385">
        <ele>92.4</ele>
        <time>2025-02-21T13:40:03.801000+0800</time>
      </trkpt>
      <trkpt lat="22.225539" lon="113.247298">
        <ele>93.4</ele>
        <time>2025-02-21T13:40:16.797000+0800</time>
      </trkpt>
      <trkpt lat="22.225491" lon="113.247213">
        <ele>94.5</ele>
        <time>2025-02-21T13:40:36.770000+0800</time>
      </trkpt>
      <trkpt lat="22.225448" lon="113.24711">
        <ele>95.7</ele>
        <time>2025-02-21T13:40:42.768000+0800</time>
      </trkpt>
      <trkpt lat="22.225376" lon="113.247035">
        <ele>96.8</ele>
        <time>2025-02-21T13:40:52.800000+0800</time>
      </trkpt>
      <trkpt lat="22.225327" lon="113.246943">
        <ele>98</ele>
        <time>2025-02-21T13:41:00.786000+0800</time>
      </trkpt>
      <trkpt lat="22.225252" lon="113.246869">
        <ele>99.1</ele>
        <time>2025-02-21T13:41:09.805000+0800</time>
      </trkpt>
      <trkpt lat="22.225202" lon="113.246786">
        <ele>100.2</ele>
        <time>2025-02-21T13:41:19.750000+0800</time>
      </trkpt>
      <trkpt lat="22.225155" lon="113.246692">
        <ele>101.3</ele>
        <time>2025-02-21T13:41:29.803000+0800</time>
      </trkpt>
      <trkpt lat="22.225146" lon="113.246594">
        <ele>102.4</ele>
        <time>2025-02-21T13:41:41.799000+0800</time>
      </trkpt>
      <trkpt lat="22.225109" lon="113.246501">
        <ele>103.5</ele>
        <time>2025-02-21T13:41:50.813000+0800</time>
      </trkpt>
      <trkpt lat="22.22508" lon="113.246406">
        <ele>104.6</ele>
        <time>2025-02-21T13:42:08.822000+0800</time>
      </trkpt>
      <trkpt lat="22.225033" lon="113.24624">
        <ele>106.4</ele>
        <time>2025-02-21T13:42:40.809000+0800</time>
      </trkpt>
      <trkpt lat="22.225017" lon="113.246136">
        <ele>107.6</ele>
        <time>2025-02-21T13:42:51.700000+0800</time>
      </trkpt>
      <trkpt lat="22.224999" lon="113.246038">
        <ele>108.8</ele>
        <time>2025-02-21T13:43:01.695000+0800</time>
      </trkpt>
      <trkpt lat="22.224943" lon="113.245846">
        <ele>111.1</ele>
        <time>2025-02-21T13:43:34.786000+0800</time>
      </trkpt>
      <trkpt lat="22.224963" lon="113.245751">
        <ele>112.3</ele>
        <time>2025-02-21T13:43:45.793000+0800</time>
      </trkpt>
      <trkpt lat="22.224993" lon="113.245653">
        <ele>113.5</ele>
        <time>2025-02-21T13:43:52.794000+0800</time>
      </trkpt>
      <trkpt lat="22.224973" lon="113.245553">
        <ele>114.7</ele>
        <time>2025-02-21T13:44:08.826000+0800</time>
      </trkpt>
      <trkpt lat="22.224968" lon="113.245455">
        <ele>115.8</ele>
        <time>2025-02-21T13:44:17.751000+0800</time>
      </trkpt>
      <trkpt lat="22.224974" lon="113.245357">
        <ele>117</ele>
        <time>2025-02-21T13:44:27.786000+0800</time>
      </trkpt>
      <trkpt lat="22.225598" lon="113.244924">
        <ele>126.4</ele>
        <time>2025-02-21T13:47:09.809000+0800</time>
      </trkpt>
      <trkpt lat="22.225814" lon="113.244813">
        <ele>129.4</ele>
        <time>2025-02-21T13:48:08.804000+0800</time>
      </trkpt>
      <trkpt lat="22.225904" lon="113.244805">
        <ele>130.9</ele>
        <time>2025-02-21T13:48:46.806000+0800</time>
      </trkpt>
      <trkpt lat="22.226016" lon="113.244663">
        <ele>133.9</ele>
        <time>2025-02-21T13:49:41.803000+0800</time>
      </trkpt>
      <trkpt lat="22.22607" lon="113.244571">
        <ele>135.7</ele>
        <time>2025-02-21T13:49:54.789000+0800</time>
      </trkpt>
      <trkpt lat="22.226212" lon="113.244227">
        <ele>141.9</ele>
        <time>2025-02-21T13:50:40.790000+0800</time>
      </trkpt>
      <trkpt lat="22.226259" lon="113.244126">
        <ele>143.8</ele>
        <time>2025-02-21T13:50:50.767000+0800</time>
      </trkpt>
      <trkpt lat="22.226307" lon="113.244024">
        <ele>145.6</ele>
        <time>2025-02-21T13:51:04.799000+0800</time>
      </trkpt>
      <trkpt lat="22.226347" lon="113.24393">
        <ele>147.3</ele>
        <time>2025-02-21T13:51:11.776000+0800</time>
      </trkpt>
      <trkpt lat="22.226515" lon="113.24361">
        <ele>153.4</ele>
        <time>2025-02-21T13:52:52.836000+0800</time>
      </trkpt>
      <trkpt lat="22.226569" lon="113.243532">
        <ele>155</ele>
        <time>2025-02-21T13:53:18.822000+0800</time>
      </trkpt>
      <trkpt lat="22.226687" lon="113.243203">
        <ele>160.8</ele>
        <time>2025-02-21T13:54:50.800000+0800</time>
      </trkpt>
      <trkpt lat="22.226727" lon="113.243099">
        <ele>163.2</ele>
        <time>2025-02-21T13:55:10.728000+0800</time>
      </trkpt>
      <trkpt lat="22.226779" lon="113.24301">
        <ele>165.8</ele>
        <time>2025-02-21T13:55:21.726000+0800</time>
      </trkpt>
      <trkpt lat="22.226818" lon="113.242916">
        <ele>168.3</ele>
        <time>2025-02-21T13:55:33.696000+0800</time>
      </trkpt>
      <trkpt lat="22.226862" lon="113.242825">
        <ele>170.8</ele>
        <time>2025-02-21T13:55:47.791000+0800</time>
      </trkpt>
      <trkpt lat="22.226879" lon="113.242724">
        <ele>173.3</ele>
        <time>2025-02-21T13:56:00.777000+0800</time>
      </trkpt>
      <trkpt lat="22.226876" lon="113.242625">
        <ele>175.8</ele>
        <time>2025-02-21T13:56:11.823000+0800</time>
      </trkpt>
      <trkpt lat="22.226838" lon="113.242533">
        <ele>178.3</ele>
        <time>2025-02-21T13:56:26.796000+0800</time>
      </trkpt>
      <trkpt lat="22.226805" lon="113.24244">
        <ele>180.7</ele>
        <time>2025-02-21T13:56:44.749000+0800</time>
      </trkpt>
      <trkpt lat="22.226755" lon="113.242353">
        <ele>183.2</ele>
        <time>2025-02-21T13:57:02.830000+0800</time>
      </trkpt>
      <trkpt lat="22.226742" lon="113.242254">
        <ele>185.7</ele>
        <time>2025-02-21T13:57:25.758000+0800</time>
      </trkpt>
      <trkpt lat="22.226808" lon="113.242186">
        <ele>188.1</ele>
        <time>2025-02-21T13:57:51.790000+0800</time>
      </trkpt>
      <trkpt lat="22.226896" lon="113.242158">
        <ele>190.6</ele>
        <time>2025-02-21T13:58:04.837000+0800</time>
      </trkpt>
      <trkpt lat="22.226945" lon="113.242074">
        <ele>193</ele>
        <time>2025-02-21T13:58:29.840000+0800</time>
      </trkpt>
      <trkpt lat="22.22695" lon="113.241974">
        <ele>195.5</ele>
        <time>2025-02-21T13:58:47.826000+0800</time>
      </trkpt>
      <trkpt lat="22.226941" lon="113.24187">
        <ele>198</ele>
        <time>2025-02-21T13:59:02.838000+0800</time>
      </trkpt>
      <trkpt lat="22.226984" lon="113.241781">
        <ele>200.5</ele>
        <time>2025-02-21T13:59:18.733000+0800</time>
      </trkpt>
      <trkpt lat="22.227059" lon="113.241727">
        <ele>202.9</ele>
        <time>2025-02-21T13:59:38.814000+0800</time>
      </trkpt>
      <trkpt lat="22.227109" lon="113.241642">
        <ele>205.4</ele>
        <time>2025-02-21T13:59:56.812000+0800</time>
      </trkpt>
      <trkpt lat="22.227182" lon="113.241572">
        <ele>208</ele>
        <time>2025-02-21T14:00:25.787000+0800</time>
      </trkpt>
      <trkpt lat="22.227262" lon="113.241523">
        <ele>210.8</ele>
        <time>2025-02-21T14:00:45.727000+0800</time>
      </trkpt>
      <trkpt lat="22.22724" lon="113.241426">
        <ele>214.1</ele>
        <time>2025-02-21T14:01:17.705000+0800</time>
      </trkpt>
      <trkpt lat="22.2273" lon="113.241352">
        <ele>217.4</ele>
        <time>2025-02-21T14:01:50.774000+0800</time>
      </trkpt>
      <trkpt lat="22.227407" lon="113.241328">
        <ele>221.3</ele>
        <time>2025-02-21T14:03:23.865000+0800</time>
      </trkpt>
      <trkpt lat="22.227567" lon="113.241372">
        <ele>227.3</ele>
        <time>2025-02-21T14:04:16.832000+0800</time>
      </trkpt>
      <trkpt lat="22.227657" lon="113.24136">
        <ele>230.5</ele>
        <time>2025-02-21T14:04:35.733000+0800</time>
      </trkpt>
      <trkpt lat="22.227743" lon="113.241327">
        <ele>233.8</ele>
        <time>2025-02-21T14:04:54.850000+0800</time>
      </trkpt>
      <trkpt lat="22.227673" lon="113.241261">
        <ele>237.2</ele>
        <time>2025-02-21T14:05:31.845000+0800</time>
      </trkpt>
      <trkpt lat="22.227606" lon="113.241154">
        <ele>241.5</ele>
        <time>2025-02-21T14:06:26.843000+0800</time>
      </trkpt>
      <trkpt lat="22.227689" lon="113.241113">
        <ele>244.8</ele>
        <time>2025-02-21T14:06:59.907000+0800</time>
      </trkpt>
      <trkpt lat="22.227656" lon="113.241021">
        <ele>248</ele>
        <time>2025-02-21T14:07:45.865000+0800</time>
      </trkpt>
      <trkpt lat="22.227735" lon="113.240969">
        <ele>251.4</ele>
        <time>2025-02-21T14:08:46.829000+0800</time>
      </trkpt>
      <trkpt lat="22.227771" lon="113.240874">
        <ele>254.8</ele>
        <time>2025-02-21T14:09:32.741000+0800</time>
      </trkpt>
      <trkpt lat="22.227843" lon="113.240812">
        <ele>258.1</ele>
        <time>2025-02-21T14:10:46.863000+0800</time>
      </trkpt>
      <trkpt lat="22.22792" lon="113.240748">
        <ele>261.6</ele>
        <time>2025-02-21T14:11:03.790000+0800</time>
      </trkpt>
      <trkpt lat="22.22799" lon="113.240677">
        <ele>265.1</ele>
        <time>2025-02-21T14:11:16.864000+0800</time>
      </trkpt>
      <trkpt lat="22.228036" lon="113.240582">
        <ele>268.6</ele>
        <time>2025-02-21T14:11:27.857000+0800</time>
      </trkpt>
      <trkpt lat="22.228156" lon="113.2405">
        <ele>273.7</ele>
        <time>2025-02-21T14:11:54.878000+0800</time>
      </trkpt>
      <trkpt lat="22.228252" lon="113.24052">
        <ele>276.3</ele>
        <time>2025-02-21T14:12:04.869000+0800</time>
      </trkpt>
      <trkpt lat="22.228342" lon="113.240501">
        <ele>278.6</ele>
        <time>2025-02-21T14:12:14.781000+0800</time>
      </trkpt>
      <trkpt lat="22.228436" lon="113.240485">
        <ele>281</ele>
        <time>2025-02-21T14:12:32.843000+0800</time>
      </trkpt>
      <trkpt lat="22.228508" lon="113.240424">
        <ele>283.3</ele>
        <time>2025-02-21T14:12:58.800000+0800</time>
      </trkpt>
      <trkpt lat="22.228581" lon="113.240367">
        <ele>285.6</ele>
        <time>2025-02-21T14:13:22.813000+0800</time>
      </trkpt>
      <trkpt lat="22.228696" lon="113.240301">
        <ele>288.9</ele>
        <time>2025-02-21T14:14:51.855000+0800</time>
      </trkpt>
      <trkpt lat="22.228783" lon="113.240269">
        <ele>291.2</ele>
        <time>2025-02-21T14:15:59.855000+0800</time>
      </trkpt>
      <trkpt lat="22.228874" lon="113.240258">
        <ele>293.5</ele>
        <time>2025-02-21T14:17:26.877000+0800</time>
      </trkpt>
      <trkpt lat="22.228964" lon="113.240289">
        <ele>295.9</ele>
        <time>2025-02-21T14:18:07.906000+0800</time>
      </trkpt>
      <trkpt lat="22.229051" lon="113.240264">
        <ele>298.1</ele>
        <time>2025-02-21T14:18:32.877000+0800</time>
      </trkpt>
      <trkpt lat="22.229142" lon="113.240269">
        <ele>300.4</ele>
        <time>2025-02-21T14:18:47.735000+0800</time>
      </trkpt>
      <trkpt lat="22.229234" lon="113.240253">
        <ele>302.8</ele>
        <time>2025-02-21T14:18:59.862000+0800</time>
      </trkpt>
      <trkpt lat="22.229304" lon="113.24018">
        <ele>305.2</ele>
        <time>2025-02-21T14:19:18.820000+0800</time>
      </trkpt>
      <trkpt lat="22.229396" lon="113.240172">
        <ele>307.6</ele>
        <time>2025-02-21T14:19:28.844000+0800</time>
      </trkpt>
      <trkpt lat="22.229489" lon="113.240164">
        <ele>309.9</ele>
        <time>2025-02-21T14:19:38.885000+0800</time>
      </trkpt>
      <trkpt lat="22.229587" lon="113.240162">
        <ele>312.4</ele>
        <time>2025-02-21T14:19:51.881000+0800</time>
      </trkpt>
      <trkpt lat="22.229686" lon="113.240167">
        <ele>314.9</ele>
        <time>2025-02-21T14:20:00.877000+0800</time>
      </trkpt>
      <trkpt lat="22.229776" lon="113.240169">
        <ele>317.1</ele>
        <time>2025-02-21T14:20:08.863000+0800</time>
      </trkpt>
      <trkpt lat="22.229872" lon="113.240184">
        <ele>319.5</ele>
        <time>2025-02-21T14:20:16.852000+0800</time>
      </trkpt>
      <trkpt lat="22.229972" lon="113.240198">
        <ele>321.4</ele>
        <time>2025-02-21T14:20:25.839000+0800</time>
      </trkpt>
      <trkpt lat="22.230065" lon="113.240201">
        <ele>323.1</ele>
        <time>2025-02-21T14:20:33.866000+0800</time>
      </trkpt>
      <trkpt lat="22.230155" lon="113.240181">
        <ele>324.7</ele>
        <time>2025-02-21T14:20:45.822000+0800</time>
      </trkpt>
      <trkpt lat="22.230251" lon="113.240166">
        <ele>326.5</ele>
        <time>2025-02-21T14:20:54.759000+0800</time>
      </trkpt>
      <trkpt lat="22.230335" lon="113.240126">
        <ele>328.2</ele>
        <time>2025-02-21T14:21:04.793000+0800</time>
      </trkpt>
      <trkpt lat="22.230419" lon="113.240085">
        <ele>329.8</ele>
        <time>2025-02-21T14:21:15.860000+0800</time>
      </trkpt>
      <trkpt lat="22.230505" lon="113.240046">
        <ele>331.5</ele>
        <time>2025-02-21T14:21:31.819000+0800</time>
      </trkpt>
      <trkpt lat="22.230565" lon="113.239971">
        <ele>333.2</ele>
        <time>2025-02-21T14:21:47.864000+0800</time>
      </trkpt>
      <trkpt lat="22.230655" lon="113.239962">
        <ele>334.8</ele>
        <time>2025-02-21T14:22:05.862000+0800</time>
      </trkpt>
      <trkpt lat="22.230719" lon="113.239891">
        <ele>336.5</ele>
        <time>2025-02-21T14:22:35.834000+0800</time>
      </trkpt>
      <trkpt lat="22.230747" lon="113.239796">
        <ele>338.2</ele>
        <time>2025-02-21T14:22:50.883000+0800</time>
      </trkpt>
      <trkpt lat="22.230767" lon="113.239694">
        <ele>339.9</ele>
        <time>2025-02-21T14:23:03.874000+0800</time>
      </trkpt>
      <trkpt lat="22.230757" lon="113.239596">
        <ele>341.6</ele>
        <time>2025-02-21T14:23:23.878000+0800</time>
      </trkpt>
      <trkpt lat="22.230819" lon="113.239516">
        <ele>343.3</ele>
        <time>2025-02-21T14:23:38.879000+0800</time>
      </trkpt>
      <trkpt lat="22.230853" lon="113.239419">
        <ele>345.1</ele>
        <time>2025-02-21T14:23:51.870000+0800</time>
      </trkpt>
      <trkpt lat="22.230859" lon="113.239321">
        <ele>346.7</ele>
        <time>2025-02-21T14:24:10.863000+0800</time>
      </trkpt>
      <trkpt lat="22.230908" lon="113.239236">
        <ele>348.4</ele>
        <time>2025-02-21T14:24:29.846000+0800</time>
      </trkpt>
      <trkpt lat="22.230853" lon="113.239151">
        <ele>350.2</ele>
        <time>2025-02-21T14:25:18.880000+0800</time>
      </trkpt>
      <trkpt lat="22.230896" lon="113.239044">
        <ele>352.1</ele>
        <time>2025-02-21T14:42:09.894000+0800</time>
      </trkpt>
      <trkpt lat="22.230947" lon="113.238962">
        <ele>354</ele>
        <time>2025-02-21T14:42:18.887000+0800</time>
      </trkpt>
      <trkpt lat="22.231025" lon="113.23891">
        <ele>355.9</ele>
        <time>2025-02-21T14:42:28.903000+0800</time>
      </trkpt>
      <trkpt lat="22.231099" lon="113.238849">
        <ele>357.8</ele>
        <time>2025-02-21T14:43:15.847000+0800</time>
      </trkpt>
      <trkpt lat="22.231179" lon="113.238795">
        <ele>359.7</ele>
        <time>2025-02-21T14:43:29.899000+0800</time>
      </trkpt>
      <trkpt lat="22.231241" lon="113.238719">
        <ele>361.7</ele>
        <time>2025-02-21T14:43:54.918000+0800</time>
      </trkpt>
      <trkpt lat="22.231309" lon="113.238654">
        <ele>363.5</ele>
        <time>2025-02-21T14:44:14.888000+0800</time>
      </trkpt>
      <trkpt lat="22.231282" lon="113.238561">
        <ele>365.4</ele>
        <time>2025-02-21T14:44:29.924000+0800</time>
      </trkpt>
      <trkpt lat="22.231323" lon="113.238469">
        <ele>367.3</ele>
        <time>2025-02-21T14:45:03.886000+0800</time>
      </trkpt>
      <trkpt lat="22.231414" lon="113.238443">
        <ele>369.3</ele>
        <time>2025-02-21T14:45:20.853000+0800</time>
      </trkpt>
      <trkpt lat="22.231505" lon="113.238434">
        <ele>371.1</ele>
        <time>2025-02-21T14:45:40.873000+0800</time>
      </trkpt>
      <trkpt lat="22.231586" lon="113.23839">
        <ele>373</ele>
        <time>2025-02-21T14:45:56.896000+0800</time>
      </trkpt>
      <trkpt lat="22.231678" lon="113.23842">
        <ele>375</ele>
        <time>2025-02-21T14:46:15.891000+0800</time>
      </trkpt>
      <trkpt lat="22.231769" lon="113.238419">
        <ele>376.8</ele>
        <time>2025-02-21T14:46:29.885000+0800</time>
      </trkpt>
      <trkpt lat="22.231864" lon="113.238405">
        <ele>378.8</ele>
        <time>2025-02-21T14:46:47.890000+0800</time>
      </trkpt>
      <trkpt lat="22.231956" lon="113.238427">
        <ele>380.7</ele>
        <time>2025-02-21T14:46:59.893000+0800</time>
      </trkpt>
      <trkpt lat="22.232049" lon="113.238422">
        <ele>382.6</ele>
        <time>2025-02-21T14:47:12.888000+0800</time>
      </trkpt>
      <trkpt lat="22.232138" lon="113.238402">
        <ele>384.5</ele>
        <time>2025-02-21T14:47:24.865000+0800</time>
      </trkpt>
      <trkpt lat="22.232232" lon="113.238419">
        <ele>386.5</ele>
        <time>2025-02-21T14:47:34.776000+0800</time>
      </trkpt>
      <trkpt lat="22.232322" lon="113.238458">
        <ele>388.4</ele>
        <time>2025-02-21T14:47:44.884000+0800</time>
      </trkpt>
      <trkpt lat="22.232406" lon="113.2385">
        <ele>391</ele>
        <time>2025-02-21T14:47:57.883000+0800</time>
      </trkpt>
      <trkpt lat="22.232502" lon="113.23854">
        <ele>394.1</ele>
        <time>2025-02-21T14:48:09.886000+0800</time>
      </trkpt>
      <trkpt lat="22.232612" lon="113.238586">
        <ele>397.7</ele>
        <time>2025-02-21T14:49:31.789000+0800</time>
      </trkpt>
      <trkpt lat="22.232702" lon="113.238583">
        <ele>400.4</ele>
        <time>2025-02-21T14:50:16.938000+0800</time>
      </trkpt>
      <trkpt lat="22.232794" lon="113.23859">
        <ele>403.2</ele>
        <time>2025-02-21T14:50:26.944000+0800</time>
      </trkpt>
      <trkpt lat="22.232941" lon="113.238529">
        <ele>408</ele>
        <time>2025-02-21T14:51:52.928000+0800</time>
      </trkpt>
      <trkpt lat="22.233" lon="113.238455">
        <ele>410.7</ele>
        <time>2025-02-21T14:52:09.941000+0800</time>
      </trkpt>
      <trkpt lat="22.2331" lon="113.238366">
        <ele>414.7</ele>
        <time>2025-02-21T14:53:21.896000+0800</time>
      </trkpt>
      <trkpt lat="22.233158" lon="113.238287">
        <ele>417.5</ele>
        <time>2025-02-21T14:53:37.952000+0800</time>
      </trkpt>
      <trkpt lat="22.233243" lon="113.238251">
        <ele>420.3</ele>
        <time>2025-02-21T14:54:02.951000+0800</time>
      </trkpt>
      <trkpt lat="22.233333" lon="113.238217">
        <ele>423.2</ele>
        <time>2025-02-21T14:54:18.944000+0800</time>
      </trkpt>
      <trkpt lat="22.233406" lon="113.238156">
        <ele>425.9</ele>
        <time>2025-02-21T14:54:30.864000+0800</time>
      </trkpt>
      <trkpt lat="22.233495" lon="113.238125">
        <ele>428.8</ele>
        <time>2025-02-21T14:54:45.947000+0800</time>
      </trkpt>
      <trkpt lat="22.233591" lon="113.238136">
        <ele>431.7</ele>
        <time>2025-02-21T14:54:59.927000+0800</time>
      </trkpt>
      <trkpt lat="22.233683" lon="113.238112">
        <ele>434.6</ele>
        <time>2025-02-21T14:55:21.960000+0800</time>
      </trkpt>
      <trkpt lat="22.233747" lon="113.23804">
        <ele>437.4</ele>
        <time>2025-02-21T14:56:34.958000+0800</time>
      </trkpt>
      <trkpt lat="22.233864" lon="113.237982">
        <ele>441.3</ele>
        <time>2025-02-21T14:59:05.945000+0800</time>
      </trkpt>
      <trkpt lat="22.233906" lon="113.237893">
        <ele>444.1</ele>
        <time>2025-02-21T14:59:21.916000+0800</time>
      </trkpt>
      <trkpt lat="22.233985" lon="113.237846">
        <ele>446.7</ele>
        <time>2025-02-21T14:59:54.893000+0800</time>
      </trkpt>
      <trkpt lat="22.23408" lon="113.237835">
        <ele>449.4</ele>
        <time>2025-02-21T15:00:22.930000+0800</time>
      </trkpt>
      <trkpt lat="22.234174" lon="113.237835">
        <ele>452.2</ele>
        <time>2025-02-21T15:01:24.916000+0800</time>
      </trkpt>
      <trkpt lat="22.234259" lon="113.237794">
        <ele>454.9</ele>
        <time>2025-02-21T15:01:41.941000+0800</time>
      </trkpt>
      <trkpt lat="22.234335" lon="113.237743">
        <ele>457.5</ele>
        <time>2025-02-21T15:02:00.867000+0800</time>
      </trkpt>
      <trkpt lat="22.234412" lon="113.237688">
        <ele>460.1</ele>
        <time>2025-02-21T15:02:21.935000+0800</time>
      </trkpt>
      <trkpt lat="22.234498" lon="113.237659">
        <ele>462.8</ele>
        <time>2025-02-21T15:02:43.960000+0800</time>
      </trkpt>
      <trkpt lat="22.234592" lon="113.237657">
        <ele>465.5</ele>
        <time>2025-02-21T15:03:05.939000+0800</time>
      </trkpt>
      <trkpt lat="22.234684" lon="113.237641">
        <ele>468.2</ele>
        <time>2025-02-21T15:03:41.950000+0800</time>
      </trkpt>
      <trkpt lat="22.234769" lon="113.237672">
        <ele>470.8</ele>
        <time>2025-02-21T15:03:59.954000+0800</time>
      </trkpt>
      <trkpt lat="22.23486" lon="113.237674">
        <ele>473.4</ele>
        <time>2025-02-21T15:04:38.964000+0800</time>
      </trkpt>
      <trkpt lat="22.234931" lon="113.237615">
        <ele>476</ele>
        <time>2025-02-21T15:05:01.916000+0800</time>
      </trkpt>
      <trkpt lat="22.23502" lon="113.237632">
        <ele>478.6</ele>
        <time>2025-02-21T15:05:22.937000+0800</time>
      </trkpt>
      <trkpt lat="22.23511" lon="113.237626">
        <ele>481.3</ele>
        <time>2025-02-21T15:06:03.924000+0800</time>
      </trkpt>
      <trkpt lat="22.235176" lon="113.237553">
        <ele>484</ele>
        <time>2025-02-21T15:06:26.939000+0800</time>
      </trkpt>
      <trkpt lat="22.235304" lon="113.23756">
        <ele>487.7</ele>
        <time>2025-02-21T15:10:08.848000+0800</time>
      </trkpt>
      <trkpt lat="22.235386" lon="113.237606">
        <ele>490.4</ele>
        <time>2025-02-21T15:10:43.864000+0800</time>
      </trkpt>
      <trkpt lat="22.235375" lon="113.237704">
        <ele>493</ele>
        <time>2025-02-21T15:10:55.872000+0800</time>
      </trkpt>
      <trkpt lat="22.235469" lon="113.237695">
        <ele>495.6</ele>
        <time>2025-02-21T15:12:01.790000+0800</time>
      </trkpt>
      <trkpt lat="22.235543" lon="113.237753">
        <ele>495.2</ele>
        <time>2025-02-21T15:12:22.844000+0800</time>
      </trkpt>
      <trkpt lat="22.235657" lon="113.237763">
        <ele>494.6</ele>
        <time>2025-02-21T15:13:12.799000+0800</time>
      </trkpt>
      <trkpt lat="22.235751" lon="113.237772">
        <ele>494.1</ele>
        <time>2025-02-21T15:13:29.830000+0800</time>
      </trkpt>
      <trkpt lat="22.235844" lon="113.237781">
        <ele>493.6</ele>
        <time>2025-02-21T15:13:38.875000+0800</time>
      </trkpt>
      <trkpt lat="22.235988" lon="113.237874">
        <ele>492.8</ele>
        <time>2025-02-21T15:14:14.769000+0800</time>
      </trkpt>
      <trkpt lat="22.236074" lon="113.23791">
        <ele>492.3</ele>
        <time>2025-02-21T15:14:26.958000+0800</time>
      </trkpt>
      <trkpt lat="22.236164" lon="113.237933">
        <ele>491.9</ele>
        <time>2025-02-21T15:16:12.862000+0800</time>
      </trkpt>
      <trkpt lat="22.236256" lon="113.23793">
        <ele>491.4</ele>
        <time>2025-02-21T15:16:35.861000+0800</time>
      </trkpt>
      <trkpt lat="22.236319" lon="113.23801">
        <ele>490.9</ele>
        <time>2025-02-21T15:17:00.861000+0800</time>
      </trkpt>
      <trkpt lat="22.236302" lon="113.237915">
        <ele>490.5</ele>
        <time>2025-02-21T15:20:55.865000+0800</time>
      </trkpt>
      <trkpt lat="22.236319" lon="113.237814">
        <ele>490</ele>
        <time>2025-02-21T15:21:29.136000+0800</time>
      </trkpt>
      <trkpt lat="22.236407" lon="113.23777">
        <ele>489.5</ele>
        <time>2025-02-21T15:21:37.072000+0800</time>
      </trkpt>
      <trkpt lat="22.236499" lon="113.237761">
        <ele>489</ele>
        <time>2025-02-21T15:21:46.095000+0800</time>
      </trkpt>
      <trkpt lat="22.236588" lon="113.23779">
        <ele>488.6</ele>
        <time>2025-02-21T15:21:58.079000+0800</time>
      </trkpt>
      <trkpt lat="22.236683" lon="113.237781">
        <ele>488.1</ele>
        <time>2025-02-21T15:22:07.149000+0800</time>
      </trkpt>
      <trkpt lat="22.236778" lon="113.237788">
        <ele>487.6</ele>
        <time>2025-02-21T15:22:20.192000+0800</time>
      </trkpt>
      <trkpt lat="22.236865" lon="113.237749">
        <ele>487.1</ele>
        <time>2025-02-21T15:22:31.150000+0800</time>
      </trkpt>
      <trkpt lat="22.23696" lon="113.237737">
        <ele>486.6</ele>
        <time>2025-02-21T15:23:19.193000+0800</time>
      </trkpt>
      <trkpt lat="22.23706" lon="113.237758">
        <ele>485.8</ele>
        <time>2025-02-21T15:23:28.113000+0800</time>
      </trkpt>
      <trkpt lat="22.237159" lon="113.237758">
        <ele>484.9</ele>
        <time>2025-02-21T15:23:37.166000+0800</time>
      </trkpt>
      <trkpt lat="22.237253" lon="113.237783">
        <ele>484</ele>
        <time>2025-02-21T15:23:47.207000+0800</time>
      </trkpt>
      <trkpt lat="22.237344" lon="113.237788">
        <ele>483.2</ele>
        <time>2025-02-21T15:23:56.188000+0800</time>
      </trkpt>
      <trkpt lat="22.237425" lon="113.237838">
        <ele>482.4</ele>
        <time>2025-02-21T15:24:15.180000+0800</time>
      </trkpt>
      <trkpt lat="22.237518" lon="113.237833">
        <ele>481.6</ele>
        <time>2025-02-21T15:24:27.207000+0800</time>
      </trkpt>
      <trkpt lat="22.237609" lon="113.237825">
        <ele>480.7</ele>
        <time>2025-02-21T15:24:39.186000+0800</time>
      </trkpt>
      <trkpt lat="22.237709" lon="113.237823">
        <ele>479.9</ele>
        <time>2025-02-21T15:24:51.137000+0800</time>
      </trkpt>
      <trkpt lat="22.237808" lon="113.237801">
        <ele>478.9</ele>
        <time>2025-02-21T15:25:00.158000+0800</time>
      </trkpt>
      <trkpt lat="22.237893" lon="113.237762">
        <ele>478.1</ele>
        <time>2025-02-21T15:25:42.101000+0800</time>
      </trkpt>
      <trkpt lat="22.237981" lon="113.237731">
        <ele>477.3</ele>
        <time>2025-02-21T15:25:51.196000+0800</time>
      </trkpt>
      <trkpt lat="22.238046" lon="113.2378">
        <ele>476.5</ele>
        <time>2025-02-21T15:26:49.173000+0800</time>
      </trkpt>
      <trkpt lat="22.23811" lon="113.237869">
        <ele>475.7</ele>
        <time>2025-02-21T15:27:50.174000+0800</time>
      </trkpt>
      <trkpt lat="22.238168" lon="113.237946">
        <ele>474.9</ele>
        <time>2025-02-21T15:28:16.185000+0800</time>
      </trkpt>
      <trkpt lat="22.23828" lon="113.238067">
        <ele>473.4</ele>
        <time>2025-02-21T15:29:51.179000+0800</time>
      </trkpt>
      <trkpt lat="22.238382" lon="113.23817">
        <ele>472.2</ele>
        <time>2025-02-21T15:30:30.171000+0800</time>
      </trkpt>
      <trkpt lat="22.238587" lon="113.238288">
        <ele>470.3</ele>
        <time>2025-02-21T15:31:34.172000+0800</time>
      </trkpt>
      <trkpt lat="22.238636" lon="113.238372">
        <ele>469.7</ele>
        <time>2025-02-21T15:31:47.188000+0800</time>
      </trkpt>
      <trkpt lat="22.238687" lon="113.238457">
        <ele>469.1</ele>
        <time>2025-02-21T15:32:03.112000+0800</time>
      </trkpt>
      <trkpt lat="22.23877" lon="113.238501">
        <ele>468.5</ele>
        <time>2025-02-21T15:32:28.154000+0800</time>
      </trkpt>
      <trkpt lat="22.238847" lon="113.238569">
        <ele>467.9</ele>
        <time>2025-02-21T15:32:40.217000+0800</time>
      </trkpt>
      <trkpt lat="22.238931" lon="113.238605">
        <ele>467.3</ele>
        <time>2025-02-21T15:32:59.151000+0800</time>
      </trkpt>
      <trkpt lat="22.239026" lon="113.238644">
        <ele>466.7</ele>
        <time>2025-02-21T15:33:16.178000+0800</time>
      </trkpt>
      <trkpt lat="22.239107" lon="113.238696">
        <ele>466.1</ele>
        <time>2025-02-21T15:33:24.187000+0800</time>
      </trkpt>
      <trkpt lat="22.239188" lon="113.238749">
        <ele>465.5</ele>
        <time>2025-02-21T15:33:32.174000+0800</time>
      </trkpt>
      <trkpt lat="22.239234" lon="113.238842">
        <ele>464.9</ele>
        <time>2025-02-21T15:33:46.190000+0800</time>
      </trkpt>
      <trkpt lat="22.239251" lon="113.238939">
        <ele>464.4</ele>
        <time>2025-02-21T15:33:59.164000+0800</time>
      </trkpt>
      <trkpt lat="22.239261" lon="113.239036">
        <ele>463.8</ele>
        <time>2025-02-21T15:34:14.174000+0800</time>
      </trkpt>
      <trkpt lat="22.239279" lon="113.239136">
        <ele>463.2</ele>
        <time>2025-02-21T15:34:23.134000+0800</time>
      </trkpt>
      <trkpt lat="22.239336" lon="113.239213">
        <ele>462.6</ele>
        <time>2025-02-21T15:34:34.171000+0800</time>
      </trkpt>
      <trkpt lat="22.239403" lon="113.239283">
        <ele>462.1</ele>
        <time>2025-02-21T15:35:06.102000+0800</time>
      </trkpt>
      <trkpt lat="22.239425" lon="113.239384">
        <ele>461.5</ele>
        <time>2025-02-21T15:35:17.183000+0800</time>
      </trkpt>
      <trkpt lat="22.239434" lon="113.239484">
        <ele>460.9</ele>
        <time>2025-02-21T15:35:31.077000+0800</time>
      </trkpt>
      <trkpt lat="22.239459" lon="113.239582">
        <ele>460.3</ele>
        <time>2025-02-21T15:35:59.117000+0800</time>
      </trkpt>
      <trkpt lat="22.239511" lon="113.239663">
        <ele>459.7</ele>
        <time>2025-02-21T15:36:17.176000+0800</time>
      </trkpt>
      <trkpt lat="22.239594" lon="113.239709">
        <ele>460</ele>
        <time>2025-02-21T15:36:31.162000+0800</time>
      </trkpt>
      <trkpt lat="22.239641" lon="113.239794">
        <ele>461.9</ele>
        <time>2025-02-21T15:36:48.157000+0800</time>
      </trkpt>
      <trkpt lat="22.239684" lon="113.23989">
        <ele>464</ele>
        <time>2025-02-21T15:37:07.155000+0800</time>
      </trkpt>
      <trkpt lat="22.23971" lon="113.239987">
        <ele>466</ele>
        <time>2025-02-21T15:37:18.143000+0800</time>
      </trkpt>
      <trkpt lat="22.239727" lon="113.240087">
        <ele>467.9</ele>
        <time>2025-02-21T15:37:31.207000+0800</time>
      </trkpt>
      <trkpt lat="22.239767" lon="113.240178">
        <ele>469.9</ele>
        <time>2025-02-21T15:37:43.233000+0800</time>
      </trkpt>
      <trkpt lat="22.239848" lon="113.240227">
        <ele>471.8</ele>
        <time>2025-02-21T15:38:10.182000+0800</time>
      </trkpt>
      <trkpt lat="22.239933" lon="113.240346">
        <ele>474.7</ele>
        <time>2025-02-21T15:38:59.195000+0800</time>
      </trkpt>
      <trkpt lat="22.240001" lon="113.240448">
        <ele>477.2</ele>
        <time>2025-02-21T15:39:43.176000+0800</time>
      </trkpt>
      <trkpt lat="22.240047" lon="113.240545">
        <ele>479.3</ele>
        <time>2025-02-21T15:39:53.083000+0800</time>
      </trkpt>
      <trkpt lat="22.240078" lon="113.240641">
        <ele>481.3</ele>
        <time>2025-02-21T15:40:04.170000+0800</time>
      </trkpt>
      <trkpt lat="22.240112" lon="113.240732">
        <ele>483.2</ele>
        <time>2025-02-21T15:40:15.209000+0800</time>
      </trkpt>
      <trkpt lat="22.240141" lon="113.240825">
        <ele>485.1</ele>
        <time>2025-02-21T15:41:54.149000+0800</time>
      </trkpt>
      <trkpt lat="22.240167" lon="113.240926">
        <ele>487.1</ele>
        <time>2025-02-21T15:42:05.108000+0800</time>
      </trkpt>
      <trkpt lat="22.240112" lon="113.241011">
        <ele>489.1</ele>
        <time>2025-02-21T15:42:15.165000+0800</time>
      </trkpt>
      <trkpt lat="22.240206" lon="113.241085">
        <ele>491.5</ele>
        <time>2025-02-21T15:43:11.212000+0800</time>
      </trkpt>
      <trkpt lat="22.240277" lon="113.241146">
        <ele>493.4</ele>
        <time>2025-02-21T15:43:21.230000+0800</time>
      </trkpt>
      <trkpt lat="22.240354" lon="113.2412">
        <ele>495.4</ele>
        <time>2025-02-21T15:43:31.220000+0800</time>
      </trkpt>
      <trkpt lat="22.240417" lon="113.241272">
        <ele>497.2</ele>
        <time>2025-02-21T15:43:42.209000+0800</time>
      </trkpt>
      <trkpt lat="22.240479" lon="113.241348">
        <ele>498.6</ele>
        <time>2025-02-21T15:44:01.163000+0800</time>
      </trkpt>
      <trkpt lat="22.240542" lon="113.241432">
        <ele>500</ele>
        <time>2025-02-21T15:44:08.196000+0800</time>
      </trkpt>
      <trkpt lat="22.240604" lon="113.241514">
        <ele>501.4</ele>
        <time>2025-02-21T15:44:16.212000+0800</time>
      </trkpt>
      <trkpt lat="22.240642" lon="113.241619">
        <ele>503</ele>
        <time>2025-02-21T15:44:24.198000+0800</time>
      </trkpt>
      <trkpt lat="22.240673" lon="113.241712">
        <ele>504.3</ele>
        <time>2025-02-21T15:44:32.208000+0800</time>
      </trkpt>
      <trkpt lat="22.240731" lon="113.241805">
        <ele>505.8</ele>
        <time>2025-02-21T15:44:40.105000+0800</time>
      </trkpt>
      <trkpt lat="22.240796" lon="113.241876">
        <ele>507.2</ele>
        <time>2025-02-21T15:44:59.088000+0800</time>
      </trkpt>
      <trkpt lat="22.240906" lon="113.241992">
        <ele>509.4</ele>
        <time>2025-02-21T15:45:37.095000+0800</time>
      </trkpt>
      <trkpt lat="22.24094" lon="113.242092">
        <ele>510.8</ele>
        <time>2025-02-21T15:45:52.081000+0800</time>
      </trkpt>
      <trkpt lat="22.24101" lon="113.24216">
        <ele>512.2</ele>
        <time>2025-02-21T15:46:02.169000+0800</time>
      </trkpt>
      <trkpt lat="22.241088" lon="113.242218">
        <ele>513.6</ele>
        <time>2025-02-21T15:46:12.211000+0800</time>
      </trkpt>
      <trkpt lat="22.241149" lon="113.242301">
        <ele>515</ele>
        <time>2025-02-21T15:46:19.191000+0800</time>
      </trkpt>
      <trkpt lat="22.241196" lon="113.242385">
        <ele>516.3</ele>
        <time>2025-02-21T15:46:34.139000+0800</time>
      </trkpt>
      <trkpt lat="22.241243" lon="113.24247">
        <ele>517.7</ele>
        <time>2025-02-21T15:46:50.134000+0800</time>
      </trkpt>
      <trkpt lat="22.241304" lon="113.242551">
        <ele>519.1</ele>
        <time>2025-02-21T15:47:05.098000+0800</time>
      </trkpt>
      <trkpt lat="22.241332" lon="113.242646">
        <ele>520.4</ele>
        <time>2025-02-21T15:47:30.106000+0800</time>
      </trkpt>
      <trkpt lat="22.241339" lon="113.242763">
        <ele>522</ele>
        <time>2025-02-21T15:47:38.126000+0800</time>
      </trkpt>
      <trkpt lat="22.241331" lon="113.242861">
        <ele>523.3</ele>
        <time>2025-02-21T15:47:48.180000+0800</time>
      </trkpt>
      <trkpt lat="22.241287" lon="113.242957">
        <ele>524.6</ele>
        <time>2025-02-21T15:47:59.224000+0800</time>
      </trkpt>
      <trkpt lat="22.241237" lon="113.243044">
        <ele>525.8</ele>
        <time>2025-02-21T15:48:07.212000+0800</time>
      </trkpt>
      <trkpt lat="22.24117" lon="113.243118">
        <ele>527</ele>
        <time>2025-02-21T15:48:15.185000+0800</time>
      </trkpt>
      <trkpt lat="22.241124" lon="113.243205">
        <ele>528.2</ele>
        <time>2025-02-21T15:48:23.193000+0800</time>
      </trkpt>
      <trkpt lat="22.241069" lon="113.243288">
        <ele>529.4</ele>
        <time>2025-02-21T15:48:32.208000+0800</time>
      </trkpt>
      <trkpt lat="22.241032" lon="113.243382">
        <ele>530.6</ele>
        <time>2025-02-21T15:48:40.205000+0800</time>
      </trkpt>
      <trkpt lat="22.241014" lon="113.243483">
        <ele>531.8</ele>
        <time>2025-02-21T15:48:48.190000+0800</time>
      </trkpt>
      <trkpt lat="22.240961" lon="113.243573">
        <ele>533.1</ele>
        <time>2025-02-21T15:48:56.209000+0800</time>
      </trkpt>
      <trkpt lat="22.240922" lon="113.243666">
        <ele>534.3</ele>
        <time>2025-02-21T15:49:09.126000+0800</time>
      </trkpt>
      <trkpt lat="22.240871" lon="113.243746">
        <ele>535.4</ele>
        <time>2025-02-21T15:49:17.141000+0800</time>
      </trkpt>
      <trkpt lat="22.24085" lon="113.243845">
        <ele>536.6</ele>
        <time>2025-02-21T15:49:26.213000+0800</time>
      </trkpt>
      <trkpt lat="22.24084" lon="113.243951">
        <ele>537.9</ele>
        <time>2025-02-21T15:49:34.215000+0800</time>
      </trkpt>
      <trkpt lat="22.240867" lon="113.244045">
        <ele>539</ele>
        <time>2025-02-21T15:49:41.174000+0800</time>
      </trkpt>
      <trkpt lat="22.240919" lon="113.244135">
        <ele>540.3</ele>
        <time>2025-02-21T15:49:51.202000+0800</time>
      </trkpt>
      <trkpt lat="22.240929" lon="113.244237">
        <ele>541.5</ele>
        <time>2025-02-21T15:50:03.196000+0800</time>
      </trkpt>
      <trkpt lat="22.240959" lon="113.244336">
        <ele>542.7</ele>
        <time>2025-02-21T15:50:14.222000+0800</time>
      </trkpt>
      <trkpt lat="22.240981" lon="113.244431">
        <ele>543.9</ele>
        <time>2025-02-21T15:50:37.209000+0800</time>
      </trkpt>
      <trkpt lat="22.241013" lon="113.244532">
        <ele>545.1</ele>
        <time>2025-02-21T15:50:45.129000+0800</time>
      </trkpt>
      <trkpt lat="22.241095" lon="113.244573">
        <ele>546.2</ele>
        <time>2025-02-21T15:50:55.209000+0800</time>
      </trkpt>
      <trkpt lat="22.241144" lon="113.244657">
        <ele>546.3</ele>
        <time>2025-02-21T15:51:06.213000+0800</time>
      </trkpt>
      <trkpt lat="22.241195" lon="113.244739">
        <ele>546.5</ele>
        <time>2025-02-21T15:51:36.208000+0800</time>
      </trkpt>
      <trkpt lat="22.241238" lon="113.244826">
        <ele>546.7</ele>
        <time>2025-02-21T15:51:51.227000+0800</time>
      </trkpt>
      <trkpt lat="22.241292" lon="113.244907">
        <ele>546.9</ele>
        <time>2025-02-21T15:52:02.108000+0800</time>
      </trkpt>
      <trkpt lat="22.241339" lon="113.244991">
        <ele>547</ele>
        <time>2025-02-21T15:52:17.092000+0800</time>
      </trkpt>
      <trkpt lat="22.241424" lon="113.245025">
        <ele>547.2</ele>
        <time>2025-02-21T15:52:47.131000+0800</time>
      </trkpt>
      <trkpt lat="22.241419" lon="113.245127">
        <ele>547.4</ele>
        <time>2025-02-21T15:55:54.169000+0800</time>
      </trkpt>
      <trkpt lat="22.241454" lon="113.245222">
        <ele>547.6</ele>
        <time>2025-02-21T15:56:03.141000+0800</time>
      </trkpt>
      <trkpt lat="22.241491" lon="113.245315">
        <ele>547.8</ele>
        <time>2025-02-21T15:56:12.159000+0800</time>
      </trkpt>
      <trkpt lat="22.241513" lon="113.245421">
        <ele>548</ele>
        <time>2025-02-21T15:56:21.153000+0800</time>
      </trkpt>
      <trkpt lat="22.24151" lon="113.245525">
        <ele>548.2</ele>
        <time>2025-02-21T15:56:32.154000+0800</time>
      </trkpt>
      <trkpt lat="22.241512" lon="113.245628">
        <ele>548.3</ele>
        <time>2025-02-21T15:56:41.150000+0800</time>
      </trkpt>
      <trkpt lat="22.241492" lon="113.245732">
        <ele>548.5</ele>
        <time>2025-02-21T15:56:52.208000+0800</time>
      </trkpt>
      <trkpt lat="22.241432" lon="113.245808">
        <ele>548.7</ele>
        <time>2025-02-21T15:57:16.230000+0800</time>
      </trkpt>
      <trkpt lat="22.241355" lon="113.245866">
        <ele>548.9</ele>
        <time>2025-02-21T15:57:43.085000+0800</time>
      </trkpt>
      <trkpt lat="22.24129" lon="113.245933">
        <ele>549.1</ele>
        <time>2025-02-21T15:58:10.121000+0800</time>
      </trkpt>
      <trkpt lat="22.241245" lon="113.246021">
        <ele>549.3</ele>
        <time>2025-02-21T15:58:23.132000+0800</time>
      </trkpt>
      <trkpt lat="22.241216" lon="113.246113">
        <ele>549.4</ele>
        <time>2025-02-21T15:58:34.125000+0800</time>
      </trkpt>
      <trkpt lat="22.241188" lon="113.246215">
        <ele>549.6</ele>
        <time>2025-02-21T15:58:41.119000+0800</time>
      </trkpt>
      <trkpt lat="22.241168" lon="113.246323">
        <ele>548.3</ele>
        <time>2025-02-21T15:58:49.129000+0800</time>
      </trkpt>
      <trkpt lat="22.241122" lon="113.246418">
        <ele>547</ele>
        <time>2025-02-21T15:58:58.129000+0800</time>
      </trkpt>
      <trkpt lat="22.241137" lon="113.246525">
        <ele>545.7</ele>
        <time>2025-02-21T15:59:11.135000+0800</time>
      </trkpt>
      <trkpt lat="22.241193" lon="113.246613">
        <ele>544.3</ele>
        <time>2025-02-21T15:59:19.223000+0800</time>
      </trkpt>
      <trkpt lat="22.241225" lon="113.246714">
        <ele>543</ele>
        <time>2025-02-21T15:59:26.201000+0800</time>
      </trkpt>
      <trkpt lat="22.24123" lon="113.246814">
        <ele>541.7</ele>
        <time>2025-02-21T15:59:39.137000+0800</time>
      </trkpt>
      <trkpt lat="22.241237" lon="113.246912">
        <ele>540.5</ele>
        <time>2025-02-21T15:59:49.226000+0800</time>
      </trkpt>
      <trkpt lat="22.241191" lon="113.246996">
        <ele>539.3</ele>
        <time>2025-02-21T15:59:58.151000+0800</time>
      </trkpt>
      <trkpt lat="22.241139" lon="113.247077">
        <ele>538.1</ele>
        <time>2025-02-21T16:00:06.096000+0800</time>
      </trkpt>
      <trkpt lat="22.241053" lon="113.247131">
        <ele>536.7</ele>
        <time>2025-02-21T16:00:39.201000+0800</time>
      </trkpt>
      <trkpt lat="22.240988" lon="113.247211">
        <ele>535.4</ele>
        <time>2025-02-21T16:00:51.138000+0800</time>
      </trkpt>
      <trkpt lat="22.24091" lon="113.247263">
        <ele>534.2</ele>
        <time>2025-02-21T16:01:02.108000+0800</time>
      </trkpt>
      <trkpt lat="22.240836" lon="113.247329">
        <ele>532.9</ele>
        <time>2025-02-21T16:01:10.206000+0800</time>
      </trkpt>
      <trkpt lat="22.240789" lon="113.247413">
        <ele>531.7</ele>
        <time>2025-02-21T16:01:24.198000+0800</time>
      </trkpt>
      <trkpt lat="22.240783" lon="113.247517">
        <ele>530.4</ele>
        <time>2025-02-21T16:01:49.233000+0800</time>
      </trkpt>
      <trkpt lat="22.240729" lon="113.247597">
        <ele>529.1</ele>
        <time>2025-02-21T16:01:59.208000+0800</time>
      </trkpt>
      <trkpt lat="22.240713" lon="113.247695">
        <ele>527.9</ele>
        <time>2025-02-21T16:03:16.127000+0800</time>
      </trkpt>
      <trkpt lat="22.240619" lon="113.247725">
        <ele>526.6</ele>
        <time>2025-02-21T16:04:32.168000+0800</time>
      </trkpt>
      <trkpt lat="22.240529" lon="113.247764">
        <ele>525.2</ele>
        <time>2025-02-21T16:04:41.182000+0800</time>
      </trkpt>
      <trkpt lat="22.240494" lon="113.24786">
        <ele>523.4</ele>
        <time>2025-02-21T16:04:56.209000+0800</time>
      </trkpt>
      <trkpt lat="22.240486" lon="113.247958">
        <ele>521.6</ele>
        <time>2025-02-21T16:05:08.124000+0800</time>
      </trkpt>
      <trkpt lat="22.240461" lon="113.248059">
        <ele>519.7</ele>
        <time>2025-02-21T16:05:18.202000+0800</time>
      </trkpt>
      <trkpt lat="22.240432" lon="113.248156">
        <ele>517.9</ele>
        <time>2025-02-21T16:05:30.225000+0800</time>
      </trkpt>
      <trkpt lat="22.240475" lon="113.248291">
        <ele>515.3</ele>
        <time>2025-02-21T16:06:38.151000+0800</time>
      </trkpt>
      <trkpt lat="22.240502" lon="113.248416">
        <ele>513</ele>
        <time>2025-02-21T16:07:17.226000+0800</time>
      </trkpt>
      <trkpt lat="22.240542" lon="113.248508">
        <ele>511.2</ele>
        <time>2025-02-21T16:07:34.213000+0800</time>
      </trkpt>
      <trkpt lat="22.240603" lon="113.24858">
        <ele>509.4</ele>
        <time>2025-02-21T16:07:50.217000+0800</time>
      </trkpt>
      <trkpt lat="22.240675" lon="113.248675">
        <ele>507.2</ele>
        <time>2025-02-21T16:08:23.116000+0800</time>
      </trkpt>
      <trkpt lat="22.240746" lon="113.24874">
        <ele>505.4</ele>
        <time>2025-02-21T16:08:52.203000+0800</time>
      </trkpt>
      <trkpt lat="22.240823" lon="113.248797">
        <ele>503.6</ele>
        <time>2025-02-21T16:09:32.173000+0800</time>
      </trkpt>
      <trkpt lat="22.240897" lon="113.248862">
        <ele>501.8</ele>
        <time>2025-02-21T16:09:59.175000+0800</time>
      </trkpt>
      <trkpt lat="22.241033" lon="113.248988">
        <ele>498.3</ele>
        <time>2025-02-21T16:11:39.202000+0800</time>
      </trkpt>
      <trkpt lat="22.241059" lon="113.249084">
        <ele>496.5</ele>
        <time>2025-02-21T16:11:45.218000+0800</time>
      </trkpt>
      <trkpt lat="22.241117" lon="113.249167">
        <ele>494.6</ele>
        <time>2025-02-21T16:12:15.154000+0800</time>
      </trkpt>
      <trkpt lat="22.241115" lon="113.249266">
        <ele>492.8</ele>
        <time>2025-02-21T16:12:51.254000+0800</time>
      </trkpt>
      <trkpt lat="22.241181" lon="113.249442">
        <ele>488.4</ele>
        <time>2025-02-21T16:14:20.201000+0800</time>
      </trkpt>
      <trkpt lat="22.24111" lon="113.249509">
        <ele>485</ele>
        <time>2025-02-21T16:14:34.194000+0800</time>
      </trkpt>
      <trkpt lat="22.241191" lon="113.249644">
        <ele>479.5</ele>
        <time>2025-02-21T16:16:49.116000+0800</time>
      </trkpt>
      <trkpt lat="22.241152" lon="113.249738">
        <ele>476</ele>
        <time>2025-02-21T16:17:00.128000+0800</time>
      </trkpt>
      <trkpt lat="22.241341" lon="113.249794">
        <ele>468.8</ele>
        <time>2025-02-21T16:18:00.118000+0800</time>
      </trkpt>
      <trkpt lat="22.241516" lon="113.249819">
        <ele>462.3</ele>
        <time>2025-02-21T16:19:13.115000+0800</time>
      </trkpt>
      <trkpt lat="22.241661" lon="113.249883">
        <ele>456.5</ele>
        <time>2025-02-21T16:20:10.196000+0800</time>
      </trkpt>
      <trkpt lat="22.241799" lon="113.249984">
        <ele>450.4</ele>
        <time>2025-02-21T16:24:01.257000+0800</time>
      </trkpt>
      <trkpt lat="22.241906" lon="113.250044">
        <ele>445.9</ele>
        <time>2025-02-21T16:24:37.269000+0800</time>
      </trkpt>
      <trkpt lat="22.241955" lon="113.250126">
        <ele>442.6</ele>
        <time>2025-02-21T16:25:21.263000+0800</time>
      </trkpt>
      <trkpt lat="22.242087" lon="113.250257">
        <ele>436</ele>
        <time>2025-02-21T16:26:52.170000+0800</time>
      </trkpt>
      <trkpt lat="22.242173" lon="113.250354">
        <ele>431.4</ele>
        <time>2025-02-21T16:27:19.245000+0800</time>
      </trkpt>
      <trkpt lat="22.242219" lon="113.250446">
        <ele>427.9</ele>
        <time>2025-02-21T16:27:36.250000+0800</time>
      </trkpt>
      <trkpt lat="22.242246" lon="113.250543">
        <ele>424.4</ele>
        <time>2025-02-21T16:29:17.295000+0800</time>
      </trkpt>
      <trkpt lat="22.242381" lon="113.250693">
        <ele>418.9</ele>
        <time>2025-02-21T16:31:09.368000+0800</time>
      </trkpt>
      <trkpt lat="22.24246" lon="113.25074">
        <ele>416.3</ele>
        <time>2025-02-21T16:31:25.295000+0800</time>
      </trkpt>
      <trkpt lat="22.242553" lon="113.25076">
        <ele>413.6</ele>
        <time>2025-02-21T16:31:53.254000+0800</time>
      </trkpt>
      <trkpt lat="22.242706" lon="113.250817">
        <ele>409</ele>
        <time>2025-02-21T16:34:05.346000+0800</time>
      </trkpt>
      <trkpt lat="22.24278" lon="113.250759">
        <ele>406.5</ele>
        <time>2025-02-21T16:34:23.308000+0800</time>
      </trkpt>
      <trkpt lat="22.242869" lon="113.25078">
        <ele>403.9</ele>
        <time>2025-02-21T16:34:41.331000+0800</time>
      </trkpt>
      <trkpt lat="22.2429" lon="113.250878">
        <ele>401.1</ele>
        <time>2025-02-21T16:34:49.273000+0800</time>
      </trkpt>
      <trkpt lat="22.24293" lon="113.250972">
        <ele>398.5</ele>
        <time>2025-02-21T16:35:14.296000+0800</time>
      </trkpt>
      <trkpt lat="22.243113" lon="113.251032">
        <ele>393.1</ele>
        <time>2025-02-21T16:36:16.258000+0800</time>
      </trkpt>
      <trkpt lat="22.24331" lon="113.251003">
        <ele>387.4</ele>
        <time>2025-02-21T16:38:17.304000+0800</time>
      </trkpt>
      <trkpt lat="22.243425" lon="113.250861">
        <ele>382.5</ele>
        <time>2025-02-21T16:39:15.271000+0800</time>
      </trkpt>
      <trkpt lat="22.243607" lon="113.250882">
        <ele>377.3</ele>
        <time>2025-02-21T16:40:11.348000+0800</time>
      </trkpt>
      <trkpt lat="22.243918" lon="113.250975">
        <ele>370.1</ele>
        <time>2025-02-21T16:40:54.318000+0800</time>
      </trkpt>
      <trkpt lat="22.244003" lon="113.251022">
        <ele>368.4</ele>
        <time>2025-02-21T16:41:00.177000+0800</time>
      </trkpt>
      <trkpt lat="22.24408" lon="113.25108">
        <ele>366.7</ele>
        <time>2025-02-21T16:41:07.255000+0800</time>
      </trkpt>
      <trkpt lat="22.244161" lon="113.251125">
        <ele>365.1</ele>
        <time>2025-02-21T16:41:14.282000+0800</time>
      </trkpt>
      <trkpt lat="22.244234" lon="113.251181">
        <ele>363.5</ele>
        <time>2025-02-21T16:41:31.196000+0800</time>
      </trkpt>
      <trkpt lat="22.244278" lon="113.251268">
        <ele>361.9</ele>
        <time>2025-02-21T16:41:51.196000+0800</time>
      </trkpt>
      <trkpt lat="22.244369" lon="113.25145">
        <ele>358.5</ele>
        <time>2025-02-21T16:42:35.236000+0800</time>
      </trkpt>
      <trkpt lat="22.244433" lon="113.251524">
        <ele>356.9</ele>
        <time>2025-02-21T16:42:42.300000+0800</time>
      </trkpt>
      <trkpt lat="22.244497" lon="113.2516">
        <ele>355.2</ele>
        <time>2025-02-21T16:42:47.305000+0800</time>
      </trkpt>
      <trkpt lat="22.244577" lon="113.251648">
        <ele>353.6</ele>
        <time>2025-02-21T16:42:54.314000+0800</time>
      </trkpt>
      <trkpt lat="22.244644" lon="113.251726">
        <ele>351.8</ele>
        <time>2025-02-21T16:43:04.324000+0800</time>
      </trkpt>
      <trkpt lat="22.244703" lon="113.251808">
        <ele>350.1</ele>
        <time>2025-02-21T16:43:21.309000+0800</time>
      </trkpt>
      <trkpt lat="22.244755" lon="113.251894">
        <ele>348.4</ele>
        <time>2025-02-21T16:43:37.378000+0800</time>
      </trkpt>
      <trkpt lat="22.2448" lon="113.251992">
        <ele>346.7</ele>
        <time>2025-02-21T16:43:53.254000+0800</time>
      </trkpt>
      <trkpt lat="22.244836" lon="113.252084">
        <ele>345</ele>
        <time>2025-02-21T16:44:03.345000+0800</time>
      </trkpt>
      <trkpt lat="22.244877" lon="113.252175">
        <ele>343.4</ele>
        <time>2025-02-21T16:44:12.230000+0800</time>
      </trkpt>
      <trkpt lat="22.244933" lon="113.252309">
        <ele>341.1</ele>
        <time>2025-02-21T16:45:24.222000+0800</time>
      </trkpt>
      <trkpt lat="22.244974" lon="113.252401">
        <ele>340</ele>
        <time>2025-02-21T16:45:33.337000+0800</time>
      </trkpt>
      <trkpt lat="22.244987" lon="113.252503">
        <ele>338.9</ele>
        <time>2025-02-21T16:45:41.244000+0800</time>
      </trkpt>
      <trkpt lat="22.244994" lon="113.25261">
        <ele>337.7</ele>
        <time>2025-02-21T16:45:49.201000+0800</time>
      </trkpt>
      <trkpt lat="22.245002" lon="113.252716">
        <ele>336.5</ele>
        <time>2025-02-21T16:45:55.344000+0800</time>
      </trkpt>
      <trkpt lat="22.244984" lon="113.252825">
        <ele>335.3</ele>
        <time>2025-02-21T16:46:03.358000+0800</time>
      </trkpt>
      <trkpt lat="22.244931" lon="113.252919">
        <ele>334.1</ele>
        <time>2025-02-21T16:46:10.231000+0800</time>
      </trkpt>
      <trkpt lat="22.244877" lon="113.253001">
        <ele>333</ele>
        <time>2025-02-21T16:46:16.198000+0800</time>
      </trkpt>
      <trkpt lat="22.244837" lon="113.253088">
        <ele>331.9</ele>
        <time>2025-02-21T16:46:28.221000+0800</time>
      </trkpt>
      <trkpt lat="22.2449" lon="113.253164">
        <ele>330.8</ele>
        <time>2025-02-21T16:46:48.269000+0800</time>
      </trkpt>
      <trkpt lat="22.245009" lon="113.253199">
        <ele>329.4</ele>
        <time>2025-02-21T16:47:12.260000+0800</time>
      </trkpt>
      <trkpt lat="22.245065" lon="113.253276">
        <ele>328.3</ele>
        <time>2025-02-21T16:47:22.261000+0800</time>
      </trkpt>
      <trkpt lat="22.245233" lon="113.253543">
        <ele>324.8</ele>
        <time>2025-02-21T16:48:38.281000+0800</time>
      </trkpt>
      <trkpt lat="22.245285" lon="113.253625">
        <ele>323.7</ele>
        <time>2025-02-21T16:48:44.283000+0800</time>
      </trkpt>
      <trkpt lat="22.245357" lon="113.253705">
        <ele>322.4</ele>
        <time>2025-02-21T16:49:32.329000+0800</time>
      </trkpt>
      <trkpt lat="22.245454" lon="113.253731">
        <ele>321.2</ele>
        <time>2025-02-21T16:49:41.313000+0800</time>
      </trkpt>
      <trkpt lat="22.245552" lon="113.253725">
        <ele>320.1</ele>
        <time>2025-02-21T16:49:54.385000+0800</time>
      </trkpt>
      <trkpt lat="22.245647" lon="113.253689">
        <ele>319</ele>
        <time>2025-02-21T16:50:01.342000+0800</time>
      </trkpt>
      <trkpt lat="22.245746" lon="113.25365">
        <ele>317.9</ele>
        <time>2025-02-21T16:50:07.322000+0800</time>
      </trkpt>
      <trkpt lat="22.245841" lon="113.253637">
        <ele>317</ele>
        <time>2025-02-21T16:50:16.304000+0800</time>
      </trkpt>
      <trkpt lat="22.245934" lon="113.25364">
        <ele>316</ele>
        <time>2025-02-21T16:51:12.234000+0800</time>
      </trkpt>
      <trkpt lat="22.24602" lon="113.253596">
        <ele>315</ele>
        <time>2025-02-21T16:51:19.239000+0800</time>
      </trkpt>
      <trkpt lat="22.246084" lon="113.253521">
        <ele>314.1</ele>
        <time>2025-02-21T16:51:29.355000+0800</time>
      </trkpt>
      <trkpt lat="22.246118" lon="113.253421">
        <ele>313</ele>
        <time>2025-02-21T16:51:48.376000+0800</time>
      </trkpt>
      <trkpt lat="22.246203" lon="113.253359">
        <ele>312</ele>
        <time>2025-02-21T16:51:54.308000+0800</time>
      </trkpt>
      <trkpt lat="22.246294" lon="113.253337">
        <ele>311</ele>
        <time>2025-02-21T16:52:02.214000+0800</time>
      </trkpt>
      <trkpt lat="22.24638" lon="113.253293">
        <ele>310.1</ele>
        <time>2025-02-21T16:52:13.267000+0800</time>
      </trkpt>
      <trkpt lat="22.246456" lon="113.253215">
        <ele>309</ele>
        <time>2025-02-21T16:52:21.275000+0800</time>
      </trkpt>
      <trkpt lat="22.246516" lon="113.253131">
        <ele>308</ele>
        <time>2025-02-21T16:52:29.276000+0800</time>
      </trkpt>
      <trkpt lat="22.246577" lon="113.253057">
        <ele>307</ele>
        <time>2025-02-21T16:52:39.278000+0800</time>
      </trkpt>
      <trkpt lat="22.246826" lon="113.252983">
        <ele>304.4</ele>
        <time>2025-02-21T16:53:55.401000+0800</time>
      </trkpt>
      <trkpt lat="22.246914" lon="113.253004">
        <ele>303.5</ele>
        <time>2025-02-21T16:54:26.337000+0800</time>
      </trkpt>
      <trkpt lat="22.247014" lon="113.25302">
        <ele>302.4</ele>
        <time>2025-02-21T16:54:32.331000+0800</time>
      </trkpt>
      <trkpt lat="22.247103" lon="113.25304">
        <ele>301.4</ele>
        <time>2025-02-21T16:54:42.358000+0800</time>
      </trkpt>
      <trkpt lat="22.247193" lon="113.253054">
        <ele>299.3</ele>
        <time>2025-02-21T16:55:16.343000+0800</time>
      </trkpt>
      <trkpt lat="22.247283" lon="113.253054">
        <ele>297.1</ele>
        <time>2025-02-21T16:55:55.357000+0800</time>
      </trkpt>
      <trkpt lat="22.247564" lon="113.253023">
        <ele>290.4</ele>
        <time>2025-02-21T16:56:53.219000+0800</time>
      </trkpt>
      <trkpt lat="22.247673" lon="113.253118">
        <ele>287.1</ele>
        <time>2025-02-21T16:57:30.316000+0800</time>
      </trkpt>
      <trkpt lat="22.247623" lon="113.253293">
        <ele>283.1</ele>
        <time>2025-02-21T16:59:03.365000+0800</time>
      </trkpt>
      <trkpt lat="22.247707" lon="113.253339">
        <ele>280.8</ele>
        <time>2025-02-21T16:59:22.292000+0800</time>
      </trkpt>
      <trkpt lat="22.247788" lon="113.253285">
        <ele>278.6</ele>
        <time>2025-02-21T16:59:31.371000+0800</time>
      </trkpt>
      <trkpt lat="22.247882" lon="113.253257">
        <ele>276.3</ele>
        <time>2025-02-21T16:59:39.344000+0800</time>
      </trkpt>
      <trkpt lat="22.247973" lon="113.253275">
        <ele>274.1</ele>
        <time>2025-02-21T16:59:49.334000+0800</time>
      </trkpt>
      <trkpt lat="22.248064" lon="113.253317">
        <ele>271.7</ele>
        <time>2025-02-21T16:59:55.289000+0800</time>
      </trkpt>
      <trkpt lat="22.248149" lon="113.253356">
        <ele>269.5</ele>
        <time>2025-02-21T17:00:01.245000+0800</time>
      </trkpt>
      <trkpt lat="22.24824" lon="113.253383">
        <ele>267.3</ele>
        <time>2025-02-21T17:00:08.275000+0800</time>
      </trkpt>
      <trkpt lat="22.248337" lon="113.253401">
        <ele>264.9</ele>
        <time>2025-02-21T17:00:14.275000+0800</time>
      </trkpt>
      <trkpt lat="22.248422" lon="113.253447">
        <ele>262.7</ele>
        <time>2025-02-21T17:00:19.353000+0800</time>
      </trkpt>
      <trkpt lat="22.248499" lon="113.253521">
        <ele>260.2</ele>
        <time>2025-02-21T17:00:26.336000+0800</time>
      </trkpt>
      <trkpt lat="22.248544" lon="113.253609">
        <ele>257.7</ele>
        <time>2025-02-21T17:00:31.353000+0800</time>
      </trkpt>
      <trkpt lat="22.248591" lon="113.253699">
        <ele>254.6</ele>
        <time>2025-02-21T17:00:39.394000+0800</time>
      </trkpt>
      <trkpt lat="22.248611" lon="113.253795">
        <ele>251.6</ele>
        <time>2025-02-21T17:01:06.353000+0800</time>
      </trkpt>
      <trkpt lat="22.248633" lon="113.253994">
        <ele>245.5</ele>
        <time>2025-02-21T17:01:55.363000+0800</time>
      </trkpt>
      <trkpt lat="22.248634" lon="113.254098">
        <ele>242.3</ele>
        <time>2025-02-21T17:02:11.398000+0800</time>
      </trkpt>
      <trkpt lat="22.248693" lon="113.254174">
        <ele>239.3</ele>
        <time>2025-02-21T17:02:21.330000+0800</time>
      </trkpt>
      <trkpt lat="22.248761" lon="113.254242">
        <ele>236.2</ele>
        <time>2025-02-21T17:02:31.378000+0800</time>
      </trkpt>
      <trkpt lat="22.248791" lon="113.254338">
        <ele>233.1</ele>
        <time>2025-02-21T17:02:45.336000+0800</time>
      </trkpt>
      <trkpt lat="22.248782" lon="113.254443">
        <ele>229.9</ele>
        <time>2025-02-21T17:02:54.378000+0800</time>
      </trkpt>
      <trkpt lat="22.24869" lon="113.254464">
        <ele>226.8</ele>
        <time>2025-02-21T17:03:09.361000+0800</time>
      </trkpt>
      <trkpt lat="22.248597" lon="113.254474">
        <ele>223.8</ele>
        <time>2025-02-21T17:03:15.365000+0800</time>
      </trkpt>
      <trkpt lat="22.24869" lon="113.254658">
        <ele>217.4</ele>
        <time>2025-02-21T17:05:13.358000+0800</time>
      </trkpt>
      <trkpt lat="22.248749" lon="113.254737">
        <ele>214.3</ele>
        <time>2025-02-21T17:05:24.322000+0800</time>
      </trkpt>
      <trkpt lat="22.248861" lon="113.25498">
        <ele>206</ele>
        <time>2025-02-21T17:06:58.355000+0800</time>
      </trkpt>
      <trkpt lat="22.248986" lon="113.255036">
        <ele>201.6</ele>
        <time>2025-02-21T17:08:00.385000+0800</time>
      </trkpt>
      <trkpt lat="22.249071" lon="113.255002">
        <ele>198.4</ele>
        <time>2025-02-21T17:08:19.314000+0800</time>
      </trkpt>
      <trkpt lat="22.24916" lon="113.254986">
        <ele>195</ele>
        <time>2025-02-21T17:08:41.339000+0800</time>
      </trkpt>
      <trkpt lat="22.249252" lon="113.254984">
        <ele>191.5</ele>
        <time>2025-02-21T17:08:52.410000+0800</time>
      </trkpt>
      <trkpt lat="22.249336" lon="113.254945">
        <ele>188</ele>
        <time>2025-02-21T17:08:59.378000+0800</time>
      </trkpt>
      <trkpt lat="22.249409" lon="113.255003">
        <ele>184.6</ele>
        <time>2025-02-21T17:09:21.325000+0800</time>
      </trkpt>
      <trkpt lat="22.249512" lon="113.255129">
        <ele>178.7</ele>
        <time>2025-02-21T17:10:38.350000+0800</time>
      </trkpt>
      <trkpt lat="22.249633" lon="113.255197">
        <ele>173.5</ele>
        <time>2025-02-21T17:11:29.364000+0800</time>
      </trkpt>
      <trkpt lat="22.249729" lon="113.255222">
        <ele>169.8</ele>
        <time>2025-02-21T17:11:56.361000+0800</time>
      </trkpt>
      <trkpt lat="22.249771" lon="113.255314">
        <ele>166.2</ele>
        <time>2025-02-21T17:12:12.326000+0800</time>
      </trkpt>
      <trkpt lat="22.249944" lon="113.25549">
        <ele>157.1</ele>
        <time>2025-02-21T17:13:25.391000+0800</time>
      </trkpt>
      <trkpt lat="22.250039" lon="113.255493">
        <ele>153.5</ele>
        <time>2025-02-21T17:13:46.329000+0800</time>
      </trkpt>
      <trkpt lat="22.250145" lon="113.25548">
        <ele>149.5</ele>
        <time>2025-02-21T17:14:01.335000+0800</time>
      </trkpt>
      <trkpt lat="22.250236" lon="113.255473">
        <ele>146</ele>
        <time>2025-02-21T17:14:15.342000+0800</time>
      </trkpt>
      <trkpt lat="22.250331" lon="113.255466">
        <ele>142.4</ele>
        <time>2025-02-21T17:14:29.345000+0800</time>
      </trkpt>
      <trkpt lat="22.250434" lon="113.255482">
        <ele>138.5</ele>
        <time>2025-02-21T17:14:37.370000+0800</time>
      </trkpt>
      <trkpt lat="22.250526" lon="113.255504">
        <ele>134.9</ele>
        <time>2025-02-21T17:14:52.253000+0800</time>
      </trkpt>
      <trkpt lat="22.250677" lon="113.255442">
        <ele>130.5</ele>
        <time>2025-02-21T17:15:37.384000+0800</time>
      </trkpt>
      <trkpt lat="22.250742" lon="113.255372">
        <ele>129.3</ele>
        <time>2025-02-21T17:15:46.353000+0800</time>
      </trkpt>
      <trkpt lat="22.250806" lon="113.255297">
        <ele>128</ele>
        <time>2025-02-21T17:15:54.379000+0800</time>
      </trkpt>
      <trkpt lat="22.250898" lon="113.255271">
        <ele>126.7</ele>
        <time>2025-02-21T17:16:03.399000+0800</time>
      </trkpt>
      <trkpt lat="22.250979" lon="113.255207">
        <ele>125.4</ele>
        <time>2025-02-21T17:16:12.403000+0800</time>
      </trkpt>
      <trkpt lat="22.251062" lon="113.255156">
        <ele>124.1</ele>
        <time>2025-02-21T17:16:19.378000+0800</time>
      </trkpt>
      <trkpt lat="22.251141" lon="113.255104">
        <ele>122.9</ele>
        <time>2025-02-21T17:16:27.357000+0800</time>
      </trkpt>
      <trkpt lat="22.25119" lon="113.255021">
        <ele>121.7</ele>
        <time>2025-02-21T17:16:39.377000+0800</time>
      </trkpt>
      <trkpt lat="22.251258" lon="113.254953">
        <ele>120.4</ele>
        <time>2025-02-21T17:16:51.377000+0800</time>
      </trkpt>
      <trkpt lat="22.251424" lon="113.254895">
        <ele>118.1</ele>
        <time>2025-02-21T17:17:27.323000+0800</time>
      </trkpt>
      <trkpt lat="22.251492" lon="113.25483">
        <ele>116.9</ele>
        <time>2025-02-21T17:17:55.268000+0800</time>
      </trkpt>
      <trkpt lat="22.251589" lon="113.254819">
        <ele>115.6</ele>
        <time>2025-02-21T17:18:23.243000+0800</time>
      </trkpt>
      <trkpt lat="22.251663" lon="113.254882">
        <ele>114.3</ele>
        <time>2025-02-21T17:18:39.427000+0800</time>
      </trkpt>
      <trkpt lat="22.251677" lon="113.254984">
        <ele>113.1</ele>
        <time>2025-02-21T17:18:48.380000+0800</time>
      </trkpt>
      <trkpt lat="22.251713" lon="113.255096">
        <ele>111.6</ele>
        <time>2025-02-21T17:18:55.381000+0800</time>
      </trkpt>
      <trkpt lat="22.251772" lon="113.255174">
        <ele>110.4</ele>
        <time>2025-02-21T17:19:02.355000+0800</time>
      </trkpt>
      <trkpt lat="22.251864" lon="113.255187">
        <ele>109.1</ele>
        <time>2025-02-21T17:19:14.344000+0800</time>
      </trkpt>
      <trkpt lat="22.251953" lon="113.255205">
        <ele>107.9</ele>
        <time>2025-02-21T17:19:22.248000+0800</time>
      </trkpt>
      <trkpt lat="22.25205" lon="113.255215">
        <ele>107</ele>
        <time>2025-02-21T17:19:37.281000+0800</time>
      </trkpt>
      <trkpt lat="22.25214" lon="113.255204">
        <ele>106.4</ele>
        <time>2025-02-21T17:19:44.309000+0800</time>
      </trkpt>
      <trkpt lat="22.252218" lon="113.255148">
        <ele>105.7</ele>
        <time>2025-02-21T17:19:55.308000+0800</time>
      </trkpt>
      <trkpt lat="22.252319" lon="113.255151">
        <ele>105</ele>
        <time>2025-02-21T17:20:09.366000+0800</time>
      </trkpt>
      <trkpt lat="22.252416" lon="113.255141">
        <ele>104.3</ele>
        <time>2025-02-21T17:20:21.292000+0800</time>
      </trkpt>
      <trkpt lat="22.252507" lon="113.255137">
        <ele>103.7</ele>
        <time>2025-02-21T17:20:28.345000+0800</time>
      </trkpt>
      <trkpt lat="22.252605" lon="113.255108">
        <ele>103</ele>
        <time>2025-02-21T17:20:36.317000+0800</time>
      </trkpt>
      <trkpt lat="22.252696" lon="113.255108">
        <ele>102.3</ele>
        <time>2025-02-21T17:20:42.315000+0800</time>
      </trkpt>
      <trkpt lat="22.252785" lon="113.255061">
        <ele>101.6</ele>
        <time>2025-02-21T17:20:51.321000+0800</time>
      </trkpt>
      <trkpt lat="22.252879" lon="113.255023">
        <ele>100.9</ele>
        <time>2025-02-21T17:20:59.316000+0800</time>
      </trkpt>
      <trkpt lat="22.25297" lon="113.255">
        <ele>100.3</ele>
        <time>2025-02-21T17:21:08.329000+0800</time>
      </trkpt>
      <trkpt lat="22.253065" lon="113.254983">
        <ele>99.6</ele>
        <time>2025-02-21T17:21:14.291000+0800</time>
      </trkpt>
      <trkpt lat="22.253156" lon="113.254944">
        <ele>98.9</ele>
        <time>2025-02-21T17:21:23.327000+0800</time>
      </trkpt>
      <trkpt lat="22.253233" lon="113.254894">
        <ele>98.3</ele>
        <time>2025-02-21T17:21:29.286000+0800</time>
      </trkpt>
      <trkpt lat="22.253323" lon="113.254881">
        <ele>97.6</ele>
        <time>2025-02-21T17:21:51.259000+0800</time>
      </trkpt>
      <trkpt lat="22.253431" lon="113.254867">
        <ele>96.9</ele>
        <time>2025-02-21T17:22:15.316000+0800</time>
      </trkpt>
      <trkpt lat="22.253593" lon="113.254819">
        <ele>95.7</ele>
        <time>2025-02-21T17:22:39.346000+0800</time>
      </trkpt>
      <trkpt lat="22.253686" lon="113.254808">
        <ele>95</ele>
        <time>2025-02-21T17:22:50.307000+0800</time>
      </trkpt>
      <trkpt lat="22.25384" lon="113.254791">
        <ele>91.2</ele>
        <time>2025-02-21T17:23:19.335000+0800</time>
      </trkpt>
      <trkpt lat="22.25389" lon="113.254872">
        <ele>88.4</ele>
        <time>2025-02-21T17:23:54.374000+0800</time>
      </trkpt>
      <trkpt lat="22.253971" lon="113.254925">
        <ele>85.6</ele>
        <time>2025-02-21T17:24:09.327000+0800</time>
      </trkpt>
      <trkpt lat="22.254298" lon="113.25505">
        <ele>75.2</ele>
        <time>2025-02-21T17:25:10.307000+0800</time>
      </trkpt>
      <trkpt lat="22.254391" lon="113.255057">
        <ele>72.3</ele>
        <time>2025-02-21T17:25:26.354000+0800</time>
      </trkpt>
      <trkpt lat="22.254482" lon="113.255021">
        <ele>69.4</ele>
        <time>2025-02-21T17:25:47.398000+0800</time>
      </trkpt>
      <trkpt lat="22.254571" lon="113.254998">
        <ele>66.7</ele>
        <time>2025-02-21T17:25:58.378000+0800</time>
      </trkpt>
      <trkpt lat="22.254633" lon="113.255071">
        <ele>63.9</ele>
        <time>2025-02-21T17:26:18.412000+0800</time>
      </trkpt>
      <trkpt lat="22.254659" lon="113.255166">
        <ele>61.2</ele>
        <time>2025-02-21T17:26:40.379000+0800</time>
      </trkpt>
      <trkpt lat="22.254862" lon="113.255437">
        <ele>51.4</ele>
        <time>2025-02-21T17:27:54.403000+0800</time>
      </trkpt>
      <trkpt lat="22.25494" lon="113.255486">
        <ele>48.7</ele>
        <time>2025-02-21T17:28:27.418000+0800</time>
      </trkpt>
      <trkpt lat="22.255041" lon="113.255502">
        <ele>45.7</ele>
        <time>2025-02-21T17:28:44.448000+0800</time>
      </trkpt>
      <trkpt lat="22.255138" lon="113.255499">
        <ele>42.7</ele>
        <time>2025-02-21T17:28:51.387000+0800</time>
      </trkpt>
      <trkpt lat="22.255233" lon="113.255518">
        <ele>40</ele>
        <time>2025-02-21T17:28:59.387000+0800</time>
      </trkpt>
      <trkpt lat="22.255321" lon="113.255555">
        <ele>37.9</ele>
        <time>2025-02-21T17:29:07.395000+0800</time>
      </trkpt>
      <trkpt lat="22.255411" lon="113.255603">
        <ele>35.6</ele>
        <time>2025-02-21T17:29:17.370000+0800</time>
      </trkpt>
      <trkpt lat="22.255505" lon="113.255614">
        <ele>33.5</ele>
        <time>2025-02-21T17:29:38.368000+0800</time>
      </trkpt>
      <trkpt lat="22.255598" lon="113.255621">
        <ele>31.4</ele>
        <time>2025-02-21T17:29:51.347000+0800</time>
      </trkpt>
      <trkpt lat="22.255687" lon="113.255609">
        <ele>29.4</ele>
        <time>2025-02-21T17:30:02.323000+0800</time>
      </trkpt>
      <trkpt lat="22.255787" lon="113.255596">
        <ele>27.1</ele>
        <time>2025-02-21T17:30:17.335000+0800</time>
      </trkpt>
      <trkpt lat="22.25588" lon="113.255595">
        <ele>25</ele>
        <time>2025-02-21T17:30:30.413000+0800</time>
      </trkpt>
      <trkpt lat="22.255972" lon="113.255598">
        <ele>22.9</ele>
        <time>2025-02-21T17:30:46.390000+0800</time>
      </trkpt>
      <trkpt lat="22.256051" lon="113.255551">
        <ele>20.9</ele>
        <time>2025-02-21T17:31:06.401000+0800</time>
      </trkpt>
      <trkpt lat="22.256136" lon="113.255594">
        <ele>18.8</ele>
        <time>2025-02-21T17:31:29.351000+0800</time>
      </trkpt>
      <trkpt lat="22.256136" lon="113.255693">
        <ele>16.7</ele>
        <time>2025-02-21T17:31:40.383000+0800</time>
      </trkpt>
      <trkpt lat="22.256224" lon="113.255745">
        <ele>14.4</ele>
        <time>2025-02-21T17:31:57.426000+0800</time>
      </trkpt>
      <trkpt lat="22.256316" lon="113.25572">
        <ele>12.3</ele>
        <time>2025-02-21T17:32:08.405000+0800</time>
      </trkpt>
      <trkpt lat="22.256377" lon="113.255794">
        <ele>10.2</ele>
        <time>2025-02-21T17:32:26.383000+0800</time>
      </trkpt>
      <trkpt lat="22.25641" lon="113.255892">
        <ele>8</ele>
        <time>2025-02-21T17:32:35.428000+0800</time>
      </trkpt>
      <trkpt lat="22.256453" lon="113.255981">
        <ele>5.9</ele>
        <time>2025-02-21T17:32:50.365000+0800</time>
      </trkpt>
      <trkpt lat="22.256506" lon="113.256072">
        <ele>3.7</ele>
        <time>2025-02-21T17:33:02.377000+0800</time>
      </trkpt>
      <trkpt lat="22.256594" lon="113.256102">
        <ele>1.6</ele>
        <time>2025-02-21T17:33:28.440000+0800</time>
      </trkpt>
      <trkpt lat="22.256667" lon="113.256031">
        <ele>-0.1</ele>
        <time>2025-02-21T17:33:43.441000+0800</time>
      </trkpt>
      <trkpt lat="22.256757" lon="113.256029">
        <ele>-0.4</ele>
        <time>2025-02-21T17:33:54.431000+0800</time>
      </trkpt>
      <trkpt lat="22.256851" lon="113.256023">
        <ele>-0.8</ele>
        <time>2025-02-21T17:34:04.425000+0800</time>
      </trkpt>
      <trkpt lat="22.256944" lon="113.256007">
        <ele>-1.2</ele>
        <time>2025-02-21T17:34:11.374000+0800</time>
      </trkpt>
      <trkpt lat="22.257034" lon="113.255957">
        <ele>-1.7</ele>
        <time>2025-02-21T17:34:20.394000+0800</time>
      </trkpt>
      <trkpt lat="22.257127" lon="113.25593">
        <ele>-2.1</ele>
        <time>2025-02-21T17:34:29.435000+0800</time>
      </trkpt>
      <trkpt lat="22.257181" lon="113.256009">
        <ele>-2.5</ele>
        <time>2025-02-21T17:34:47.391000+0800</time>
      </trkpt>
      <trkpt lat="22.257198" lon="113.256114">
        <ele>-2.9</ele>
        <time>2025-02-21T17:34:53.351000+0800</time>
      </trkpt>
      <trkpt lat="22.257231" lon="113.25622">
        <ele>-3.3</ele>
        <time>2025-02-21T17:35:00.324000+0800</time>
      </trkpt>
      <trkpt lat="22.257263" lon="113.256312">
        <ele>-3.7</ele>
        <time>2025-02-21T17:35:06.395000+0800</time>
      </trkpt>
      <trkpt lat="22.257289" lon="113.256414">
        <ele>-4.1</ele>
        <time>2025-02-21T17:35:12.233000+0800</time>
      </trkpt>
      <trkpt lat="22.257308" lon="113.256512">
        <ele>-4.5</ele>
        <time>2025-02-21T17:35:18.424000+0800</time>
      </trkpt>
      <trkpt lat="22.257318" lon="113.256613">
        <ele>-4.9</ele>
        <time>2025-02-21T17:35:25.441000+0800</time>
      </trkpt>
      <trkpt lat="22.25733" lon="113.256721">
        <ele>-5.3</ele>
        <time>2025-02-21T17:35:33.399000+0800</time>
      </trkpt>
      <trkpt lat="22.257353" lon="113.256819">
        <ele>-5.7</ele>
        <time>2025-02-21T17:35:38.372000+0800</time>
      </trkpt>
      <trkpt lat="22.257376" lon="113.256935">
        <ele>-6.2</ele>
        <time>2025-02-21T17:35:45.377000+0800</time>
      </trkpt>
      <trkpt lat="22.257406" lon="113.257029">
        <ele>-6.6</ele>
        <time>2025-02-21T17:35:51.387000+0800</time>
      </trkpt>
      <trkpt lat="22.257473" lon="113.257116">
        <ele>-7</ele>
        <time>2025-02-21T17:35:59.391000+0800</time>
      </trkpt>
      <trkpt lat="22.257546" lon="113.257184">
        <ele>-7.4</ele>
        <time>2025-02-21T17:36:06.377000+0800</time>
      </trkpt>
      <trkpt lat="22.257621" lon="113.257261">
        <ele>-7.9</ele>
        <time>2025-02-21T17:36:14.326000+0800</time>
      </trkpt>
      <trkpt lat="22.257717" lon="113.257282">
        <ele>-8.3</ele>
        <time>2025-02-21T17:36:20.382000+0800</time>
      </trkpt>
      <trkpt lat="22.257802" lon="113.257334">
        <ele>-8.8</ele>
        <time>2025-02-21T17:36:28.461000+0800</time>
      </trkpt>
      <trkpt lat="22.257873" lon="113.257409">
        <ele>-9.2</ele>
        <time>2025-02-21T17:36:34.394000+0800</time>
      </trkpt>
      <trkpt lat="22.257923" lon="113.257511">
        <ele>-9.7</ele>
        <time>2025-02-21T17:36:41.383000+0800</time>
      </trkpt>
      <trkpt lat="22.257969" lon="113.257598">
        <ele>-10.1</ele>
        <time>2025-02-21T17:36:48.447000+0800</time>
      </trkpt>
      <trkpt lat="22.25806" lon="113.25766">
        <ele>-10.6</ele>
        <time>2025-02-21T17:36:55.432000+0800</time>
      </trkpt>
      <trkpt lat="22.258138" lon="113.25772">
        <ele>-11.1</ele>
        <time>2025-02-21T17:37:01.369000+0800</time>
      </trkpt>
      <trkpt lat="22.258211" lon="113.257789">
        <ele>-11.5</ele>
        <time>2025-02-21T17:37:08.404000+0800</time>
      </trkpt>
      <trkpt lat="22.258291" lon="113.25786">
        <ele>-12</ele>
        <time>2025-02-21T17:37:15.449000+0800</time>
      </trkpt>
      <trkpt lat="22.258353" lon="113.257932">
        <ele>-12.4</ele>
        <time>2025-02-21T17:37:23.422000+0800</time>
      </trkpt>
      <trkpt lat="22.25844" lon="113.257987">
        <ele>-12.9</ele>
        <time>2025-02-21T17:37:31.386000+0800</time>
      </trkpt>
      <trkpt lat="22.258518" lon="113.258061">
        <ele>-13.3</ele>
        <time>2025-02-21T17:37:38.304000+0800</time>
      </trkpt>
      <trkpt lat="22.258591" lon="113.258124">
        <ele>-13.8</ele>
        <time>2025-02-21T17:37:45.391000+0800</time>
      </trkpt>
      <trkpt lat="22.258671" lon="113.258189">
        <ele>-14.2</ele>
        <time>2025-02-21T17:37:51.295000+0800</time>
      </trkpt>
      <trkpt lat="22.258743" lon="113.25825">
        <ele>-14.6</ele>
        <time>2025-02-21T17:37:58.389000+0800</time>
      </trkpt>
      <trkpt lat="22.258819" lon="113.258315">
        <ele>-15.1</ele>
        <time>2025-02-21T17:38:06.375000+0800</time>
      </trkpt>
      <trkpt lat="22.258889" lon="113.258376">
        <ele>-15.5</ele>
        <time>2025-02-21T17:38:13.392000+0800</time>
      </trkpt>
      <trkpt lat="22.258962" lon="113.258438">
        <ele>-15.7</ele>
        <time>2025-02-21T17:38:19.378000+0800</time>
      </trkpt>
      <trkpt lat="22.259034" lon="113.258515">
        <ele>-15.6</ele>
        <time>2025-02-21T17:38:26.399000+0800</time>
      </trkpt>
      <trkpt lat="22.259109" lon="113.258586">
        <ele>-15.5</ele>
        <time>2025-02-21T17:38:33.382000+0800</time>
      </trkpt>
      <trkpt lat="22.259166" lon="113.258662">
        <ele>-15.5</ele>
        <time>2025-02-21T17:38:39.381000+0800</time>
      </trkpt>
      <trkpt lat="22.259207" lon="113.258753">
        <ele>-15.4</ele>
        <time>2025-02-21T17:38:45.325000+0800</time>
      </trkpt>
      <trkpt lat="22.259262" lon="113.258833">
        <ele>-15.3</ele>
        <time>2025-02-21T17:38:52.343000+0800</time>
      </trkpt>
      <trkpt lat="22.259317" lon="113.25891">
        <ele>-15.3</ele>
        <time>2025-02-21T17:38:59.395000+0800</time>
      </trkpt>
      <trkpt lat="22.25938" lon="113.258987">
        <ele>-15.2</ele>
        <time>2025-02-21T17:39:05.473000+0800</time>
      </trkpt>
      <trkpt lat="22.25945" lon="113.259057">
        <ele>-15.1</ele>
        <time>2025-02-21T17:39:12.334000+0800</time>
      </trkpt>
      <trkpt lat="22.259519" lon="113.259136">
        <ele>-15</ele>
        <time>2025-02-21T17:39:19.400000+0800</time>
      </trkpt>
      <trkpt lat="22.259571" lon="113.259236">
        <ele>-14.9</ele>
        <time>2025-02-21T17:39:27.411000+0800</time>
      </trkpt>
      <trkpt lat="22.259624" lon="113.259327">
        <ele>-14.9</ele>
        <time>2025-02-21T17:39:34.437000+0800</time>
      </trkpt>
      <trkpt lat="22.259679" lon="113.259416">
        <ele>-14.8</ele>
        <time>2025-02-21T17:39:41.374000+0800</time>
      </trkpt>
      <trkpt lat="22.259724" lon="113.259517">
        <ele>-14.7</ele>
        <time>2025-02-21T17:39:48.436000+0800</time>
      </trkpt>
      <trkpt lat="22.259766" lon="113.259612">
        <ele>-14.6</ele>
        <time>2025-02-21T17:39:55.398000+0800</time>
      </trkpt>
      <trkpt lat="22.259819" lon="113.259694">
        <ele>-14.6</ele>
        <time>2025-02-21T17:40:02.328000+0800</time>
      </trkpt>
      <trkpt lat="22.259866" lon="113.259779">
        <ele>-14.5</ele>
        <time>2025-02-21T17:40:09.362000+0800</time>
      </trkpt>
      <trkpt lat="22.25991" lon="113.259876">
        <ele>-14.4</ele>
        <time>2025-02-21T17:40:16.341000+0800</time>
      </trkpt>
      <trkpt lat="22.259929" lon="113.259975">
        <ele>-14.3</ele>
        <time>2025-02-21T17:40:23.391000+0800</time>
      </trkpt>
      <trkpt lat="22.259965" lon="113.260081">
        <ele>-14.3</ele>
        <time>2025-02-21T17:40:30.412000+0800</time>
      </trkpt>
      <trkpt lat="22.259982" lon="113.260179">
        <ele>-14.3</ele>
        <time>2025-02-21T17:40:37.418000+0800</time>
      </trkpt>
      <trkpt lat="22.259997" lon="113.260289">
        <ele>-14.3</ele>
        <time>2025-02-21T17:40:45.406000+0800</time>
      </trkpt>
      <trkpt lat="22.260007" lon="113.260387">
        <ele>-14.3</ele>
        <time>2025-02-21T17:40:52.332000+0800</time>
      </trkpt>
      <trkpt lat="22.260029" lon="113.260492">
        <ele>-14.3</ele>
        <time>2025-02-21T17:41:01.409000+0800</time>
      </trkpt>
      <trkpt lat="22.260043" lon="113.260591">
        <ele>-14.3</ele>
        <time>2025-02-21T17:41:10.378000+0800</time>
      </trkpt>
      <trkpt lat="22.260039" lon="113.260694">
        <ele>-14.3</ele>
        <time>2025-02-21T17:41:19.382000+0800</time>
      </trkpt>
      <trkpt lat="22.260072" lon="113.260798">
        <ele>-14.3</ele>
        <time>2025-02-21T17:41:29.448000+0800</time>
      </trkpt>
      <trkpt lat="22.260087" lon="113.260903">
        <ele>-14.3</ele>
        <time>2025-02-21T17:41:37.291000+0800</time>
      </trkpt>
      <trkpt lat="22.260086" lon="113.261005">
        <ele>-14.3</ele>
        <time>2025-02-21T17:41:45.179000+0800</time>
      </trkpt>
    </trkseg>
  </trk>
</gpx>